<?xml version="1.0" encoding="UTF-8" standalone="no" ?><gpx xmlns="http://www.topografix.com/GPX/1/1" xmlns:gpxx="http://www.garmin.com/xmlschemas/GpxExtensions/v3" xmlns:gpxtrkx="http://www.garmin.com/xmlschemas/TrackStatsExtension/v1" xmlns:wptx1="http://www.garmin.com/xmlschemas/WaypointExtension/v1" xmlns:gpxtpx="http://www.garmin.com/xmlschemas/TrackPointExtension/v1" creator="GPSMAP 64sx" version="1.1" xmlns:xsi="http://www.w3.org/2001/XMLSchema-instance" xsi:schemaLocation="http://www.topografix.com/GPX/1/1 http://www.topografix.com/GPX/1/1/gpx.xsd http://www.garmin.com/xmlschemas/GpxExtensions/v3 http://www8.garmin.com/xmlschemas/GpxExtensionsv3.xsd http://www.garmin.com/xmlschemas/TrackStatsExtension/v1 http://www8.garmin.com/xmlschemas/TrackStatsExtension.xsd http://www.garmin.com/xmlschemas/WaypointExtension/v1 http://www8.garmin.com/xmlschemas/WaypointExtensionv1.xsd http://www.garmin.com/xmlschemas/TrackPointExtension/v1 http://www.garmin.com/xmlschemas/TrackPointExtensionv1.xsd"><metadata><link href="http://www.garmin.com"><text>Garmin International</text></link><time>2024-07-31T01:22:04Z</time></metadata><trk><name>HUIS 240730</name><extensions><gpxx:TrackExtension><gpxx:DisplayColor>Cyan</gpxx:DisplayColor></gpxx:TrackExtension><gpxtrkx:TrackStatsExtension><gpxtrkx:Distance>12868.000</gpxtrkx:Distance><gpxtrkx:TotalElapsedTime>2188</gpxtrkx:TotalElapsedTime><gpxtrkx:MovingTime>2004</gpxtrkx:MovingTime><gpxtrkx:StoppedTime>183</gpxtrkx:StoppedTime><gpxtrkx:MovingSpeed>6.422</gpxtrkx:MovingSpeed><gpxtrkx:MaxSpeed>13.610</gpxtrkx:MaxSpeed><gpxtrkx:MaxElevation>274.840</gpxtrkx:MaxElevation><gpxtrkx:MinElevation>215.728</gpxtrkx:MinElevation><gpxtrkx:Ascent>140.000</gpxtrkx:Ascent><gpxtrkx:Descent>135.670</gpxtrkx:Descent><gpxtrkx:AvgAscentRate>0.117</gpxtrkx:AvgAscentRate><gpxtrkx:MaxAscentRate>0.647</gpxtrkx:MaxAscentRate><gpxtrkx:AvgDescentRate>0.112</gpxtrkx:AvgDescentRate><gpxtrkx:MaxDescentRate>-0.627</gpxtrkx:MaxDescentRate></gpxtrkx:TrackStatsExtension></extensions><trkseg><trkpt lat="-39.2730955034" lon="-72.4093541969"><ele>228.64</ele><time>2024-07-31T00:45:36Z</time></trkpt><trkpt lat="-39.2730940785" lon="-72.4093567114"><ele>228.64</ele><time>2024-07-31T00:45:37Z</time></trkpt><trkpt lat="-39.2731170449" lon="-72.4093451444"><ele>245.23</ele><time>2024-07-31T00:45:39Z</time></trkpt><trkpt lat="-39.2731055617" lon="-72.4093449768"><ele>245.47</ele><time>2024-07-31T00:45:40Z</time></trkpt><trkpt lat="-39.2730984371" lon="-72.4093536101"><ele>245.32</ele><time>2024-07-31T00:46:08Z</time></trkpt><trkpt lat="-39.2730794102" lon="-72.4093349185"><ele>245.70</ele><time>2024-07-31T00:46:34Z</time></trkpt><trkpt lat="-39.2730610538" lon="-72.4093277100"><ele>246.61</ele><time>2024-07-31T00:47:03Z</time></trkpt><trkpt lat="-39.2730561085" lon="-72.4093208369"><ele>246.36</ele><time>2024-07-31T00:47:30Z</time></trkpt><trkpt lat="-39.2731177993" lon="-72.4092944339"><ele>246.74</ele><time>2024-07-31T00:47:43Z</time></trkpt><trkpt lat="-39.2732081562" lon="-72.4093237706"><ele>247.06</ele><time>2024-07-31T00:47:47Z</time></trkpt><trkpt lat="-39.2738189455" lon="-72.4095126987"><ele>246.67</ele><time>2024-07-31T00:48:02Z</time></trkpt><trkpt lat="-39.2749080062" lon="-72.4098721985"><ele>247.22</ele><time>2024-07-31T00:48:23Z</time></trkpt><trkpt lat="-39.2756565101" lon="-72.4101221468"><ele>247.89</ele><time>2024-07-31T00:48:37Z</time></trkpt><trkpt lat="-39.2763976380" lon="-72.4102120008"><ele>248.51</ele><time>2024-07-31T00:48:52Z</time></trkpt><trkpt lat="-39.2765008193" lon="-72.4101943988"><ele>248.55</ele><time>2024-07-31T00:48:54Z</time></trkpt><trkpt lat="-39.2772283684" lon="-72.4099004455"><ele>248.28</ele><time>2024-07-31T00:49:08Z</time></trkpt><trkpt lat="-39.2780835740" lon="-72.4096563645"><ele>246.06</ele><time>2024-07-31T00:49:24Z</time></trkpt><trkpt lat="-39.2786465865" lon="-72.4098249245"><ele>242.71</ele><time>2024-07-31T00:49:35Z</time></trkpt><trkpt lat="-39.2788844649" lon="-72.4099607114"><ele>241.01</ele><time>2024-07-31T00:49:39Z</time></trkpt><trkpt lat="-39.2789393663" lon="-72.4100084882"><ele>240.56</ele><time>2024-07-31T00:49:40Z</time></trkpt><trkpt lat="-39.2789911665" lon="-72.4100621324"><ele>239.97</ele><time>2024-07-31T00:49:41Z</time></trkpt><trkpt lat="-39.2790913302" lon="-72.4101708457"><ele>238.75</ele><time>2024-07-31T00:49:43Z</time></trkpt><trkpt lat="-39.2793069128" lon="-72.4104511365"><ele>235.51</ele><time>2024-07-31T00:49:48Z</time></trkpt><trkpt lat="-39.2795571964" lon="-72.4107866641"><ele>232.25</ele><time>2024-07-31T00:49:54Z</time></trkpt><trkpt lat="-39.2796399258" lon="-72.4108944554"><ele>231.19</ele><time>2024-07-31T00:49:56Z</time></trkpt><trkpt lat="-39.2796816677" lon="-72.4109485187"><ele>230.76</ele><time>2024-07-31T00:49:57Z</time></trkpt><trkpt lat="-39.2799355555" lon="-72.4112671148"><ele>227.30</ele><time>2024-07-31T00:50:03Z</time></trkpt><trkpt lat="-39.2802995816" lon="-72.4116002955"><ele>224.19</ele><time>2024-07-31T00:50:10Z</time></trkpt><trkpt lat="-39.2806820478" lon="-72.4117885530"><ele>220.88</ele><time>2024-07-31T00:50:16Z</time></trkpt><trkpt lat="-39.2813330702" lon="-72.4120102543"><ele>217.79</ele><time>2024-07-31T00:50:26Z</time></trkpt><trkpt lat="-39.2823290918" lon="-72.4123440217"><ele>216.88</ele><time>2024-07-31T00:50:41Z</time></trkpt><trkpt lat="-39.2834883090" lon="-72.4127366301"><ele>216.01</ele><time>2024-07-31T00:50:56Z</time></trkpt><trkpt lat="-39.2849615123" lon="-72.4132268038"><ele>219.31</ele><time>2024-07-31T00:51:15Z</time></trkpt><trkpt lat="-39.2871250492" lon="-72.4139778223"><ele>220.96</ele><time>2024-07-31T00:51:42Z</time></trkpt><trkpt lat="-39.2887897789" lon="-72.4143748730"><ele>218.64</ele><time>2024-07-31T00:52:01Z</time></trkpt><trkpt lat="-39.2899378482" lon="-72.4140295386"><ele>216.44</ele><time>2024-07-31T00:52:13Z</time></trkpt><trkpt lat="-39.2908499669" lon="-72.4131858163"><ele>216.02</ele><time>2024-07-31T00:52:25Z</time></trkpt><trkpt lat="-39.2913538869" lon="-72.4122198857"><ele>219.10</ele><time>2024-07-31T00:52:36Z</time></trkpt><trkpt lat="-39.2917008977" lon="-72.4111802783"><ele>222.22</ele><time>2024-07-31T00:52:47Z</time></trkpt><trkpt lat="-39.2919420451" lon="-72.4104500469"><ele>225.25</ele><time>2024-07-31T00:52:55Z</time></trkpt><trkpt lat="-39.2922738846" lon="-72.4094057456"><ele>227.69</ele><time>2024-07-31T00:53:09Z</time></trkpt><trkpt lat="-39.2921246029" lon="-72.4091974553"><ele>227.13</ele><time>2024-07-31T00:53:20Z</time></trkpt><trkpt lat="-39.2918745708" lon="-72.4090816174"><ele>225.69</ele><time>2024-07-31T00:53:26Z</time></trkpt><trkpt lat="-39.2911307607" lon="-72.4086808786"><ele>223.96</ele><time>2024-07-31T00:53:45Z</time></trkpt><trkpt lat="-39.2909514718" lon="-72.4083607737"><ele>224.20</ele><time>2024-07-31T00:53:56Z</time></trkpt><trkpt lat="-39.2911788728" lon="-72.4077561032"><ele>224.62</ele><time>2024-07-31T00:54:10Z</time></trkpt><trkpt lat="-39.2913564015" lon="-72.4077010341"><ele>225.47</ele><time>2024-07-31T00:54:16Z</time></trkpt><trkpt lat="-39.2919352558" lon="-72.4081326183"><ele>227.32</ele><time>2024-07-31T00:54:31Z</time></trkpt><trkpt lat="-39.2924484797" lon="-72.4085074570"><ele>229.62</ele><time>2024-07-31T00:54:46Z</time></trkpt><trkpt lat="-39.2925289460" lon="-72.4085807987"><ele>229.54</ele><time>2024-07-31T00:54:52Z</time></trkpt><trkpt lat="-39.2924573645" lon="-72.4089663662"><ele>230.03</ele><time>2024-07-31T00:55:01Z</time></trkpt><trkpt lat="-39.2923917342" lon="-72.4093435518"><ele>228.28</ele><time>2024-07-31T00:55:10Z</time></trkpt><trkpt lat="-39.2924126890" lon="-72.4093910772"><ele>228.39</ele><time>2024-07-31T00:55:13Z</time></trkpt><trkpt lat="-39.2924320512" lon="-72.4094075896"><ele>228.40</ele><time>2024-07-31T00:55:14Z</time></trkpt><trkpt lat="-39.2928794771" lon="-72.4096712843"><ele>230.69</ele><time>2024-07-31T00:55:26Z</time></trkpt><trkpt lat="-39.2934182659" lon="-72.4099490605"><ele>234.08</ele><time>2024-07-31T00:55:40Z</time></trkpt><trkpt lat="-39.2937351018" lon="-72.4101212248"><ele>237.45</ele><time>2024-07-31T00:55:47Z</time></trkpt><trkpt lat="-39.2938660271" lon="-72.4101952370"><ele>239.93</ele><time>2024-07-31T00:55:50Z</time></trkpt><trkpt lat="-39.2939858045" lon="-72.4101768807"><ele>239.44</ele><time>2024-07-31T00:55:53Z</time></trkpt><trkpt lat="-39.2940250318" lon="-72.4101472925"><ele>239.41</ele><time>2024-07-31T00:55:54Z</time></trkpt><trkpt lat="-39.2941988725" lon="-72.4100160319"><ele>242.64</ele><time>2024-07-31T00:55:58Z</time></trkpt><trkpt lat="-39.2943494115" lon="-72.4098732881"><ele>243.70</ele><time>2024-07-31T00:56:03Z</time></trkpt><trkpt lat="-39.2943578772" lon="-72.4098374136"><ele>243.78</ele><time>2024-07-31T00:56:04Z</time></trkpt><trkpt lat="-39.2943590507" lon="-72.4098012876"><ele>243.86</ele><time>2024-07-31T00:56:05Z</time></trkpt><trkpt lat="-39.2943435442" lon="-72.4097617250"><ele>243.65</ele><time>2024-07-31T00:56:06Z</time></trkpt><trkpt lat="-39.2943232600" lon="-72.4097172171"><ele>243.29</ele><time>2024-07-31T00:56:07Z</time></trkpt><trkpt lat="-39.2942987848" lon="-72.4096694402"><ele>242.86</ele><time>2024-07-31T00:56:08Z</time></trkpt><trkpt lat="-39.2940744013" lon="-72.4092625827"><ele>240.86</ele><time>2024-07-31T00:56:15Z</time></trkpt><trkpt lat="-39.2938196752" lon="-72.4088414758"><ele>237.45</ele><time>2024-07-31T00:56:23Z</time></trkpt><trkpt lat="-39.2937826272" lon="-72.4087744206"><ele>236.62</ele><time>2024-07-31T00:56:25Z</time></trkpt><trkpt lat="-39.2936137319" lon="-72.4085763562"><ele>236.33</ele><time>2024-07-31T00:56:32Z</time></trkpt><trkpt lat="-39.2930340394" lon="-72.4082069658"><ele>235.37</ele><time>2024-07-31T00:56:44Z</time></trkpt><trkpt lat="-39.2929498851" lon="-72.4081582669"><ele>234.66</ele><time>2024-07-31T00:56:46Z</time></trkpt><trkpt lat="-39.2928055488" lon="-72.4079881981"><ele>233.18</ele><time>2024-07-31T00:56:56Z</time></trkpt><trkpt lat="-39.2928392440" lon="-72.4078336358"><ele>234.09</ele><time>2024-07-31T00:57:00Z</time></trkpt><trkpt lat="-39.2930831574" lon="-72.4071475770"><ele>237.17</ele><time>2024-07-31T00:57:11Z</time></trkpt><trkpt lat="-39.2932588421" lon="-72.4066600855"><ele>239.75</ele><time>2024-07-31T00:57:18Z</time></trkpt><trkpt lat="-39.2934187688" lon="-72.4063623603"><ele>238.91</ele><time>2024-07-31T00:57:27Z</time></trkpt><trkpt lat="-39.2934504524" lon="-72.4063505419"><ele>241.42</ele><time>2024-07-31T00:57:29Z</time></trkpt><trkpt lat="-39.2934699822" lon="-72.4063543137"><ele>242.22</ele><time>2024-07-31T00:57:30Z</time></trkpt><trkpt lat="-39.2934872489" lon="-72.4063565768"><ele>242.67</ele><time>2024-07-31T00:57:31Z</time></trkpt><trkpt lat="-39.2938979622" lon="-72.4065675493"><ele>246.17</ele><time>2024-07-31T00:57:43Z</time></trkpt><trkpt lat="-39.2943760660" lon="-72.4068857264"><ele>243.00</ele><time>2024-07-31T00:57:54Z</time></trkpt><trkpt lat="-39.2943810113" lon="-72.4069688749"><ele>244.33</ele><time>2024-07-31T00:57:56Z</time></trkpt><trkpt lat="-39.2943676002" lon="-72.4070231896"><ele>244.44</ele><time>2024-07-31T00:57:57Z</time></trkpt><trkpt lat="-39.2941529397" lon="-72.4076322187"><ele>241.59</ele><time>2024-07-31T00:58:06Z</time></trkpt><trkpt lat="-39.2940965295" lon="-72.4078277685"><ele>240.08</ele><time>2024-07-31T00:58:09Z</time></trkpt><trkpt lat="-39.2938098684" lon="-72.4085608497"><ele>237.80</ele><time>2024-07-31T00:58:20Z</time></trkpt><trkpt lat="-39.2938218545" lon="-72.4086604267"><ele>237.17</ele><time>2024-07-31T00:58:23Z</time></trkpt><trkpt lat="-39.2938402947" lon="-72.4086752627"><ele>237.05</ele><time>2024-07-31T00:58:24Z</time></trkpt><trkpt lat="-39.2938632611" lon="-72.4086829741"><ele>237.30</ele><time>2024-07-31T00:58:25Z</time></trkpt><trkpt lat="-39.2938879877" lon="-72.4086810462"><ele>237.62</ele><time>2024-07-31T00:58:26Z</time></trkpt><trkpt lat="-39.2939158995" lon="-72.4086697306"><ele>237.90</ele><time>2024-07-31T00:58:27Z</time></trkpt><trkpt lat="-39.2939497624" lon="-72.4086496979"><ele>238.09</ele><time>2024-07-31T00:58:28Z</time></trkpt><trkpt lat="-39.2939883191" lon="-72.4086222891"><ele>238.39</ele><time>2024-07-31T00:58:29Z</time></trkpt><trkpt lat="-39.2942266166" lon="-72.4084278289"><ele>241.54</ele><time>2024-07-31T00:58:35Z</time></trkpt><trkpt lat="-39.2943914048" lon="-72.4082929641"><ele>243.46</ele><time>2024-07-31T00:58:39Z</time></trkpt><trkpt lat="-39.2947475519" lon="-72.4079871085"><ele>246.56</ele><time>2024-07-31T00:58:47Z</time></trkpt><trkpt lat="-39.2952592671" lon="-72.4075250141"><ele>249.66</ele><time>2024-07-31T00:58:59Z</time></trkpt><trkpt lat="-39.2952863406" lon="-72.4074545223"><ele>250.02</ele><time>2024-07-31T00:59:01Z</time></trkpt><trkpt lat="-39.2952860892" lon="-72.4074163847"><ele>249.99</ele><time>2024-07-31T00:59:02Z</time></trkpt><trkpt lat="-39.2952752765" lon="-72.4073847849"><ele>250.05</ele><time>2024-07-31T00:59:03Z</time></trkpt><trkpt lat="-39.2952574231" lon="-72.4073608965"><ele>250.06</ele><time>2024-07-31T00:59:04Z</time></trkpt><trkpt lat="-39.2952306848" lon="-72.4073348287"><ele>250.00</ele><time>2024-07-31T00:59:05Z</time></trkpt><trkpt lat="-39.2951962352" lon="-72.4073090963"><ele>249.78</ele><time>2024-07-31T00:59:06Z</time></trkpt><trkpt lat="-39.2951538227" lon="-72.4072842859"><ele>249.43</ele><time>2024-07-31T00:59:07Z</time></trkpt><trkpt lat="-39.2946187221" lon="-72.4069714732"><ele>246.38</ele><time>2024-07-31T00:59:17Z</time></trkpt><trkpt lat="-39.2944628187" lon="-72.4068470020"><ele>243.24</ele><time>2024-07-31T00:59:23Z</time></trkpt><trkpt lat="-39.2944620643" lon="-72.4067825451"><ele>244.77</ele><time>2024-07-31T00:59:25Z</time></trkpt><trkpt lat="-39.2944750562" lon="-72.4067416415"><ele>244.82</ele><time>2024-07-31T00:59:26Z</time></trkpt><trkpt lat="-39.2944912333" lon="-72.4066963792"><ele>244.69</ele><time>2024-07-31T00:59:27Z</time></trkpt><trkpt lat="-39.2947147787" lon="-72.4061270803"><ele>247.77</ele><time>2024-07-31T00:59:37Z</time></trkpt><trkpt lat="-39.2949709296" lon="-72.4053613935"><ele>248.67</ele><time>2024-07-31T00:59:48Z</time></trkpt><trkpt lat="-39.2949737795" lon="-72.4053124432"><ele>248.98</ele><time>2024-07-31T00:59:49Z</time></trkpt><trkpt lat="-39.2949054670" lon="-72.4048027396"><ele>249.67</ele><time>2024-07-31T01:00:00Z</time></trkpt><trkpt lat="-39.2949231528" lon="-72.4047487602"><ele>249.05</ele><time>2024-07-31T01:00:05Z</time></trkpt><trkpt lat="-39.2949329596" lon="-72.4047329184"><ele>249.98</ele><time>2024-07-31T01:00:06Z</time></trkpt><trkpt lat="-39.2949451972" lon="-72.4047151487"><ele>249.12</ele><time>2024-07-31T01:00:07Z</time></trkpt><trkpt lat="-39.2949686665" lon="-72.4047031626"><ele>249.82</ele><time>2024-07-31T01:00:08Z</time></trkpt><trkpt lat="-39.2950006854" lon="-72.4046896677"><ele>250.49</ele><time>2024-07-31T01:00:09Z</time></trkpt><trkpt lat="-39.2950334586" lon="-72.4046739098"><ele>250.61</ele><time>2024-07-31T01:00:10Z</time></trkpt><trkpt lat="-39.2957076989" lon="-72.4044465926"><ele>252.53</ele><time>2024-07-31T01:00:23Z</time></trkpt><trkpt lat="-39.2959345970" lon="-72.4044509511"><ele>252.11</ele><time>2024-07-31T01:00:31Z</time></trkpt><trkpt lat="-39.2959564738" lon="-72.4044946209"><ele>252.42</ele><time>2024-07-31T01:00:32Z</time></trkpt><trkpt lat="-39.2959756684" lon="-72.4045502767"><ele>252.40</ele><time>2024-07-31T01:00:33Z</time></trkpt><trkpt lat="-39.2959920131" lon="-72.4046165776"><ele>252.64</ele><time>2024-07-31T01:00:34Z</time></trkpt><trkpt lat="-39.2961656861" lon="-72.4055790715"><ele>252.05</ele><time>2024-07-31T01:00:46Z</time></trkpt><trkpt lat="-39.2961563822" lon="-72.4057234917"><ele>251.65</ele><time>2024-07-31T01:00:50Z</time></trkpt><trkpt lat="-39.2961340863" lon="-72.4057403393"><ele>252.10</ele><time>2024-07-31T01:00:51Z</time></trkpt><trkpt lat="-39.2960977927" lon="-72.4057480507"><ele>252.31</ele><time>2024-07-31T01:00:52Z</time></trkpt><trkpt lat="-39.2955367081" lon="-72.4059362244"><ele>251.37</ele><time>2024-07-31T01:01:04Z</time></trkpt><trkpt lat="-39.2951460276" lon="-72.4060919601"><ele>249.87</ele><time>2024-07-31T01:01:15Z</time></trkpt><trkpt lat="-39.2951401602" lon="-72.4062302615"><ele>249.86</ele><time>2024-07-31T01:01:18Z</time></trkpt><trkpt lat="-39.2951507214" lon="-72.4062963109"><ele>249.90</ele><time>2024-07-31T01:01:19Z</time></trkpt><trkpt lat="-39.2952952255" lon="-72.4072616547"><ele>250.65</ele><time>2024-07-31T01:01:34Z</time></trkpt><trkpt lat="-39.2953756079" lon="-72.4073893111"><ele>250.21</ele><time>2024-07-31T01:01:39Z</time></trkpt><trkpt lat="-39.2954132427" lon="-72.4073965196"><ele>250.23</ele><time>2024-07-31T01:01:40Z</time></trkpt><trkpt lat="-39.2954609357" lon="-72.4073928315"><ele>250.42</ele><time>2024-07-31T01:01:41Z</time></trkpt><trkpt lat="-39.2961468268" lon="-72.4071892351"><ele>251.38</ele><time>2024-07-31T01:01:53Z</time></trkpt><trkpt lat="-39.2967616394" lon="-72.4069572240"><ele>249.82</ele><time>2024-07-31T01:02:06Z</time></trkpt><trkpt lat="-39.2967944965" lon="-72.4068998918"><ele>249.53</ele><time>2024-07-31T01:02:09Z</time></trkpt><trkpt lat="-39.2967990227" lon="-72.4068716448"><ele>249.31</ele><time>2024-07-31T01:02:10Z</time></trkpt><trkpt lat="-39.2968125176" lon="-72.4068053439"><ele>249.15</ele><time>2024-07-31T01:02:12Z</time></trkpt><trkpt lat="-39.2968324665" lon="-72.4067796953"><ele>249.93</ele><time>2024-07-31T01:02:13Z</time></trkpt><trkpt lat="-39.2968581989" lon="-72.4067591596"><ele>250.10</ele><time>2024-07-31T01:02:14Z</time></trkpt><trkpt lat="-39.2968855239" lon="-72.4067343492"><ele>250.42</ele><time>2024-07-31T01:02:15Z</time></trkpt><trkpt lat="-39.2969133519" lon="-72.4067020789"><ele>250.15</ele><time>2024-07-31T01:02:16Z</time></trkpt><trkpt lat="-39.2969354801" lon="-72.4066671263"><ele>250.42</ele><time>2024-07-31T01:02:17Z</time></trkpt><trkpt lat="-39.2969561834" lon="-72.4066278152"><ele>250.61</ele><time>2024-07-31T01:02:18Z</time></trkpt><trkpt lat="-39.2969698459" lon="-72.4065863248"><ele>250.64</ele><time>2024-07-31T01:02:19Z</time></trkpt><trkpt lat="-39.2970111687" lon="-72.4063848238"><ele>251.80</ele><time>2024-07-31T01:02:24Z</time></trkpt><trkpt lat="-39.2969035450" lon="-72.4058741983"><ele>251.30</ele><time>2024-07-31T01:02:37Z</time></trkpt><trkpt lat="-39.2971009389" lon="-72.4056690093"><ele>251.44</ele><time>2024-07-31T01:02:46Z</time></trkpt><trkpt lat="-39.2971667368" lon="-72.4054203182"><ele>251.29</ele><time>2024-07-31T01:02:55Z</time></trkpt><trkpt lat="-39.2971700896" lon="-72.4048317410"><ele>253.00</ele><time>2024-07-31T01:03:09Z</time></trkpt><trkpt lat="-39.2972021084" lon="-72.4047821201"><ele>253.16</ele><time>2024-07-31T01:03:12Z</time></trkpt><trkpt lat="-39.2972068023" lon="-72.4047611654"><ele>252.77</ele><time>2024-07-31T01:03:13Z</time></trkpt><trkpt lat="-39.2972093169" lon="-72.4047322478"><ele>253.19</ele><time>2024-07-31T01:03:14Z</time></trkpt><trkpt lat="-39.2971188761" lon="-72.4041875917"><ele>254.13</ele><time>2024-07-31T01:03:23Z</time></trkpt><trkpt lat="-39.2970496416" lon="-72.4037663173"><ele>252.40</ele><time>2024-07-31T01:03:32Z</time></trkpt><trkpt lat="-39.2970928084" lon="-72.4037130084"><ele>254.62</ele><time>2024-07-31T01:03:34Z</time></trkpt><trkpt lat="-39.2971322034" lon="-72.4036948197"><ele>254.90</ele><time>2024-07-31T01:03:35Z</time></trkpt><trkpt lat="-39.2971805669" lon="-72.4036812410"><ele>254.62</ele><time>2024-07-31T01:03:36Z</time></trkpt><trkpt lat="-39.2977303360" lon="-72.4035354797"><ele>254.56</ele><time>2024-07-31T01:03:46Z</time></trkpt><trkpt lat="-39.2977759335" lon="-72.4035391677"><ele>254.04</ele><time>2024-07-31T01:03:47Z</time></trkpt><trkpt lat="-39.2978125624" lon="-72.4035555962"><ele>254.22</ele><time>2024-07-31T01:03:48Z</time></trkpt><trkpt lat="-39.2978452519" lon="-72.4035840109"><ele>255.00</ele><time>2024-07-31T01:03:49Z</time></trkpt><trkpt lat="-39.2978712358" lon="-72.4036218971"><ele>255.03</ele><time>2024-07-31T01:03:50Z</time></trkpt><trkpt lat="-39.2978959624" lon="-72.4036659859"><ele>255.09</ele><time>2024-07-31T01:03:51Z</time></trkpt><trkpt lat="-39.2979244608" lon="-72.4037118349"><ele>254.54</ele><time>2024-07-31T01:03:52Z</time></trkpt><trkpt lat="-39.2979532108" lon="-72.4037568457"><ele>254.54</ele><time>2024-07-31T01:03:53Z</time></trkpt><trkpt lat="-39.2981083598" lon="-72.4039660580"><ele>253.15</ele><time>2024-07-31T01:03:58Z</time></trkpt><trkpt lat="-39.2981376965" lon="-72.4040203728"><ele>254.02</ele><time>2024-07-31T01:03:59Z</time></trkpt><trkpt lat="-39.2984427977" lon="-72.4045684654"><ele>252.55</ele><time>2024-07-31T01:04:08Z</time></trkpt><trkpt lat="-39.2984810192" lon="-72.4046125542"><ele>252.37</ele><time>2024-07-31T01:04:09Z</time></trkpt><trkpt lat="-39.2985210009" lon="-72.4046414718"><ele>252.14</ele><time>2024-07-31T01:04:10Z</time></trkpt><trkpt lat="-39.2985607311" lon="-72.4046589062"><ele>252.01</ele><time>2024-07-31T01:04:11Z</time></trkpt><trkpt lat="-39.2985996231" lon="-72.4046635162"><ele>251.93</ele><time>2024-07-31T01:04:12Z</time></trkpt><trkpt lat="-39.2986423708" lon="-72.4046589900"><ele>251.78</ele><time>2024-07-31T01:04:13Z</time></trkpt><trkpt lat="-39.2986899801" lon="-72.4046500213"><ele>251.60</ele><time>2024-07-31T01:04:14Z</time></trkpt><trkpt lat="-39.2989175487" lon="-72.4045986403"><ele>251.66</ele><time>2024-07-31T01:04:18Z</time></trkpt><trkpt lat="-39.2994541582" lon="-72.4044580758"><ele>250.53</ele><time>2024-07-31T01:04:29Z</time></trkpt><trkpt lat="-39.3002608325" lon="-72.4042428285"><ele>251.40</ele><time>2024-07-31T01:04:41Z</time></trkpt><trkpt lat="-39.3003110401" lon="-72.4042197783"><ele>251.35</ele><time>2024-07-31T01:04:42Z</time></trkpt><trkpt lat="-39.3003479205" lon="-72.4041887652"><ele>251.46</ele><time>2024-07-31T01:04:43Z</time></trkpt><trkpt lat="-39.3003759999" lon="-72.4041509628"><ele>251.78</ele><time>2024-07-31T01:04:44Z</time></trkpt><trkpt lat="-39.3003945239" lon="-72.4041018449"><ele>252.04</ele><time>2024-07-31T01:04:45Z</time></trkpt><trkpt lat="-39.3003988825" lon="-72.4040471949"><ele>252.25</ele><time>2024-07-31T01:04:46Z</time></trkpt><trkpt lat="-39.3003895786" lon="-72.4039851688"><ele>252.28</ele><time>2024-07-31T01:04:47Z</time></trkpt><trkpt lat="-39.3003770895" lon="-72.4039168563"><ele>252.47</ele><time>2024-07-31T01:04:48Z</time></trkpt><trkpt lat="-39.3003635947" lon="-72.4038435984"><ele>253.16</ele><time>2024-07-31T01:04:49Z</time></trkpt><trkpt lat="-39.3002686277" lon="-72.4033404328"><ele>256.50</ele><time>2024-07-31T01:04:56Z</time></trkpt><trkpt lat="-39.3002069369" lon="-72.4029714614"><ele>259.67</ele><time>2024-07-31T01:05:02Z</time></trkpt><trkpt lat="-39.3000590801" lon="-72.4028360099"><ele>259.93</ele><time>2024-07-31T01:05:10Z</time></trkpt><trkpt lat="-39.2998168431" lon="-72.4028829485"><ele>256.91</ele><time>2024-07-31T01:05:15Z</time></trkpt><trkpt lat="-39.2997616902" lon="-72.4028973654"><ele>256.84</ele><time>2024-07-31T01:05:16Z</time></trkpt><trkpt lat="-39.2994164396" lon="-72.4030002952"><ele>253.81</ele><time>2024-07-31T01:05:22Z</time></trkpt><trkpt lat="-39.2988529243" lon="-72.4031784944"><ele>252.75</ele><time>2024-07-31T01:05:34Z</time></trkpt><trkpt lat="-39.2981734034" lon="-72.4033810850"><ele>253.59</ele><time>2024-07-31T01:05:45Z</time></trkpt><trkpt lat="-39.2981362715" lon="-72.4033860303"><ele>253.41</ele><time>2024-07-31T01:05:46Z</time></trkpt><trkpt lat="-39.2979969643" lon="-72.4032518361"><ele>253.41</ele><time>2024-07-31T01:05:54Z</time></trkpt><trkpt lat="-39.2979905941" lon="-72.4031979404"><ele>253.62</ele><time>2024-07-31T01:05:55Z</time></trkpt><trkpt lat="-39.2979836371" lon="-72.4031404406"><ele>253.80</ele><time>2024-07-31T01:05:56Z</time></trkpt><trkpt lat="-39.2978275660" lon="-72.4021841493"><ele>255.52</ele><time>2024-07-31T01:06:11Z</time></trkpt><trkpt lat="-39.2978386302" lon="-72.4020610191"><ele>254.90</ele><time>2024-07-31T01:06:14Z</time></trkpt><trkpt lat="-39.2978677992" lon="-72.4020334426"><ele>255.65</ele><time>2024-07-31T01:06:15Z</time></trkpt><trkpt lat="-39.2979097925" lon="-72.4020134099"><ele>255.74</ele><time>2024-07-31T01:06:16Z</time></trkpt><trkpt lat="-39.2979594972" lon="-72.4019974004"><ele>255.43</ele><time>2024-07-31T01:06:17Z</time></trkpt><trkpt lat="-39.2980116326" lon="-72.4019827321"><ele>255.53</ele><time>2024-07-31T01:06:18Z</time></trkpt><trkpt lat="-39.2987571191" lon="-72.4017903674"><ele>256.87</ele><time>2024-07-31T01:06:31Z</time></trkpt><trkpt lat="-39.2991632223" lon="-72.4016743619"><ele>259.64</ele><time>2024-07-31T01:06:38Z</time></trkpt><trkpt lat="-39.2998488620" lon="-72.4014949892"><ele>261.89</ele><time>2024-07-31T01:06:51Z</time></trkpt><trkpt lat="-39.2998736724" lon="-72.4014830031"><ele>261.66</ele><time>2024-07-31T01:06:53Z</time></trkpt><trkpt lat="-39.2998882569" lon="-72.4014639761"><ele>261.76</ele><time>2024-07-31T01:06:54Z</time></trkpt><trkpt lat="-39.2999035120" lon="-72.4014399201"><ele>261.84</ele><time>2024-07-31T01:06:55Z</time></trkpt><trkpt lat="-39.2999160010" lon="-72.4014104996"><ele>261.92</ele><time>2024-07-31T01:06:56Z</time></trkpt><trkpt lat="-39.2999248859" lon="-72.4013748765"><ele>261.80</ele><time>2024-07-31T01:06:57Z</time></trkpt><trkpt lat="-39.2999268137" lon="-72.4013264291"><ele>261.80</ele><time>2024-07-31T01:06:58Z</time></trkpt><trkpt lat="-39.2999223713" lon="-72.4012691807"><ele>261.76</ele><time>2024-07-31T01:06:59Z</time></trkpt><trkpt lat="-39.2999139056" lon="-72.4012062326"><ele>261.66</ele><time>2024-07-31T01:07:00Z</time></trkpt><trkpt lat="-39.2999031767" lon="-72.4011379201"><ele>261.56</ele><time>2024-07-31T01:07:01Z</time></trkpt><trkpt lat="-39.2997391429" lon="-72.4001631886"><ele>259.34</ele><time>2024-07-31T01:07:14Z</time></trkpt><trkpt lat="-39.2997141648" lon="-72.4001201894"><ele>259.35</ele><time>2024-07-31T01:07:15Z</time></trkpt><trkpt lat="-39.2996780388" lon="-72.4000993185"><ele>259.18</ele><time>2024-07-31T01:07:16Z</time></trkpt><trkpt lat="-39.2996378057" lon="-72.4000911880"><ele>259.17</ele><time>2024-07-31T01:07:17Z</time></trkpt><trkpt lat="-39.2995948065" lon="-72.4000942055"><ele>258.97</ele><time>2024-07-31T01:07:18Z</time></trkpt><trkpt lat="-39.2995494604" lon="-72.4001041800"><ele>258.78</ele><time>2024-07-31T01:07:19Z</time></trkpt><trkpt lat="-39.2994974088" lon="-72.4001178425"><ele>258.80</ele><time>2024-07-31T01:07:20Z</time></trkpt><trkpt lat="-39.2987771519" lon="-72.4003222771"><ele>256.81</ele><time>2024-07-31T01:07:32Z</time></trkpt><trkpt lat="-39.2984775826" lon="-72.4004158191"><ele>255.77</ele><time>2024-07-31T01:07:40Z</time></trkpt><trkpt lat="-39.2976593412" lon="-72.4006323237"><ele>254.92</ele><time>2024-07-31T01:07:54Z</time></trkpt><trkpt lat="-39.2972829100" lon="-72.4006745685"><ele>251.69</ele><time>2024-07-31T01:08:01Z</time></trkpt><trkpt lat="-39.2968660779" lon="-72.4007061683"><ele>248.48</ele><time>2024-07-31T01:08:07Z</time></trkpt><trkpt lat="-39.2964091804" lon="-72.4007091019"><ele>247.02</ele><time>2024-07-31T01:08:17Z</time></trkpt><trkpt lat="-39.2963732220" lon="-72.4006242771"><ele>247.31</ele><time>2024-07-31T01:08:19Z</time></trkpt><trkpt lat="-39.2962050810" lon="-72.4002244603"><ele>247.67</ele><time>2024-07-31T01:08:25Z</time></trkpt><trkpt lat="-39.2961602379" lon="-72.4001574051"><ele>247.66</ele><time>2024-07-31T01:08:26Z</time></trkpt><trkpt lat="-39.2961129639" lon="-72.4000977259"><ele>247.68</ele><time>2024-07-31T01:08:27Z</time></trkpt><trkpt lat="-39.2960629240" lon="-72.4000460934"><ele>247.60</ele><time>2024-07-31T01:08:28Z</time></trkpt><trkpt lat="-39.2960110400" lon="-72.4000013340"><ele>247.63</ele><time>2024-07-31T01:08:29Z</time></trkpt><trkpt lat="-39.2959601618" lon="-72.3999633640"><ele>247.63</ele><time>2024-07-31T01:08:30Z</time></trkpt><trkpt lat="-39.2959067691" lon="-72.3999331892"><ele>247.73</ele><time>2024-07-31T01:08:31Z</time></trkpt><trkpt lat="-39.2958579026" lon="-72.3999103904"><ele>247.92</ele><time>2024-07-31T01:08:32Z</time></trkpt><trkpt lat="-39.2955985665" lon="-72.3998471908"><ele>248.14</ele><time>2024-07-31T01:08:41Z</time></trkpt><trkpt lat="-39.2955861613" lon="-72.3998212907"><ele>248.20</ele><time>2024-07-31T01:08:42Z</time></trkpt><trkpt lat="-39.2955782823" lon="-72.3997877631"><ele>248.18</ele><time>2024-07-31T01:08:43Z</time></trkpt><trkpt lat="-39.2955715768" lon="-72.3997414950"><ele>248.28</ele><time>2024-07-31T01:08:44Z</time></trkpt><trkpt lat="-39.2955682240" lon="-72.3996957298"><ele>248.39</ele><time>2024-07-31T01:08:45Z</time></trkpt><trkpt lat="-39.2954495363" lon="-72.3989580385"><ele>250.25</ele><time>2024-07-31T01:08:55Z</time></trkpt><trkpt lat="-39.2951175291" lon="-72.3975070473"><ele>253.04</ele><time>2024-07-31T01:09:11Z</time></trkpt><trkpt lat="-39.2949855980" lon="-72.3968589585"><ele>256.07</ele><time>2024-07-31T01:09:18Z</time></trkpt><trkpt lat="-39.2949208058" lon="-72.3957974743"><ele>259.16</ele><time>2024-07-31T01:09:30Z</time></trkpt><trkpt lat="-39.2949726060" lon="-72.3943990376"><ele>262.21</ele><time>2024-07-31T01:09:43Z</time></trkpt><trkpt lat="-39.2948618811" lon="-72.3927362356"><ele>263.80</ele><time>2024-07-31T01:09:57Z</time></trkpt><trkpt lat="-39.2943405267" lon="-72.3911279161"><ele>263.17</ele><time>2024-07-31T01:10:11Z</time></trkpt><trkpt lat="-39.2937180027" lon="-72.3898726422"><ele>263.19</ele><time>2024-07-31T01:10:24Z</time></trkpt><trkpt lat="-39.2934603430" lon="-72.3893194366"><ele>262.58</ele><time>2024-07-31T01:10:31Z</time></trkpt><trkpt lat="-39.2934269831" lon="-72.3892049398"><ele>262.52</ele><time>2024-07-31T01:10:33Z</time></trkpt><trkpt lat="-39.2934157513" lon="-72.3891388066"><ele>262.41</ele><time>2024-07-31T01:10:34Z</time></trkpt><trkpt lat="-39.2934088781" lon="-72.3890678957"><ele>262.52</ele><time>2024-07-31T01:10:35Z</time></trkpt><trkpt lat="-39.2934108060" lon="-72.3889929615"><ele>262.59</ele><time>2024-07-31T01:10:36Z</time></trkpt><trkpt lat="-39.2934179306" lon="-72.3889172729"><ele>262.75</ele><time>2024-07-31T01:10:37Z</time></trkpt><trkpt lat="-39.2934302520" lon="-72.3888368066"><ele>262.86</ele><time>2024-07-31T01:10:38Z</time></trkpt><trkpt lat="-39.2934440821" lon="-72.3887518141"><ele>263.04</ele><time>2024-07-31T01:10:39Z</time></trkpt><trkpt lat="-39.2936470080" lon="-72.3875870649"><ele>264.35</ele><time>2024-07-31T01:10:50Z</time></trkpt><trkpt lat="-39.2940072622" lon="-72.3857795075"><ele>266.37</ele><time>2024-07-31T01:11:06Z</time></trkpt><trkpt lat="-39.2942808475" lon="-72.3845247366"><ele>269.73</ele><time>2024-07-31T01:11:18Z</time></trkpt><trkpt lat="-39.2945038062" lon="-72.3834095243"><ele>272.83</ele><time>2024-07-31T01:11:28Z</time></trkpt><trkpt lat="-39.2948663235" lon="-72.3815246020"><ele>273.20</ele><time>2024-07-31T01:11:44Z</time></trkpt><trkpt lat="-39.2952378932" lon="-72.3795707803"><ele>270.09</ele><time>2024-07-31T01:12:00Z</time></trkpt><trkpt lat="-39.2954259831" lon="-72.3786076158"><ele>266.98</ele><time>2024-07-31T01:12:07Z</time></trkpt><trkpt lat="-39.2958144005" lon="-72.3766105436"><ele>265.44</ele><time>2024-07-31T01:12:21Z</time></trkpt><trkpt lat="-39.2963201646" lon="-72.3742533009"><ele>262.70</ele><time>2024-07-31T01:12:37Z</time></trkpt><trkpt lat="-39.2964924127" lon="-72.3735811561"><ele>260.68</ele><time>2024-07-31T01:12:43Z</time></trkpt><trkpt lat="-39.2965260241" lon="-72.3734554276"><ele>259.80</ele><time>2024-07-31T01:12:50Z</time></trkpt><trkpt lat="-39.2965253536" lon="-72.3735525738"><ele>259.94</ele><time>2024-07-31T01:13:04Z</time></trkpt><trkpt lat="-39.2965168040" lon="-72.3735698406"><ele>259.99</ele><time>2024-07-31T01:13:05Z</time></trkpt><trkpt lat="-39.2965090089" lon="-72.3735922202"><ele>260.05</ele><time>2024-07-31T01:13:06Z</time></trkpt><trkpt lat="-39.2964998726" lon="-72.3736264184"><ele>260.01</ele><time>2024-07-31T01:13:07Z</time></trkpt><trkpt lat="-39.2964913230" lon="-72.3736694176"><ele>260.18</ele><time>2024-07-31T01:13:08Z</time></trkpt><trkpt lat="-39.2964807618" lon="-72.3737176135"><ele>260.25</ele><time>2024-07-31T01:13:09Z</time></trkpt><trkpt lat="-39.2964685243" lon="-72.3737691622"><ele>260.42</ele><time>2024-07-31T01:13:10Z</time></trkpt><trkpt lat="-39.2962478288" lon="-72.3746508546"><ele>261.87</ele><time>2024-07-31T01:13:22Z</time></trkpt><trkpt lat="-39.2959282268" lon="-72.3760405742"><ele>263.96</ele><time>2024-07-31T01:13:37Z</time></trkpt><trkpt lat="-39.2956493609" lon="-72.3774995282"><ele>265.23</ele><time>2024-07-31T01:13:50Z</time></trkpt><trkpt lat="-39.2953333631" lon="-72.3791577201"><ele>268.28</ele><time>2024-07-31T01:14:04Z</time></trkpt><trkpt lat="-39.2951349635" lon="-72.3801523168"><ele>271.28</ele><time>2024-07-31T01:14:13Z</time></trkpt><trkpt lat="-39.2948200554" lon="-72.3817002028"><ele>274.39</ele><time>2024-07-31T01:14:26Z</time></trkpt><trkpt lat="-39.2944898922" lon="-72.3832151480"><ele>274.40</ele><time>2024-07-31T01:14:39Z</time></trkpt><trkpt lat="-39.2941863835" lon="-72.3846865911"><ele>271.07</ele><time>2024-07-31T01:14:51Z</time></trkpt><trkpt lat="-39.2939372733" lon="-72.3857600614"><ele>268.01</ele><time>2024-07-31T01:15:00Z</time></trkpt><trkpt lat="-39.2936381232" lon="-72.3875269666"><ele>265.79</ele><time>2024-07-31T01:15:13Z</time></trkpt><trkpt lat="-39.2933630291" lon="-72.3890769482"><ele>265.02</ele><time>2024-07-31T01:15:26Z</time></trkpt><trkpt lat="-39.2933630291" lon="-72.3891722504"><ele>264.87</ele><time>2024-07-31T01:15:27Z</time></trkpt><trkpt lat="-39.2933715787" lon="-72.3892604280"><ele>264.69</ele><time>2024-07-31T01:15:28Z</time></trkpt><trkpt lat="-39.2933872528" lon="-72.3893463425"><ele>264.72</ele><time>2024-07-31T01:15:29Z</time></trkpt><trkpt lat="-39.2934118956" lon="-72.3894302454"><ele>264.68</ele><time>2024-07-31T01:15:30Z</time></trkpt><trkpt lat="-39.2934461776" lon="-72.3895147350"><ele>264.60</ele><time>2024-07-31T01:15:31Z</time></trkpt><trkpt lat="-39.2934882548" lon="-72.3895986378"><ele>264.58</ele><time>2024-07-31T01:15:32Z</time></trkpt><trkpt lat="-39.2935333494" lon="-72.3896801099"><ele>264.74</ele><time>2024-07-31T01:15:33Z</time></trkpt><trkpt lat="-39.2941711284" lon="-72.3908583540"><ele>264.86</ele><time>2024-07-31T01:15:47Z</time></trkpt><trkpt lat="-39.2946885433" lon="-72.3921975307"><ele>265.18</ele><time>2024-07-31T01:16:00Z</time></trkpt><trkpt lat="-39.2949371506" lon="-72.3937087879"><ele>264.93</ele><time>2024-07-31T01:16:13Z</time></trkpt><trkpt lat="-39.2949361447" lon="-72.3954318557"><ele>261.91</ele><time>2024-07-31T01:16:27Z</time></trkpt><trkpt lat="-39.2949276790" lon="-72.3964790907"><ele>258.48</ele><time>2024-07-31T01:16:38Z</time></trkpt><trkpt lat="-39.2948850151" lon="-72.3965487443"><ele>258.52</ele><time>2024-07-31T01:16:41Z</time></trkpt><trkpt lat="-39.2948602885" lon="-72.3965526000"><ele>258.28</ele><time>2024-07-31T01:16:42Z</time></trkpt><trkpt lat="-39.2948317900" lon="-72.3965489119"><ele>258.47</ele><time>2024-07-31T01:16:43Z</time></trkpt><trkpt lat="-39.2947934847" lon="-72.3965321481"><ele>258.60</ele><time>2024-07-31T01:16:44Z</time></trkpt><trkpt lat="-39.2947487254" lon="-72.3965138756"><ele>258.58</ele><time>2024-07-31T01:16:45Z</time></trkpt><trkpt lat="-39.2939601559" lon="-72.3961718101"><ele>260.41</ele><time>2024-07-31T01:17:00Z</time></trkpt><trkpt lat="-39.2934864108" lon="-72.3959896713"><ele>261.99</ele><time>2024-07-31T01:17:09Z</time></trkpt><trkpt lat="-39.2934402265" lon="-72.3959656991"><ele>262.27</ele><time>2024-07-31T01:17:10Z</time></trkpt><trkpt lat="-39.2926221527" lon="-72.3956348654"><ele>264.82</ele><time>2024-07-31T01:17:25Z</time></trkpt><trkpt lat="-39.2923919018" lon="-72.3955552373"><ele>265.56</ele><time>2024-07-31T01:17:34Z</time></trkpt><trkpt lat="-39.2923824303" lon="-72.3955676425"><ele>265.63</ele><time>2024-07-31T01:17:35Z</time></trkpt><trkpt lat="-39.2924087495" lon="-72.3955588415"><ele>265.86</ele><time>2024-07-31T01:17:48Z</time></trkpt><trkpt lat="-39.2925022915" lon="-72.3955885135"><ele>265.65</ele><time>2024-07-31T01:17:52Z</time></trkpt><trkpt lat="-39.2929814849" lon="-72.3957904335"><ele>264.63</ele><time>2024-07-31T01:18:02Z</time></trkpt><trkpt lat="-39.2937815376" lon="-72.3961250391"><ele>262.11</ele><time>2024-07-31T01:18:15Z</time></trkpt><trkpt lat="-39.2947971728" lon="-72.3965336569"><ele>259.48</ele><time>2024-07-31T01:18:29Z</time></trkpt><trkpt lat="-39.2949406710" lon="-72.3966389336"><ele>258.42</ele><time>2024-07-31T01:18:35Z</time></trkpt><trkpt lat="-39.2950697523" lon="-72.3973295186"><ele>256.87</ele><time>2024-07-31T01:18:45Z</time></trkpt><trkpt lat="-39.2953020986" lon="-72.3983591516"><ele>253.79</ele><time>2024-07-31T01:18:55Z</time></trkpt><trkpt lat="-39.2955696490" lon="-72.3997378070"><ele>251.75</ele><time>2024-07-31T01:19:09Z</time></trkpt><trkpt lat="-39.2955713253" lon="-72.3998062033"><ele>251.51</ele><time>2024-07-31T01:19:10Z</time></trkpt><trkpt lat="-39.2955678888" lon="-72.3998701572"><ele>251.19</ele><time>2024-07-31T01:19:11Z</time></trkpt><trkpt lat="-39.2955562379" lon="-72.3999361228"><ele>251.13</ele><time>2024-07-31T01:19:12Z</time></trkpt><trkpt lat="-39.2955400608" lon="-72.4000072014"><ele>250.96</ele><time>2024-07-31T01:19:13Z</time></trkpt><trkpt lat="-39.2953492049" lon="-72.4010539334"><ele>248.30</ele><time>2024-07-31T01:19:25Z</time></trkpt><trkpt lat="-39.2953551561" lon="-72.4011539295"><ele>247.95</ele><time>2024-07-31T01:19:26Z</time></trkpt><trkpt lat="-39.2953669745" lon="-72.4012527522"><ele>247.80</ele><time>2024-07-31T01:19:27Z</time></trkpt><trkpt lat="-39.2953843251" lon="-72.4013486411"><ele>247.65</ele><time>2024-07-31T01:19:28Z</time></trkpt><trkpt lat="-39.2954024300" lon="-72.4014379922"><ele>247.48</ele><time>2024-07-31T01:19:29Z</time></trkpt><trkpt lat="-39.2955965549" lon="-72.4024993926"><ele>249.40</ele><time>2024-07-31T01:19:40Z</time></trkpt><trkpt lat="-39.2957721557" lon="-72.4034203123"><ele>252.31</ele><time>2024-07-31T01:19:51Z</time></trkpt><trkpt lat="-39.2959190067" lon="-72.4042340275"><ele>252.32</ele><time>2024-07-31T01:20:03Z</time></trkpt><trkpt lat="-39.2959063500" lon="-72.4042603467"><ele>252.06</ele><time>2024-07-31T01:20:04Z</time></trkpt><trkpt lat="-39.2958863173" lon="-72.4042755179"><ele>252.12</ele><time>2024-07-31T01:20:05Z</time></trkpt><trkpt lat="-39.2958687153" lon="-72.4042882584"><ele>252.15</ele><time>2024-07-31T01:20:06Z</time></trkpt><trkpt lat="-39.2958563101" lon="-72.4042928685"><ele>252.04</ele><time>2024-07-31T01:20:07Z</time></trkpt><trkpt lat="-39.2958576512" lon="-72.4042699020"><ele>252.00</ele><time>2024-07-31T01:20:23Z</time></trkpt><trkpt lat="-39.2958570644" lon="-72.4042929523"><ele>251.96</ele><time>2024-07-31T01:20:49Z</time></trkpt><trkpt lat="-39.2958315834" lon="-72.4042934552"><ele>252.27</ele><time>2024-07-31T01:21:18Z</time></trkpt><trkpt lat="-39.2957792804" lon="-72.4042813014"><ele>252.36</ele><time>2024-07-31T01:21:53Z</time></trkpt></trkseg></trk></gpx>