<?xml version="1.0" encoding="UTF-8" standalone="no" ?><gpx xmlns="http://www.topografix.com/GPX/1/1" xmlns:gpxx="http://www.garmin.com/xmlschemas/GpxExtensions/v3" xmlns:gpxtrkx="http://www.garmin.com/xmlschemas/TrackStatsExtension/v1" xmlns:wptx1="http://www.garmin.com/xmlschemas/WaypointExtension/v1" xmlns:gpxtpx="http://www.garmin.com/xmlschemas/TrackPointExtension/v1" creator="GPSMAP 64sx" version="1.1" xmlns:xsi="http://www.w3.org/2001/XMLSchema-instance" xsi:schemaLocation="http://www.topografix.com/GPX/1/1 http://www.topografix.com/GPX/1/1/gpx.xsd http://www.garmin.com/xmlschemas/GpxExtensions/v3 http://www8.garmin.com/xmlschemas/GpxExtensionsv3.xsd http://www.garmin.com/xmlschemas/TrackStatsExtension/v1 http://www8.garmin.com/xmlschemas/TrackStatsExtension.xsd http://www.garmin.com/xmlschemas/WaypointExtension/v1 http://www8.garmin.com/xmlschemas/WaypointExtensionv1.xsd http://www.garmin.com/xmlschemas/TrackPointExtension/v1 http://www.garmin.com/xmlschemas/TrackPointExtensionv1.xsd"><metadata><link href="http://www.garmin.com"><text>Garmin International</text></link><time>2024-07-30T01:25:43Z</time></metadata><trk><name>HUIS 240729</name><extensions><gpxx:TrackExtension><gpxx:DisplayColor>Cyan</gpxx:DisplayColor></gpxx:TrackExtension><gpxtrkx:TrackStatsExtension><gpxtrkx:Distance>12578.000</gpxtrkx:Distance><gpxtrkx:TotalElapsedTime>1947</gpxtrkx:TotalElapsedTime><gpxtrkx:MovingTime>1774</gpxtrkx:MovingTime><gpxtrkx:StoppedTime>173</gpxtrkx:StoppedTime><gpxtrkx:MovingSpeed>7.090</gpxtrkx:MovingSpeed><gpxtrkx:MaxSpeed>14.612</gpxtrkx:MaxSpeed><gpxtrkx:MaxElevation>274.418</gpxtrkx:MaxElevation><gpxtrkx:MinElevation>212.662</gpxtrkx:MinElevation><gpxtrkx:Ascent>142.000</gpxtrkx:Ascent><gpxtrkx:Descent>138.930</gpxtrkx:Descent><gpxtrkx:AvgAscentRate>0.119</gpxtrkx:AvgAscentRate><gpxtrkx:MaxAscentRate>0.749</gpxtrkx:MaxAscentRate><gpxtrkx:AvgDescentRate>0.126</gpxtrkx:AvgDescentRate><gpxtrkx:MaxDescentRate>-1.452</gpxtrkx:MaxDescentRate></gpxtrkx:TrackStatsExtension></extensions><trkseg><trkpt lat="-39.2730919831" lon="-72.4093306437"><ele>247.15</ele><time>2024-07-30T00:53:16Z</time></trkpt><trkpt lat="-39.2730924860" lon="-72.4093300570"><ele>247.15</ele><time>2024-07-30T00:53:17Z</time></trkpt><trkpt lat="-39.2730941623" lon="-72.4093299732"><ele>245.68</ele><time>2024-07-30T00:53:21Z</time></trkpt><trkpt lat="-39.2730877083" lon="-72.4093351699"><ele>245.30</ele><time>2024-07-30T00:53:49Z</time></trkpt><trkpt lat="-39.2731053941" lon="-72.4093655124"><ele>245.64</ele><time>2024-07-30T00:54:34Z</time></trkpt><trkpt lat="-39.2731750477" lon="-72.4093743134"><ele>245.70</ele><time>2024-07-30T00:54:39Z</time></trkpt><trkpt lat="-39.2736183666" lon="-72.4094944261"><ele>245.91</ele><time>2024-07-30T00:54:48Z</time></trkpt><trkpt lat="-39.2744964547" lon="-72.4097851105"><ele>246.47</ele><time>2024-07-30T00:54:57Z</time></trkpt><trkpt lat="-39.2762361187" lon="-72.4102703389"><ele>246.99</ele><time>2024-07-30T00:55:12Z</time></trkpt><trkpt lat="-39.2763577402" lon="-72.4102612864"><ele>247.25</ele><time>2024-07-30T00:55:13Z</time></trkpt><trkpt lat="-39.2775934841" lon="-72.4098309595"><ele>247.35</ele><time>2024-07-30T00:55:23Z</time></trkpt><trkpt lat="-39.2784603406" lon="-72.4097724538"><ele>244.18</ele><time>2024-07-30T00:55:31Z</time></trkpt><trkpt lat="-39.2788831238" lon="-72.4099671654"><ele>240.83</ele><time>2024-07-30T00:55:35Z</time></trkpt><trkpt lat="-39.2791857105" lon="-72.4102327880"><ele>237.70</ele><time>2024-07-30T00:55:38Z</time></trkpt><trkpt lat="-39.2794564459" lon="-72.4105839059"><ele>234.39</ele><time>2024-07-30T00:55:41Z</time></trkpt><trkpt lat="-39.2797230743" lon="-72.4109387957"><ele>230.80</ele><time>2024-07-30T00:55:44Z</time></trkpt><trkpt lat="-39.2799564265" lon="-72.4112496804"><ele>226.97</ele><time>2024-07-30T00:55:47Z</time></trkpt><trkpt lat="-39.2801238131" lon="-72.4114502594"><ele>223.64</ele><time>2024-07-30T00:55:50Z</time></trkpt><trkpt lat="-39.2803376354" lon="-72.4116618186"><ele>221.21</ele><time>2024-07-30T00:55:54Z</time></trkpt><trkpt lat="-39.2804098874" lon="-72.4117065780"><ele>220.67</ele><time>2024-07-30T00:55:55Z</time></trkpt><trkpt lat="-39.2804796249" lon="-72.4117454700"><ele>220.05</ele><time>2024-07-30T00:55:56Z</time></trkpt><trkpt lat="-39.2809369415" lon="-72.4119277764"><ele>217.01</ele><time>2024-07-30T00:56:03Z</time></trkpt><trkpt lat="-39.2819865234" lon="-72.4122752063"><ele>214.37</ele><time>2024-07-30T00:56:17Z</time></trkpt><trkpt lat="-39.2832656857" lon="-72.4127272423"><ele>213.20</ele><time>2024-07-30T00:56:32Z</time></trkpt><trkpt lat="-39.2846829817" lon="-72.4132185895"><ele>216.30</ele><time>2024-07-30T00:56:48Z</time></trkpt><trkpt lat="-39.2861026246" lon="-72.4136995431"><ele>218.51</ele><time>2024-07-30T00:57:04Z</time></trkpt><trkpt lat="-39.2873337585" lon="-72.4141290318"><ele>218.46</ele><time>2024-07-30T00:57:18Z</time></trkpt><trkpt lat="-39.2887500487" lon="-72.4144244939"><ele>216.12</ele><time>2024-07-30T00:57:34Z</time></trkpt><trkpt lat="-39.2898335773" lon="-72.4141017906"><ele>213.41</ele><time>2024-07-30T00:57:46Z</time></trkpt><trkpt lat="-39.2907125037" lon="-72.4133661110"><ele>213.04</ele><time>2024-07-30T00:57:57Z</time></trkpt><trkpt lat="-39.2912952974" lon="-72.4123695027"><ele>216.25</ele><time>2024-07-30T00:58:08Z</time></trkpt><trkpt lat="-39.2916889954" lon="-72.4113209266"><ele>219.48</ele><time>2024-07-30T00:58:19Z</time></trkpt><trkpt lat="-39.2919958569" lon="-72.4104604404"><ele>222.77</ele><time>2024-07-30T00:58:29Z</time></trkpt><trkpt lat="-39.2923090048" lon="-72.4095434602"><ele>225.22</ele><time>2024-07-30T00:58:41Z</time></trkpt><trkpt lat="-39.2923188116" lon="-72.4094940070"><ele>225.38</ele><time>2024-07-30T00:58:42Z</time></trkpt><trkpt lat="-39.2923230026" lon="-72.4094515946"><ele>225.49</ele><time>2024-07-30T00:58:43Z</time></trkpt><trkpt lat="-39.2923236731" lon="-72.4094159715"><ele>225.36</ele><time>2024-07-30T00:58:44Z</time></trkpt><trkpt lat="-39.2923230026" lon="-72.4093908258"><ele>225.48</ele><time>2024-07-30T00:58:45Z</time></trkpt><trkpt lat="-39.2923208233" lon="-72.4093756545"><ele>225.52</ele><time>2024-07-30T00:58:46Z</time></trkpt><trkpt lat="-39.2920800950" lon="-72.4091610778"><ele>224.09</ele><time>2024-07-30T00:58:59Z</time></trkpt><trkpt lat="-39.2915720679" lon="-72.4088874087"><ele>221.96</ele><time>2024-07-30T00:59:17Z</time></trkpt><trkpt lat="-39.2910337821" lon="-72.4085661303"><ele>221.85</ele><time>2024-07-30T00:59:36Z</time></trkpt><trkpt lat="-39.2910336144" lon="-72.4082150962"><ele>222.04</ele><time>2024-07-30T00:59:46Z</time></trkpt><trkpt lat="-39.2912767734" lon="-72.4076605495"><ele>222.63</ele><time>2024-07-30T01:00:00Z</time></trkpt><trkpt lat="-39.2915589921" lon="-72.4078443646"><ele>223.64</ele><time>2024-07-30T01:00:09Z</time></trkpt><trkpt lat="-39.2921246029" lon="-72.4082817324"><ele>225.55</ele><time>2024-07-30T01:00:26Z</time></trkpt><trkpt lat="-39.2925493140" lon="-72.4086232949"><ele>227.55</ele><time>2024-07-30T01:00:42Z</time></trkpt><trkpt lat="-39.2924437858" lon="-72.4089565594"><ele>226.90</ele><time>2024-07-30T01:00:53Z</time></trkpt><trkpt lat="-39.2923829332" lon="-72.4093401991"><ele>225.94</ele><time>2024-07-30T01:01:03Z</time></trkpt><trkpt lat="-39.2924799956" lon="-72.4094360042"><ele>226.12</ele><time>2024-07-30T01:01:08Z</time></trkpt><trkpt lat="-39.2930974066" lon="-72.4097948335"><ele>228.77</ele><time>2024-07-30T01:01:18Z</time></trkpt><trkpt lat="-39.2935476825" lon="-72.4100473803"><ele>231.89</ele><time>2024-07-30T01:01:25Z</time></trkpt><trkpt lat="-39.2938149814" lon="-72.4102155212"><ele>235.36</ele><time>2024-07-30T01:01:30Z</time></trkpt><trkpt lat="-39.2939703818" lon="-72.4102499709"><ele>237.47</ele><time>2024-07-30T01:01:34Z</time></trkpt><trkpt lat="-39.2940112017" lon="-72.4102216400"><ele>237.58</ele><time>2024-07-30T01:01:35Z</time></trkpt><trkpt lat="-39.2943222541" lon="-72.4099717755"><ele>239.77</ele><time>2024-07-30T01:01:42Z</time></trkpt><trkpt lat="-39.2943484895" lon="-72.4099304527"><ele>239.78</ele><time>2024-07-30T01:01:43Z</time></trkpt><trkpt lat="-39.2943598051" lon="-72.4098825082"><ele>240.52</ele><time>2024-07-30T01:01:44Z</time></trkpt><trkpt lat="-39.2943542730" lon="-72.4098250922"><ele>240.35</ele><time>2024-07-30T01:01:45Z</time></trkpt><trkpt lat="-39.2943341564" lon="-72.4097630661"><ele>240.18</ele><time>2024-07-30T01:01:46Z</time></trkpt><trkpt lat="-39.2943007965" lon="-72.4096935801"><ele>239.99</ele><time>2024-07-30T01:01:47Z</time></trkpt><trkpt lat="-39.2942606471" lon="-72.4096152931"><ele>239.72</ele><time>2024-07-30T01:01:48Z</time></trkpt><trkpt lat="-39.2940323241" lon="-72.4091904983"><ele>236.59</ele><time>2024-07-30T01:01:53Z</time></trkpt><trkpt lat="-39.2939904146" lon="-72.4091007281"><ele>236.76</ele><time>2024-07-30T01:01:54Z</time></trkpt><trkpt lat="-39.2938484251" lon="-72.4088217784"><ele>233.64</ele><time>2024-07-30T01:01:59Z</time></trkpt><trkpt lat="-39.2937473394" lon="-72.4086746760"><ele>233.09</ele><time>2024-07-30T01:02:04Z</time></trkpt><trkpt lat="-39.2937100399" lon="-72.4086425733"><ele>233.16</ele><time>2024-07-30T01:02:05Z</time></trkpt><trkpt lat="-39.2931430880" lon="-72.4082765356"><ele>232.45</ele><time>2024-07-30T01:02:14Z</time></trkpt><trkpt lat="-39.2928802315" lon="-72.4080818240"><ele>230.07</ele><time>2024-07-30T01:02:21Z</time></trkpt><trkpt lat="-39.2928636353" lon="-72.4080601148"><ele>229.92</ele><time>2024-07-30T01:02:24Z</time></trkpt><trkpt lat="-39.2928553373" lon="-72.4080450274"><ele>229.77</ele><time>2024-07-30T01:02:25Z</time></trkpt><trkpt lat="-39.2928498890" lon="-72.4080209713"><ele>229.81</ele><time>2024-07-30T01:02:26Z</time></trkpt><trkpt lat="-39.2928467039" lon="-72.4079888687"><ele>229.80</ele><time>2024-07-30T01:02:27Z</time></trkpt><trkpt lat="-39.2928498052" lon="-72.4079489708"><ele>229.98</ele><time>2024-07-30T01:02:28Z</time></trkpt><trkpt lat="-39.2928584386" lon="-72.4079001043"><ele>230.22</ele><time>2024-07-30T01:02:29Z</time></trkpt><trkpt lat="-39.2928716820" lon="-72.4078498967"><ele>230.57</ele><time>2024-07-30T01:02:30Z</time></trkpt><trkpt lat="-39.2928906251" lon="-72.4077993538"><ele>230.67</ele><time>2024-07-30T01:02:31Z</time></trkpt><trkpt lat="-39.2929119989" lon="-72.4077371601"><ele>230.87</ele><time>2024-07-30T01:02:32Z</time></trkpt><trkpt lat="-39.2931891885" lon="-72.4069983792"><ele>234.10</ele><time>2024-07-30T01:02:41Z</time></trkpt><trkpt lat="-39.2932640389" lon="-72.4067956209"><ele>234.99</ele><time>2024-07-30T01:02:43Z</time></trkpt><trkpt lat="-39.2934563197" lon="-72.4063404836"><ele>237.25</ele><time>2024-07-30T01:02:51Z</time></trkpt><trkpt lat="-39.2934958823" lon="-72.4063149188"><ele>237.81</ele><time>2024-07-30T01:02:54Z</time></trkpt><trkpt lat="-39.2935182620" lon="-72.4063167628"><ele>238.18</ele><time>2024-07-30T01:02:55Z</time></trkpt><trkpt lat="-39.2935421504" lon="-72.4063240550"><ele>238.47</ele><time>2024-07-30T01:02:56Z</time></trkpt><trkpt lat="-39.2935696431" lon="-72.4063378014"><ele>238.85</ele><time>2024-07-30T01:02:57Z</time></trkpt><trkpt lat="-39.2936002370" lon="-72.4063570797"><ele>239.15</ele><time>2024-07-30T01:02:58Z</time></trkpt><trkpt lat="-39.2936332617" lon="-72.4063787889"><ele>239.51</ele><time>2024-07-30T01:02:59Z</time></trkpt><trkpt lat="-39.2937962897" lon="-72.4064694811"><ele>241.36</ele><time>2024-07-30T01:03:03Z</time></trkpt><trkpt lat="-39.2943417002" lon="-72.4068272207"><ele>241.09</ele><time>2024-07-30T01:03:13Z</time></trkpt><trkpt lat="-39.2944210768" lon="-72.4069689587"><ele>240.44</ele><time>2024-07-30T01:03:20Z</time></trkpt><trkpt lat="-39.2944101803" lon="-72.4070093594"><ele>240.65</ele><time>2024-07-30T01:03:21Z</time></trkpt><trkpt lat="-39.2941904068" lon="-72.4076395947"><ele>238.70</ele><time>2024-07-30T01:03:29Z</time></trkpt><trkpt lat="-39.2939179111" lon="-72.4083289225"><ele>235.36</ele><time>2024-07-30T01:03:36Z</time></trkpt><trkpt lat="-39.2938283924" lon="-72.4086771067"><ele>233.84</ele><time>2024-07-30T01:03:42Z</time></trkpt><trkpt lat="-39.2938459944" lon="-72.4086961336"><ele>233.61</ele><time>2024-07-30T01:03:43Z</time></trkpt><trkpt lat="-39.2938663624" lon="-72.4087041803"><ele>233.72</ele><time>2024-07-30T01:03:44Z</time></trkpt><trkpt lat="-39.2938912567" lon="-72.4087035935"><ele>233.77</ele><time>2024-07-30T01:03:45Z</time></trkpt><trkpt lat="-39.2939127143" lon="-72.4086911883"><ele>233.96</ele><time>2024-07-30T01:03:46Z</time></trkpt><trkpt lat="-39.2939369380" lon="-72.4086699821"><ele>234.28</ele><time>2024-07-30T01:03:47Z</time></trkpt><trkpt lat="-39.2942359205" lon="-72.4084231351"><ele>237.85</ele><time>2024-07-30T01:03:53Z</time></trkpt><trkpt lat="-39.2944437917" lon="-72.4082451873"><ele>240.43</ele><time>2024-07-30T01:03:56Z</time></trkpt><trkpt lat="-39.2945919000" lon="-72.4081208836"><ele>242.05</ele><time>2024-07-30T01:03:58Z</time></trkpt><trkpt lat="-39.2950379010" lon="-72.4077386688"><ele>245.08</ele><time>2024-07-30T01:04:04Z</time></trkpt><trkpt lat="-39.2952848319" lon="-72.4075009581"><ele>246.92</ele><time>2024-07-30T01:04:11Z</time></trkpt><trkpt lat="-39.2952906992" lon="-72.4074666761"><ele>247.15</ele><time>2024-07-30T01:04:12Z</time></trkpt><trkpt lat="-39.2952844966" lon="-72.4074234255"><ele>247.24</ele><time>2024-07-30T01:04:13Z</time></trkpt><trkpt lat="-39.2952653859" lon="-72.4073848687"><ele>247.19</ele><time>2024-07-30T01:04:14Z</time></trkpt><trkpt lat="-39.2952356301" lon="-72.4073529337"><ele>247.14</ele><time>2024-07-30T01:04:15Z</time></trkpt><trkpt lat="-39.2952026054" lon="-72.4073235132"><ele>246.84</ele><time>2024-07-30T01:04:16Z</time></trkpt><trkpt lat="-39.2951653898" lon="-72.4072961044"><ele>246.59</ele><time>2024-07-30T01:04:17Z</time></trkpt><trkpt lat="-39.2951263301" lon="-72.4072713777"><ele>246.48</ele><time>2024-07-30T01:04:18Z</time></trkpt><trkpt lat="-39.2947215680" lon="-72.4070206750"><ele>243.34</ele><time>2024-07-30T01:04:27Z</time></trkpt><trkpt lat="-39.2945536785" lon="-72.4069097824"><ele>241.79</ele><time>2024-07-30T01:04:31Z</time></trkpt><trkpt lat="-39.2945018783" lon="-72.4068202637"><ele>241.16</ele><time>2024-07-30T01:04:34Z</time></trkpt><trkpt lat="-39.2944988608" lon="-72.4067836348"><ele>241.14</ele><time>2024-07-30T01:04:35Z</time></trkpt><trkpt lat="-39.2945061531" lon="-72.4067428987"><ele>241.28</ele><time>2024-07-30T01:04:36Z</time></trkpt><trkpt lat="-39.2945226654" lon="-72.4066979717"><ele>241.33</ele><time>2024-07-30T01:04:37Z</time></trkpt><trkpt lat="-39.2945432011" lon="-72.4066487700"><ele>241.62</ele><time>2024-07-30T01:04:38Z</time></trkpt><trkpt lat="-39.2947917245" lon="-72.4059705064"><ele>244.91</ele><time>2024-07-30T01:04:49Z</time></trkpt><trkpt lat="-39.2949762102" lon="-72.4054662511"><ele>246.18</ele><time>2024-07-30T01:04:57Z</time></trkpt><trkpt lat="-39.2949901242" lon="-72.4053989444"><ele>246.27</ele><time>2024-07-30T01:04:58Z</time></trkpt><trkpt lat="-39.2949985061" lon="-72.4053289555"><ele>246.21</ele><time>2024-07-30T01:04:59Z</time></trkpt><trkpt lat="-39.2950001825" lon="-72.4052576255"><ele>246.28</ele><time>2024-07-30T01:05:00Z</time></trkpt><trkpt lat="-39.2949935608" lon="-72.4051889777"><ele>246.30</ele><time>2024-07-30T01:05:01Z</time></trkpt><trkpt lat="-39.2949837539" lon="-72.4051171448"><ele>246.42</ele><time>2024-07-30T01:05:02Z</time></trkpt><trkpt lat="-39.2949379887" lon="-72.4047373608"><ele>246.85</ele><time>2024-07-30T01:05:11Z</time></trkpt><trkpt lat="-39.2949534114" lon="-72.4046938587"><ele>246.94</ele><time>2024-07-30T01:05:20Z</time></trkpt><trkpt lat="-39.2949687503" lon="-72.4046792742"><ele>247.10</ele><time>2024-07-30T01:05:21Z</time></trkpt><trkpt lat="-39.2949871905" lon="-72.4046653602"><ele>247.25</ele><time>2024-07-30T01:05:22Z</time></trkpt><trkpt lat="-39.2950153537" lon="-72.4046517815"><ele>247.41</ele><time>2024-07-30T01:05:23Z</time></trkpt><trkpt lat="-39.2950475402" lon="-72.4046412203"><ele>247.42</ele><time>2024-07-30T01:05:24Z</time></trkpt><trkpt lat="-39.2950837500" lon="-72.4046281446"><ele>247.65</ele><time>2024-07-30T01:05:25Z</time></trkpt><trkpt lat="-39.2956963833" lon="-72.4044436589"><ele>249.50</ele><time>2024-07-30T01:05:36Z</time></trkpt><trkpt lat="-39.2959222756" lon="-72.4044116400"><ele>249.80</ele><time>2024-07-30T01:05:42Z</time></trkpt><trkpt lat="-39.2959477566" lon="-72.4044439103"><ele>249.84</ele><time>2024-07-30T01:05:43Z</time></trkpt><trkpt lat="-39.2959675379" lon="-72.4044912681"><ele>249.99</ele><time>2024-07-30T01:05:44Z</time></trkpt><trkpt lat="-39.2959821224" lon="-72.4045569822"><ele>250.00</ele><time>2024-07-30T01:05:45Z</time></trkpt><trkpt lat="-39.2959940247" lon="-72.4046384543"><ele>249.99</ele><time>2024-07-30T01:05:46Z</time></trkpt><trkpt lat="-39.2961667757" lon="-72.4056331348"><ele>249.40</ele><time>2024-07-30T01:05:57Z</time></trkpt><trkpt lat="-39.2961477488" lon="-72.4057079852"><ele>249.55</ele><time>2024-07-30T01:05:59Z</time></trkpt><trkpt lat="-39.2961246148" lon="-72.4057349749"><ele>249.54</ele><time>2024-07-30T01:06:00Z</time></trkpt><trkpt lat="-39.2960921768" lon="-72.4057583604"><ele>249.58</ele><time>2024-07-30T01:06:01Z</time></trkpt><trkpt lat="-39.2960480042" lon="-72.4057774711"><ele>249.78</ele><time>2024-07-30T01:06:02Z</time></trkpt><trkpt lat="-39.2959939409" lon="-72.4057957437"><ele>249.83</ele><time>2024-07-30T01:06:03Z</time></trkpt><trkpt lat="-39.2959314957" lon="-72.4058132619"><ele>249.79</ele><time>2024-07-30T01:06:04Z</time></trkpt><trkpt lat="-39.2951837461" lon="-72.4060370587"><ele>247.73</ele><time>2024-07-30T01:06:17Z</time></trkpt><trkpt lat="-39.2951639649" lon="-72.4060731847"><ele>247.56</ele><time>2024-07-30T01:06:18Z</time></trkpt><trkpt lat="-39.2951533198" lon="-72.4061238114"><ele>247.59</ele><time>2024-07-30T01:06:19Z</time></trkpt><trkpt lat="-39.2951524816" lon="-72.4061828200"><ele>247.66</ele><time>2024-07-30T01:06:20Z</time></trkpt><trkpt lat="-39.2951591033" lon="-72.4062517192"><ele>247.83</ele><time>2024-07-30T01:06:21Z</time></trkpt><trkpt lat="-39.2951702513" lon="-72.4063304253"><ele>247.91</ele><time>2024-07-30T01:06:22Z</time></trkpt><trkpt lat="-39.2953207903" lon="-72.4072496686"><ele>248.62</ele><time>2024-07-30T01:06:33Z</time></trkpt><trkpt lat="-39.2953939643" lon="-72.4073821027"><ele>248.27</ele><time>2024-07-30T01:06:37Z</time></trkpt><trkpt lat="-39.2954393104" lon="-72.4073981959"><ele>248.55</ele><time>2024-07-30T01:06:38Z</time></trkpt><trkpt lat="-39.2954899371" lon="-72.4073997885"><ele>248.62</ele><time>2024-07-30T01:06:39Z</time></trkpt><trkpt lat="-39.2955439165" lon="-72.4073896464"><ele>248.74</ele><time>2024-07-30T01:06:40Z</time></trkpt><trkpt lat="-39.2956026737" lon="-72.4073733855"><ele>249.01</ele><time>2024-07-30T01:06:41Z</time></trkpt><trkpt lat="-39.2956647836" lon="-72.4073530175"><ele>249.31</ele><time>2024-07-30T01:06:42Z</time></trkpt><trkpt lat="-39.2966484837" lon="-72.4070304818"><ele>248.46</ele><time>2024-07-30T01:06:56Z</time></trkpt><trkpt lat="-39.2968108412" lon="-72.4068632629"><ele>247.87</ele><time>2024-07-30T01:07:04Z</time></trkpt><trkpt lat="-39.2968202289" lon="-72.4068326689"><ele>247.98</ele><time>2024-07-30T01:07:05Z</time></trkpt><trkpt lat="-39.2969417665" lon="-72.4066972174"><ele>248.52</ele><time>2024-07-30T01:07:10Z</time></trkpt><trkpt lat="-39.2970204726" lon="-72.4065014999"><ele>249.82</ele><time>2024-07-30T01:07:14Z</time></trkpt><trkpt lat="-39.2969477177" lon="-72.4061161000"><ele>250.29</ele><time>2024-07-30T01:07:22Z</time></trkpt><trkpt lat="-39.2970077321" lon="-72.4056496471"><ele>250.38</ele><time>2024-07-30T01:07:32Z</time></trkpt><trkpt lat="-39.2970427684" lon="-72.4056371581"><ele>250.30</ele><time>2024-07-30T01:07:33Z</time></trkpt><trkpt lat="-39.2971866019" lon="-72.4055751320"><ele>249.95</ele><time>2024-07-30T01:07:38Z</time></trkpt><trkpt lat="-39.2971896194" lon="-72.4053974357"><ele>250.34</ele><time>2024-07-30T01:07:42Z</time></trkpt><trkpt lat="-39.2971997615" lon="-72.4048218504"><ele>251.66</ele><time>2024-07-30T01:07:54Z</time></trkpt><trkpt lat="-39.2972342111" lon="-72.4045599997"><ele>252.43</ele><time>2024-07-30T01:08:03Z</time></trkpt><trkpt lat="-39.2970963288" lon="-72.4038415030"><ele>253.37</ele><time>2024-07-30T01:08:13Z</time></trkpt><trkpt lat="-39.2970914673" lon="-72.4038023595"><ele>253.36</ele><time>2024-07-30T01:08:18Z</time></trkpt><trkpt lat="-39.2971028667" lon="-72.4037233181"><ele>253.45</ele><time>2024-07-30T01:08:21Z</time></trkpt><trkpt lat="-39.2971223965" lon="-72.4036988430"><ele>253.57</ele><time>2024-07-30T01:08:22Z</time></trkpt><trkpt lat="-39.2971533258" lon="-72.4036833365"><ele>253.43</ele><time>2024-07-30T01:08:23Z</time></trkpt><trkpt lat="-39.2972233985" lon="-72.4036653154"><ele>253.73</ele><time>2024-07-30T01:08:25Z</time></trkpt><trkpt lat="-39.2977689765" lon="-72.4035288580"><ele>254.72</ele><time>2024-07-30T01:08:35Z</time></trkpt><trkpt lat="-39.2978206929" lon="-72.4035260081"><ele>254.56</ele><time>2024-07-30T01:08:36Z</time></trkpt><trkpt lat="-39.2978658713" lon="-72.4035430234"><ele>254.62</ele><time>2024-07-30T01:08:37Z</time></trkpt><trkpt lat="-39.2979074456" lon="-72.4035781436"><ele>254.58</ele><time>2024-07-30T01:08:38Z</time></trkpt><trkpt lat="-39.2979470920" lon="-72.4036339670"><ele>254.60</ele><time>2024-07-30T01:08:39Z</time></trkpt><trkpt lat="-39.2979859002" lon="-72.4037012737"><ele>254.43</ele><time>2024-07-30T01:08:40Z</time></trkpt><trkpt lat="-39.2984829471" lon="-72.4045670405"><ele>252.33</ele><time>2024-07-30T01:08:52Z</time></trkpt><trkpt lat="-39.2985199112" lon="-72.4046164099"><ele>252.14</ele><time>2024-07-30T01:08:53Z</time></trkpt><trkpt lat="-39.2985562887" lon="-72.4046524521"><ele>251.91</ele><time>2024-07-30T01:08:54Z</time></trkpt><trkpt lat="-39.2985904869" lon="-72.4046733230"><ele>251.88</ele><time>2024-07-30T01:08:55Z</time></trkpt><trkpt lat="-39.2986273672" lon="-72.4046822917"><ele>251.79</ele><time>2024-07-30T01:08:56Z</time></trkpt><trkpt lat="-39.2986683547" lon="-72.4046819564"><ele>251.68</ele><time>2024-07-30T01:08:57Z</time></trkpt><trkpt lat="-39.2987149581" lon="-72.4046734907"><ele>251.56</ele><time>2024-07-30T01:08:58Z</time></trkpt><trkpt lat="-39.2987665907" lon="-72.4046592414"><ele>251.68</ele><time>2024-07-30T01:08:59Z</time></trkpt><trkpt lat="-39.2988231685" lon="-72.4046428129"><ele>251.54</ele><time>2024-07-30T01:09:00Z</time></trkpt><trkpt lat="-39.2994099855" lon="-72.4044788629"><ele>250.60</ele><time>2024-07-30T01:09:12Z</time></trkpt><trkpt lat="-39.3000260554" lon="-72.4043052737"><ele>250.77</ele><time>2024-07-30T01:09:21Z</time></trkpt><trkpt lat="-39.3003216852" lon="-72.4042173475"><ele>251.26</ele><time>2024-07-30T01:09:26Z</time></trkpt><trkpt lat="-39.3003604095" lon="-72.4041894358"><ele>251.46</ele><time>2024-07-30T01:09:27Z</time></trkpt><trkpt lat="-39.3003892433" lon="-72.4041513819"><ele>251.74</ele><time>2024-07-30T01:09:28Z</time></trkpt><trkpt lat="-39.3004051689" lon="-72.4040988274"><ele>252.09</ele><time>2024-07-30T01:09:29Z</time></trkpt><trkpt lat="-39.3004109524" lon="-72.4040319398"><ele>252.35</ele><time>2024-07-30T01:09:30Z</time></trkpt><trkpt lat="-39.3004096113" lon="-72.4039600231"><ele>252.73</ele><time>2024-07-30T01:09:31Z</time></trkpt><trkpt lat="-39.3004007265" lon="-72.4038782995"><ele>253.15</ele><time>2024-07-30T01:09:32Z</time></trkpt><trkpt lat="-39.3003881536" lon="-72.4037879426"><ele>253.49</ele><time>2024-07-30T01:09:33Z</time></trkpt><trkpt lat="-39.3002971262" lon="-72.4032322224"><ele>257.66</ele><time>2024-07-30T01:09:39Z</time></trkpt><trkpt lat="-39.3002379499" lon="-72.4029251095"><ele>260.07</ele><time>2024-07-30T01:09:43Z</time></trkpt><trkpt lat="-39.3001816235" lon="-72.4028519355"><ele>260.59</ele><time>2024-07-30T01:09:46Z</time></trkpt><trkpt lat="-39.3001548015" lon="-72.4028427992"><ele>260.52</ele><time>2024-07-30T01:09:47Z</time></trkpt><trkpt lat="-39.3001189269" lon="-72.4028417096"><ele>260.44</ele><time>2024-07-30T01:09:48Z</time></trkpt><trkpt lat="-39.3000196014" lon="-72.4028550368"><ele>259.21</ele><time>2024-07-30T01:09:50Z</time></trkpt><trkpt lat="-39.2996947188" lon="-72.4029501714"><ele>255.63</ele><time>2024-07-30T01:09:55Z</time></trkpt><trkpt lat="-39.2991881166" lon="-72.4030997884"><ele>252.97</ele><time>2024-07-30T01:10:03Z</time></trkpt><trkpt lat="-39.2986440472" lon="-72.4032429513"><ele>254.09</ele><time>2024-07-30T01:10:11Z</time></trkpt><trkpt lat="-39.2981293146" lon="-72.4033610523"><ele>254.03</ele><time>2024-07-30T01:10:20Z</time></trkpt><trkpt lat="-39.2980983015" lon="-72.4033522513"><ele>254.11</ele><time>2024-07-30T01:10:21Z</time></trkpt><trkpt lat="-39.2980734911" lon="-72.4033217411"><ele>254.38</ele><time>2024-07-30T01:10:22Z</time></trkpt><trkpt lat="-39.2980573140" lon="-72.4032755569"><ele>254.58</ele><time>2024-07-30T01:10:23Z</time></trkpt><trkpt lat="-39.2980449926" lon="-72.4032149557"><ele>254.63</ele><time>2024-07-30T01:10:24Z</time></trkpt><trkpt lat="-39.2980330065" lon="-72.4031447154"><ele>254.81</ele><time>2024-07-30T01:10:25Z</time></trkpt><trkpt lat="-39.2979081161" lon="-72.4022831395"><ele>255.95</ele><time>2024-07-30T01:10:35Z</time></trkpt><trkpt lat="-39.2978988122" lon="-72.4020689819"><ele>256.17</ele><time>2024-07-30T01:10:39Z</time></trkpt><trkpt lat="-39.2979267240" lon="-72.4020315986"><ele>256.49</ele><time>2024-07-30T01:10:40Z</time></trkpt><trkpt lat="-39.2979665380" lon="-72.4020010885"><ele>256.52</ele><time>2024-07-30T01:10:41Z</time></trkpt><trkpt lat="-39.2980133090" lon="-72.4019774515"><ele>256.58</ele><time>2024-07-30T01:10:42Z</time></trkpt><trkpt lat="-39.2980700545" lon="-72.4019576702"><ele>256.56</ele><time>2024-07-30T01:10:43Z</time></trkpt><trkpt lat="-39.2981324159" lon="-72.4019373860"><ele>256.64</ele><time>2024-07-30T01:10:44Z</time></trkpt><trkpt lat="-39.2988178879" lon="-72.4017618690"><ele>258.20</ele><time>2024-07-30T01:10:54Z</time></trkpt><trkpt lat="-39.2992709298" lon="-72.4016422592"><ele>261.20</ele><time>2024-07-30T01:11:01Z</time></trkpt><trkpt lat="-39.2998728342" lon="-72.4014856014"><ele>263.07</ele><time>2024-07-30T01:11:11Z</time></trkpt><trkpt lat="-39.2999322619" lon="-72.4013778940"><ele>263.33</ele><time>2024-07-30T01:11:15Z</time></trkpt><trkpt lat="-39.2999335192" lon="-72.4013172928"><ele>263.27</ele><time>2024-07-30T01:11:16Z</time></trkpt><trkpt lat="-39.2999281548" lon="-72.4012487289"><ele>263.09</ele><time>2024-07-30T01:11:17Z</time></trkpt><trkpt lat="-39.2997955531" lon="-72.4003789388"><ele>261.03</ele><time>2024-07-30T01:11:27Z</time></trkpt><trkpt lat="-39.2997176852" lon="-72.4001277331"><ele>260.57</ele><time>2024-07-30T01:11:32Z</time></trkpt><trkpt lat="-39.2996796314" lon="-72.4001113046"><ele>260.36</ele><time>2024-07-30T01:11:33Z</time></trkpt><trkpt lat="-39.2996396497" lon="-72.4001106340"><ele>260.25</ele><time>2024-07-30T01:11:34Z</time></trkpt><trkpt lat="-39.2995946389" lon="-72.4001218658"><ele>260.36</ele><time>2024-07-30T01:11:35Z</time></trkpt><trkpt lat="-39.2995433416" lon="-72.4001361150"><ele>260.20</ele><time>2024-07-30T01:11:36Z</time></trkpt><trkpt lat="-39.2988327239" lon="-72.4003282283"><ele>257.73</ele><time>2024-07-30T01:11:47Z</time></trkpt><trkpt lat="-39.2986635771" lon="-72.4003760051"><ele>257.15</ele><time>2024-07-30T01:11:55Z</time></trkpt><trkpt lat="-39.2982939351" lon="-72.4004770909"><ele>256.74</ele><time>2024-07-30T01:12:05Z</time></trkpt><trkpt lat="-39.2976188567" lon="-72.4006590620"><ele>255.92</ele><time>2024-07-30T01:12:18Z</time></trkpt><trkpt lat="-39.2973265797" lon="-72.4006749876"><ele>252.91</ele><time>2024-07-30T01:12:22Z</time></trkpt><trkpt lat="-39.2969550099" lon="-72.4007010553"><ele>249.76</ele><time>2024-07-30T01:12:26Z</time></trkpt><trkpt lat="-39.2968621384" lon="-72.4007082637"><ele>249.57</ele><time>2024-07-30T01:12:27Z</time></trkpt><trkpt lat="-39.2964899819" lon="-72.4007122871"><ele>248.07</ele><time>2024-07-30T01:12:34Z</time></trkpt><trkpt lat="-39.2964317277" lon="-72.4006539490"><ele>248.32</ele><time>2024-07-30T01:12:36Z</time></trkpt><trkpt lat="-39.2964125331" lon="-72.4005941022"><ele>248.29</ele><time>2024-07-30T01:12:37Z</time></trkpt><trkpt lat="-39.2963296361" lon="-72.4003480095"><ele>248.31</ele><time>2024-07-30T01:12:40Z</time></trkpt><trkpt lat="-39.2962880619" lon="-72.4002610892"><ele>248.34</ele><time>2024-07-30T01:12:41Z</time></trkpt><trkpt lat="-39.2962411232" lon="-72.4001794495"><ele>248.40</ele><time>2024-07-30T01:12:42Z</time></trkpt><trkpt lat="-39.2961904965" lon="-72.4001063593"><ele>248.15</ele><time>2024-07-30T01:12:43Z</time></trkpt><trkpt lat="-39.2961354274" lon="-72.4000434950"><ele>248.23</ele><time>2024-07-30T01:12:44Z</time></trkpt><trkpt lat="-39.2960766703" lon="-72.3999907728"><ele>248.17</ele><time>2024-07-30T01:12:45Z</time></trkpt><trkpt lat="-39.2960143927" lon="-72.3999497015"><ele>248.22</ele><time>2024-07-30T01:12:46Z</time></trkpt><trkpt lat="-39.2959508579" lon="-72.3999176826"><ele>248.29</ele><time>2024-07-30T01:12:47Z</time></trkpt><trkpt lat="-39.2958897538" lon="-72.3998942133"><ele>248.44</ele><time>2024-07-30T01:12:48Z</time></trkpt><trkpt lat="-39.2958343495" lon="-72.3998753540"><ele>248.89</ele><time>2024-07-30T01:12:49Z</time></trkpt><trkpt lat="-39.2957917694" lon="-72.3998660501"><ele>249.28</ele><time>2024-07-30T01:12:50Z</time></trkpt><trkpt lat="-39.2957626842" lon="-72.3998616915"><ele>249.59</ele><time>2024-07-30T01:12:51Z</time></trkpt><trkpt lat="-39.2956197727" lon="-72.3997790460"><ele>249.61</ele><time>2024-07-30T01:12:59Z</time></trkpt><trkpt lat="-39.2956144083" lon="-72.3997435905"><ele>249.50</ele><time>2024-07-30T01:13:00Z</time></trkpt><trkpt lat="-39.2956075352" lon="-72.3996959813"><ele>249.56</ele><time>2024-07-30T01:13:01Z</time></trkpt><trkpt lat="-39.2954869196" lon="-72.3990097549"><ele>250.85</ele><time>2024-07-30T01:13:09Z</time></trkpt><trkpt lat="-39.2951592710" lon="-72.3974693287"><ele>254.07</ele><time>2024-07-30T01:13:22Z</time></trkpt><trkpt lat="-39.2950240709" lon="-72.3967085872"><ele>257.34</ele><time>2024-07-30T01:13:28Z</time></trkpt><trkpt lat="-39.2949985899" lon="-72.3957770225"><ele>260.46</ele><time>2024-07-30T01:13:35Z</time></trkpt><trkpt lat="-39.2950073909" lon="-72.3944598902"><ele>262.80</ele><time>2024-07-30T01:13:45Z</time></trkpt><trkpt lat="-39.2949014436" lon="-72.3925990239"><ele>264.54</ele><time>2024-07-30T01:14:00Z</time></trkpt><trkpt lat="-39.2943828553" lon="-72.3910658900"><ele>264.36</ele><time>2024-07-30T01:14:12Z</time></trkpt><trkpt lat="-39.2935628537" lon="-72.3894828837"><ele>264.02</ele><time>2024-07-30T01:14:26Z</time></trkpt><trkpt lat="-39.2934733350" lon="-72.3892768566"><ele>263.84</ele><time>2024-07-30T01:14:28Z</time></trkpt><trkpt lat="-39.2934455071" lon="-72.3891698197"><ele>264.11</ele><time>2024-07-30T01:14:29Z</time></trkpt><trkpt lat="-39.2934322637" lon="-72.3890602682"><ele>263.95</ele><time>2024-07-30T01:14:30Z</time></trkpt><trkpt lat="-39.2934315931" lon="-72.3889507167"><ele>264.10</ele><time>2024-07-30T01:14:31Z</time></trkpt><trkpt lat="-39.2934426572" lon="-72.3888443504"><ele>264.06</ele><time>2024-07-30T01:14:32Z</time></trkpt><trkpt lat="-39.2934604269" lon="-72.3887349665"><ele>264.20</ele><time>2024-07-30T01:14:33Z</time></trkpt><trkpt lat="-39.2934820522" lon="-72.3886212241"><ele>264.24</ele><time>2024-07-30T01:14:34Z</time></trkpt><trkpt lat="-39.2938248720" lon="-72.3870005831"><ele>264.99</ele><time>2024-07-30T01:14:47Z</time></trkpt><trkpt lat="-39.2941598967" lon="-72.3853262980"><ele>268.09</ele><time>2024-07-30T01:15:00Z</time></trkpt><trkpt lat="-39.2943898961" lon="-72.3842228204"><ele>271.25</ele><time>2024-07-30T01:15:09Z</time></trkpt><trkpt lat="-39.2946891300" lon="-72.3826326057"><ele>274.38</ele><time>2024-07-30T01:15:21Z</time></trkpt><trkpt lat="-39.2950896174" lon="-72.3806386348"><ele>272.60</ele><time>2024-07-30T01:15:35Z</time></trkpt><trkpt lat="-39.2953713331" lon="-72.3792635836"><ele>269.58</ele><time>2024-07-30T01:15:44Z</time></trkpt><trkpt lat="-39.2955429107" lon="-72.3783724196"><ele>266.79</ele><time>2024-07-30T01:15:50Z</time></trkpt><trkpt lat="-39.2959143966" lon="-72.3765483499"><ele>264.73</ele><time>2024-07-30T01:16:04Z</time></trkpt><trkpt lat="-39.2961324099" lon="-72.3755391687"><ele>263.40</ele><time>2024-07-30T01:16:14Z</time></trkpt><trkpt lat="-39.2962264549" lon="-72.3750693630"><ele>262.51</ele><time>2024-07-30T01:16:21Z</time></trkpt><trkpt lat="-39.2963044904" lon="-72.3747804388"><ele>261.61</ele><time>2024-07-30T01:16:30Z</time></trkpt><trkpt lat="-39.2963025626" lon="-72.3747468274"><ele>261.43</ele><time>2024-07-30T01:16:32Z</time></trkpt><trkpt lat="-39.2963023949" lon="-72.3747522756"><ele>261.50</ele><time>2024-07-30T01:16:47Z</time></trkpt><trkpt lat="-39.2962820269" lon="-72.3747752421"><ele>261.48</ele><time>2024-07-30T01:16:58Z</time></trkpt><trkpt lat="-39.2962686997" lon="-72.3747998849"><ele>261.51</ele><time>2024-07-30T01:16:59Z</time></trkpt><trkpt lat="-39.2962576356" lon="-72.3748293892"><ele>261.64</ele><time>2024-07-30T01:17:00Z</time></trkpt><trkpt lat="-39.2962438054" lon="-72.3748688679"><ele>261.75</ele><time>2024-07-30T01:17:01Z</time></trkpt><trkpt lat="-39.2962288018" lon="-72.3749128729"><ele>261.84</ele><time>2024-07-30T01:17:02Z</time></trkpt><trkpt lat="-39.2960668635" lon="-72.3756249156"><ele>263.32</ele><time>2024-07-30T01:17:11Z</time></trkpt><trkpt lat="-39.2957545538" lon="-72.3770872224"><ele>264.98</ele><time>2024-07-30T01:17:22Z</time></trkpt><trkpt lat="-39.2953048646" lon="-72.3793021403"><ele>268.02</ele><time>2024-07-30T01:17:37Z</time></trkpt><trkpt lat="-39.2951508053" lon="-72.3800651450"><ele>270.23</ele><time>2024-07-30T01:17:42Z</time></trkpt><trkpt lat="-39.2949134298" lon="-72.3812975362"><ele>272.43</ele><time>2024-07-30T01:17:52Z</time></trkpt><trkpt lat="-39.2945640720" lon="-72.3830838874"><ele>272.89</ele><time>2024-07-30T01:18:07Z</time></trkpt><trkpt lat="-39.2942831945" lon="-72.3845860921"><ele>269.67</ele><time>2024-07-30T01:18:19Z</time></trkpt><trkpt lat="-39.2940602358" lon="-72.3857085127"><ele>266.59</ele><time>2024-07-30T01:18:28Z</time></trkpt><trkpt lat="-39.2936899234" lon="-72.3875739891"><ele>263.60</ele><time>2024-07-30T01:18:43Z</time></trkpt><trkpt lat="-39.2933932040" lon="-72.3891718313"><ele>262.75</ele><time>2024-07-30T01:18:57Z</time></trkpt><trkpt lat="-39.2934004124" lon="-72.3892702349"><ele>262.68</ele><time>2024-07-30T01:18:58Z</time></trkpt><trkpt lat="-39.2934207805" lon="-72.3893672973"><ele>262.72</ele><time>2024-07-30T01:18:59Z</time></trkpt><trkpt lat="-39.2934525479" lon="-72.3894640245"><ele>262.63</ele><time>2024-07-30T01:19:00Z</time></trkpt><trkpt lat="-39.2934885062" lon="-72.3895579018"><ele>262.65</ele><time>2024-07-30T01:19:01Z</time></trkpt><trkpt lat="-39.2940699589" lon="-72.3906696774"><ele>262.56</ele><time>2024-07-30T01:19:12Z</time></trkpt><trkpt lat="-39.2947452050" lon="-72.3923630733"><ele>262.93</ele><time>2024-07-30T01:19:27Z</time></trkpt><trkpt lat="-39.2949546687" lon="-72.3939382844"><ele>262.60</ele><time>2024-07-30T01:19:40Z</time></trkpt><trkpt lat="-39.2949385755" lon="-72.3956340272"><ele>259.58</ele><time>2024-07-30T01:19:54Z</time></trkpt><trkpt lat="-39.2949253321" lon="-72.3965368420"><ele>256.57</ele><time>2024-07-30T01:20:04Z</time></trkpt><trkpt lat="-39.2949002702" lon="-72.3965841159"><ele>256.58</ele><time>2024-07-30T01:20:06Z</time></trkpt><trkpt lat="-39.2948825005" lon="-72.3965913244"><ele>256.35</ele><time>2024-07-30T01:20:07Z</time></trkpt><trkpt lat="-39.2948593665" lon="-72.3965898156"><ele>256.31</ele><time>2024-07-30T01:20:08Z</time></trkpt><trkpt lat="-39.2948301136" lon="-72.3965792544"><ele>256.42</ele><time>2024-07-30T01:20:09Z</time></trkpt><trkpt lat="-39.2947991844" lon="-72.3965629935"><ele>256.46</ele><time>2024-07-30T01:20:10Z</time></trkpt><trkpt lat="-39.2947673332" lon="-72.3965446372"><ele>256.39</ele><time>2024-07-30T01:20:11Z</time></trkpt><trkpt lat="-39.2942156363" lon="-72.3963022325"><ele>257.80</ele><time>2024-07-30T01:20:21Z</time></trkpt><trkpt lat="-39.2934658751" lon="-72.3959848937"><ele>260.67</ele><time>2024-07-30T01:20:34Z</time></trkpt><trkpt lat="-39.2926171236" lon="-72.3955963925"><ele>263.68</ele><time>2024-07-30T01:20:48Z</time></trkpt><trkpt lat="-39.2924928199" lon="-72.3955549020"><ele>264.03</ele><time>2024-07-30T01:20:54Z</time></trkpt><trkpt lat="-39.2924785707" lon="-72.3955590092"><ele>264.10</ele><time>2024-07-30T01:20:55Z</time></trkpt><trkpt lat="-39.2924717814" lon="-72.3955297563"><ele>264.02</ele><time>2024-07-30T01:21:08Z</time></trkpt><trkpt lat="-39.2924828455" lon="-72.3955607694"><ele>264.11</ele><time>2024-07-30T01:21:15Z</time></trkpt><trkpt lat="-39.2924942449" lon="-72.3955705762"><ele>263.97</ele><time>2024-07-30T01:21:16Z</time></trkpt><trkpt lat="-39.2925079912" lon="-72.3955834843"><ele>263.85</ele><time>2024-07-30T01:21:17Z</time></trkpt><trkpt lat="-39.2925268505" lon="-72.3955963925"><ele>263.94</ele><time>2024-07-30T01:21:18Z</time></trkpt><trkpt lat="-39.2925571930" lon="-72.3956109770"><ele>263.77</ele><time>2024-07-30T01:21:19Z</time></trkpt><trkpt lat="-39.2925923970" lon="-72.3956266511"><ele>263.65</ele><time>2024-07-30T01:21:20Z</time></trkpt><trkpt lat="-39.2933088820" lon="-72.3959644418"><ele>260.91</ele><time>2024-07-30T01:21:33Z</time></trkpt><trkpt lat="-39.2941739783" lon="-72.3963383585"><ele>257.84</ele><time>2024-07-30T01:21:47Z</time></trkpt><trkpt lat="-39.2944903951" lon="-72.3964694515"><ele>255.88</ele><time>2024-07-30T01:21:52Z</time></trkpt><trkpt lat="-39.2945520859" lon="-72.3964926694"><ele>257.12</ele><time>2024-07-30T01:21:53Z</time></trkpt><trkpt lat="-39.2946671695" lon="-72.3965355847"><ele>257.93</ele><time>2024-07-30T01:21:55Z</time></trkpt><trkpt lat="-39.2949099094" lon="-72.3966315575"><ele>256.41</ele><time>2024-07-30T01:22:02Z</time></trkpt><trkpt lat="-39.2949554231" lon="-72.3967697751"><ele>255.97</ele><time>2024-07-30T01:22:05Z</time></trkpt><trkpt lat="-39.2951286770" lon="-72.3975650501"><ele>252.78</ele><time>2024-07-30T01:22:15Z</time></trkpt><trkpt lat="-39.2953864206" lon="-72.3987589683"><ele>249.67</ele><time>2024-07-30T01:22:27Z</time></trkpt><trkpt lat="-39.2955765221" lon="-72.3998714983"><ele>247.81</ele><time>2024-07-30T01:22:41Z</time></trkpt><trkpt lat="-39.2955595069" lon="-72.3999718297"><ele>247.76</ele><time>2024-07-30T01:22:43Z</time></trkpt><trkpt lat="-39.2953606043" lon="-72.4008236825"><ele>244.87</ele><time>2024-07-30T01:22:57Z</time></trkpt><trkpt lat="-39.2953528930" lon="-72.4008930847"><ele>244.81</ele><time>2024-07-30T01:22:58Z</time></trkpt><trkpt lat="-39.2953526415" lon="-72.4011806678"><ele>244.04</ele><time>2024-07-30T01:23:02Z</time></trkpt><trkpt lat="-39.2953803856" lon="-72.4013969209"><ele>243.65</ele><time>2024-07-30T01:23:05Z</time></trkpt><trkpt lat="-39.2956208624" lon="-72.4027683679"><ele>246.00</ele><time>2024-07-30T01:23:22Z</time></trkpt><trkpt lat="-39.2958613392" lon="-72.4040717538"><ele>248.59</ele><time>2024-07-30T01:23:39Z</time></trkpt><trkpt lat="-39.2958710622" lon="-72.4041425809"><ele>248.46</ele><time>2024-07-30T01:23:48Z</time></trkpt><trkpt lat="-39.2958560586" lon="-72.4041397311"><ele>248.60</ele><time>2024-07-30T01:24:24Z</time></trkpt><trkpt lat="-39.2958557233" lon="-72.4041699897"><ele>248.23</ele><time>2024-07-30T01:24:45Z</time></trkpt></trkseg></trk></gpx>