<?xml version="1.0" encoding="UTF-8" standalone="no" ?><gpx xmlns="http://www.topografix.com/GPX/1/1" xmlns:gpxx="http://www.garmin.com/xmlschemas/GpxExtensions/v3" xmlns:gpxtrkx="http://www.garmin.com/xmlschemas/TrackStatsExtension/v1" xmlns:wptx1="http://www.garmin.com/xmlschemas/WaypointExtension/v1" xmlns:gpxtpx="http://www.garmin.com/xmlschemas/TrackPointExtension/v1" creator="GPSMAP 64sx" version="1.1" xmlns:xsi="http://www.w3.org/2001/XMLSchema-instance" xsi:schemaLocation="http://www.topografix.com/GPX/1/1 http://www.topografix.com/GPX/1/1/gpx.xsd http://www.garmin.com/xmlschemas/GpxExtensions/v3 http://www8.garmin.com/xmlschemas/GpxExtensionsv3.xsd http://www.garmin.com/xmlschemas/TrackStatsExtension/v1 http://www8.garmin.com/xmlschemas/TrackStatsExtension.xsd http://www.garmin.com/xmlschemas/WaypointExtension/v1 http://www8.garmin.com/xmlschemas/WaypointExtensionv1.xsd http://www.garmin.com/xmlschemas/TrackPointExtension/v1 http://www.garmin.com/xmlschemas/TrackPointExtensionv1.xsd"><metadata><link href="http://www.garmin.com"><text>Garmin International</text></link><time>2024-08-20T01:09:08Z</time></metadata><trk><name>GPS HUIS 240819</name><extensions><gpxx:TrackExtension><gpxx:DisplayColor>Cyan</gpxx:DisplayColor></gpxx:TrackExtension><gpxtrkx:TrackStatsExtension><gpxtrkx:Distance>12979.000</gpxtrkx:Distance><gpxtrkx:TotalElapsedTime>1841</gpxtrkx:TotalElapsedTime><gpxtrkx:MovingTime>1739</gpxtrkx:MovingTime><gpxtrkx:StoppedTime>101</gpxtrkx:StoppedTime><gpxtrkx:MovingSpeed>7.464</gpxtrkx:MovingSpeed><gpxtrkx:MaxSpeed>16.517</gpxtrkx:MaxSpeed><gpxtrkx:MaxElevation>272.674</gpxtrkx:MaxElevation><gpxtrkx:MinElevation>212.140</gpxtrkx:MinElevation><gpxtrkx:Ascent>149.000</gpxtrkx:Ascent><gpxtrkx:Descent>150.242</gpxtrkx:Descent><gpxtrkx:AvgAscentRate>0.119</gpxtrkx:AvgAscentRate><gpxtrkx:MaxAscentRate>0.741</gpxtrkx:MaxAscentRate><gpxtrkx:AvgDescentRate>0.102</gpxtrkx:AvgDescentRate><gpxtrkx:MaxDescentRate>-1.361</gpxtrkx:MaxDescentRate></gpxtrkx:TrackStatsExtension></extensions><trkseg><trkpt lat="-39.2730647419" lon="-72.4093588907"><ele>247.77</ele><time>2024-08-20T00:38:27Z</time></trkpt><trkpt lat="-39.2730653286" lon="-72.4093590584"><ele>247.77</ele><time>2024-08-20T00:38:28Z</time></trkpt><trkpt lat="-39.2730691005" lon="-72.4093563762"><ele>246.11</ele><time>2024-08-20T00:38:32Z</time></trkpt><trkpt lat="-39.2730744649" lon="-72.4093298893"><ele>245.45</ele><time>2024-08-20T00:39:14Z</time></trkpt><trkpt lat="-39.2731641512" lon="-72.4093354214"><ele>245.60</ele><time>2024-08-20T00:39:18Z</time></trkpt><trkpt lat="-39.2737077177" lon="-72.4095034786"><ele>245.87</ele><time>2024-08-20T00:39:26Z</time></trkpt><trkpt lat="-39.2748902366" lon="-72.4098961707"><ele>246.50</ele><time>2024-08-20T00:39:37Z</time></trkpt><trkpt lat="-39.2760866694" lon="-72.4102516472"><ele>247.46</ele><time>2024-08-20T00:39:46Z</time></trkpt><trkpt lat="-39.2762262281" lon="-72.4102539942"><ele>247.50</ele><time>2024-08-20T00:39:47Z</time></trkpt><trkpt lat="-39.2773843557" lon="-72.4098898005"><ele>247.57</ele><time>2024-08-20T00:39:56Z</time></trkpt><trkpt lat="-39.2781155091" lon="-72.4097062368"><ele>246.00</ele><time>2024-08-20T00:40:02Z</time></trkpt><trkpt lat="-39.2782420758" lon="-72.4097136129"><ele>245.47</ele><time>2024-08-20T00:40:03Z</time></trkpt><trkpt lat="-39.2783689778" lon="-72.4097340647"><ele>244.55</ele><time>2024-08-20T00:40:04Z</time></trkpt><trkpt lat="-39.2784947064" lon="-72.4097689334"><ele>243.71</ele><time>2024-08-20T00:40:05Z</time></trkpt><trkpt lat="-39.2786181718" lon="-72.4098143633"><ele>243.01</ele><time>2024-08-20T00:40:06Z</time></trkpt><trkpt lat="-39.2787389550" lon="-72.4098686781"><ele>242.04</ele><time>2024-08-20T00:40:07Z</time></trkpt><trkpt lat="-39.2788616661" lon="-72.4099395890"><ele>240.91</ele><time>2024-08-20T00:40:08Z</time></trkpt><trkpt lat="-39.2789808568" lon="-72.4100221507"><ele>239.90</ele><time>2024-08-20T00:40:09Z</time></trkpt><trkpt lat="-39.2793195695" lon="-72.4103371426"><ele>236.31</ele><time>2024-08-20T00:40:12Z</time></trkpt><trkpt lat="-39.2794210743" lon="-72.4104692414"><ele>235.22</ele><time>2024-08-20T00:40:13Z</time></trkpt><trkpt lat="-39.2797262594" lon="-72.4108747579"><ele>230.99</ele><time>2024-08-20T00:40:16Z</time></trkpt><trkpt lat="-39.2800311930" lon="-72.4112707190"><ele>227.16</ele><time>2024-08-20T00:40:19Z</time></trkpt><trkpt lat="-39.2803598475" lon="-72.4115706235"><ele>223.49</ele><time>2024-08-20T00:40:22Z</time></trkpt><trkpt lat="-39.2804796249" lon="-72.4116417859"><ele>222.08</ele><time>2024-08-20T00:40:23Z</time></trkpt><trkpt lat="-39.2806053534" lon="-72.4117049854"><ele>220.72</ele><time>2024-08-20T00:40:24Z</time></trkpt><trkpt lat="-39.2810726445" lon="-72.4119295366"><ele>216.73</ele><time>2024-08-20T00:40:28Z</time></trkpt><trkpt lat="-39.2820299417" lon="-72.4122869410"><ele>214.53</ele><time>2024-08-20T00:40:38Z</time></trkpt><trkpt lat="-39.2829709779" lon="-72.4126110692"><ele>212.87</ele><time>2024-08-20T00:40:51Z</time></trkpt><trkpt lat="-39.2842360586" lon="-72.4130711518"><ele>214.83</ele><time>2024-08-20T00:41:07Z</time></trkpt><trkpt lat="-39.2855790909" lon="-72.4135350902"><ele>217.90</ele><time>2024-08-20T00:41:23Z</time></trkpt><trkpt lat="-39.2873219401" lon="-72.4141400121"><ele>218.62</ele><time>2024-08-20T00:41:41Z</time></trkpt><trkpt lat="-39.2887104861" lon="-72.4144194648"><ele>215.99</ele><time>2024-08-20T00:41:54Z</time></trkpt><trkpt lat="-39.2899136245" lon="-72.4140498228"><ele>212.95</ele><time>2024-08-20T00:42:05Z</time></trkpt><trkpt lat="-39.2906811554" lon="-72.4133872334"><ele>212.19</ele><time>2024-08-20T00:42:15Z</time></trkpt><trkpt lat="-39.2912760191" lon="-72.4123485480"><ele>215.37</ele><time>2024-08-20T00:42:27Z</time></trkpt><trkpt lat="-39.2916258797" lon="-72.4114013091"><ele>218.49</ele><time>2024-08-20T00:42:39Z</time></trkpt><trkpt lat="-39.2919413745" lon="-72.4104569200"><ele>221.53</ele><time>2024-08-20T00:42:51Z</time></trkpt><trkpt lat="-39.2922855355" lon="-72.4094256945"><ele>224.35</ele><time>2024-08-20T00:43:05Z</time></trkpt><trkpt lat="-39.2922441289" lon="-72.4092210084"><ele>224.27</ele><time>2024-08-20T00:43:12Z</time></trkpt><trkpt lat="-39.2916296516" lon="-72.4089221098"><ele>221.18</ele><time>2024-08-20T00:43:23Z</time></trkpt><trkpt lat="-39.2910783738" lon="-72.4086130690"><ele>220.45</ele><time>2024-08-20T00:43:35Z</time></trkpt><trkpt lat="-39.2909341212" lon="-72.4084290862"><ele>220.58</ele><time>2024-08-20T00:43:41Z</time></trkpt><trkpt lat="-39.2911541462" lon="-72.4077861942"><ele>221.06</ele><time>2024-08-20T00:43:52Z</time></trkpt><trkpt lat="-39.2914095428" lon="-72.4076951668"><ele>221.76</ele><time>2024-08-20T00:44:01Z</time></trkpt><trkpt lat="-39.2920041550" lon="-72.4081651401"><ele>223.58</ele><time>2024-08-20T00:44:15Z</time></trkpt><trkpt lat="-39.2924753018" lon="-72.4085233826"><ele>226.01</ele><time>2024-08-20T00:44:27Z</time></trkpt><trkpt lat="-39.2924931552" lon="-72.4088650290"><ele>225.33</ele><time>2024-08-20T00:44:38Z</time></trkpt><trkpt lat="-39.2924030498" lon="-72.4091540370"><ele>224.72</ele><time>2024-08-20T00:44:42Z</time></trkpt><trkpt lat="-39.2923921533" lon="-72.4092196673"><ele>224.43</ele><time>2024-08-20T00:44:43Z</time></trkpt><trkpt lat="-39.2923880462" lon="-72.4092691205"><ele>224.42</ele><time>2024-08-20T00:44:44Z</time></trkpt><trkpt lat="-39.2923863698" lon="-72.4093041569"><ele>224.30</ele><time>2024-08-20T00:44:45Z</time></trkpt><trkpt lat="-39.2923863698" lon="-72.4093281291"><ele>224.25</ele><time>2024-08-20T00:44:46Z</time></trkpt><trkpt lat="-39.2926296126" lon="-72.4095421191"><ele>224.49</ele><time>2024-08-20T00:44:55Z</time></trkpt><trkpt lat="-39.2932140827" lon="-72.4098538421"><ele>227.48</ele><time>2024-08-20T00:45:04Z</time></trkpt><trkpt lat="-39.2936308309" lon="-72.4100678321"><ele>230.49</ele><time>2024-08-20T00:45:10Z</time></trkpt><trkpt lat="-39.2938347626" lon="-72.4102072231"><ele>233.81</ele><time>2024-08-20T00:45:14Z</time></trkpt><trkpt lat="-39.2938812822" lon="-72.4102327041"><ele>234.66</ele><time>2024-08-20T00:45:15Z</time></trkpt><trkpt lat="-39.2939319089" lon="-72.4102457799"><ele>235.37</ele><time>2024-08-20T00:45:16Z</time></trkpt><trkpt lat="-39.2939858884" lon="-72.4102401640"><ele>235.65</ele><time>2024-08-20T00:45:17Z</time></trkpt><trkpt lat="-39.2940308154" lon="-72.4102175329"><ele>235.94</ele><time>2024-08-20T00:45:18Z</time></trkpt><trkpt lat="-39.2940745689" lon="-72.4101828318"><ele>236.28</ele><time>2024-08-20T00:45:19Z</time></trkpt><trkpt lat="-39.2941191606" lon="-72.4101462867"><ele>236.41</ele><time>2024-08-20T00:45:20Z</time></trkpt><trkpt lat="-39.2943763174" lon="-72.4098076578"><ele>238.74</ele><time>2024-08-20T00:45:30Z</time></trkpt><trkpt lat="-39.2943590507" lon="-72.4097566959"><ele>238.45</ele><time>2024-08-20T00:45:31Z</time></trkpt><trkpt lat="-39.2943312228" lon="-72.4096971843"><ele>238.29</ele><time>2024-08-20T00:45:32Z</time></trkpt><trkpt lat="-39.2942980304" lon="-72.4096346553"><ele>238.20</ele><time>2024-08-20T00:45:33Z</time></trkpt><trkpt lat="-39.2942634132" lon="-72.4095707852"><ele>237.97</ele><time>2024-08-20T00:45:34Z</time></trkpt><trkpt lat="-39.2940065917" lon="-72.4091137201"><ele>235.11</ele><time>2024-08-20T00:45:40Z</time></trkpt><trkpt lat="-39.2938358523" lon="-72.4088201020"><ele>232.02</ele><time>2024-08-20T00:45:45Z</time></trkpt><trkpt lat="-39.2936805356" lon="-72.4086240493"><ele>231.56</ele><time>2024-08-20T00:45:51Z</time></trkpt><trkpt lat="-39.2930881027" lon="-72.4082268309"><ele>231.17</ele><time>2024-08-20T00:46:01Z</time></trkpt><trkpt lat="-39.2929083109" lon="-72.4080940615"><ele>229.37</ele><time>2024-08-20T00:46:05Z</time></trkpt><trkpt lat="-39.2928879429" lon="-72.4078830890"><ele>228.59</ele><time>2024-08-20T00:46:13Z</time></trkpt><trkpt lat="-39.2931193672" lon="-72.4072418734"><ele>231.70</ele><time>2024-08-20T00:46:22Z</time></trkpt><trkpt lat="-39.2933431640" lon="-72.4066280667"><ele>234.79</ele><time>2024-08-20T00:46:29Z</time></trkpt><trkpt lat="-39.2934888415" lon="-72.4063201994"><ele>235.87</ele><time>2024-08-20T00:46:36Z</time></trkpt><trkpt lat="-39.2937138118" lon="-72.4063964747"><ele>239.24</ele><time>2024-08-20T00:46:44Z</time></trkpt><trkpt lat="-39.2942229286" lon="-72.4067377858"><ele>240.45</ele><time>2024-08-20T00:46:55Z</time></trkpt><trkpt lat="-39.2943194881" lon="-72.4067946989"><ele>240.02</ele><time>2024-08-20T00:46:57Z</time></trkpt><trkpt lat="-39.2943575419" lon="-72.4068164919"><ele>239.68</ele><time>2024-08-20T00:46:58Z</time></trkpt><trkpt lat="-39.2943856213" lon="-72.4068431463"><ele>239.40</ele><time>2024-08-20T00:46:59Z</time></trkpt><trkpt lat="-39.2944105994" lon="-72.4068773445"><ele>239.08</ele><time>2024-08-20T00:47:00Z</time></trkpt><trkpt lat="-39.2944204900" lon="-72.4069162365"><ele>239.06</ele><time>2024-08-20T00:47:01Z</time></trkpt><trkpt lat="-39.2944173887" lon="-72.4069573916"><ele>239.07</ele><time>2024-08-20T00:47:02Z</time></trkpt><trkpt lat="-39.2944056541" lon="-72.4070033245"><ele>238.95</ele><time>2024-08-20T00:47:03Z</time></trkpt><trkpt lat="-39.2943883035" lon="-72.4070587289"><ele>238.80</ele><time>2024-08-20T00:47:04Z</time></trkpt><trkpt lat="-39.2940812744" lon="-72.4079339672"><ele>235.75</ele><time>2024-08-20T00:47:15Z</time></trkpt><trkpt lat="-39.2938136403" lon="-72.4085652083"><ele>232.34</ele><time>2024-08-20T00:47:24Z</time></trkpt><trkpt lat="-39.2938141432" lon="-72.4086316768"><ele>231.74</ele><time>2024-08-20T00:47:26Z</time></trkpt><trkpt lat="-39.2938263807" lon="-72.4086528830"><ele>231.51</ele><time>2024-08-20T00:47:27Z</time></trkpt><trkpt lat="-39.2938464135" lon="-72.4086672999"><ele>231.60</ele><time>2024-08-20T00:47:28Z</time></trkpt><trkpt lat="-39.2938734032" lon="-72.4086728320"><ele>231.74</ele><time>2024-08-20T00:47:29Z</time></trkpt><trkpt lat="-39.2939081881" lon="-72.4086624384"><ele>231.86</ele><time>2024-08-20T00:47:30Z</time></trkpt><trkpt lat="-39.2939499300" lon="-72.4086429086"><ele>233.03</ele><time>2024-08-20T00:47:31Z</time></trkpt><trkpt lat="-39.2939965334" lon="-72.4086140748"><ele>232.79</ele><time>2024-08-20T00:47:32Z</time></trkpt><trkpt lat="-39.2940412089" lon="-72.4085812178"><ele>234.21</ele><time>2024-08-20T00:47:33Z</time></trkpt><trkpt lat="-39.2940843757" lon="-72.4085487798"><ele>234.72</ele><time>2024-08-20T00:47:34Z</time></trkpt><trkpt lat="-39.2943543568" lon="-72.4083145894"><ele>238.69</ele><time>2024-08-20T00:47:40Z</time></trkpt><trkpt lat="-39.2946840171" lon="-72.4080206361"><ele>242.05</ele><time>2024-08-20T00:47:46Z</time></trkpt><trkpt lat="-39.2952414136" lon="-72.4075522553"><ele>245.18</ele><time>2024-08-20T00:47:57Z</time></trkpt><trkpt lat="-39.2953168508" lon="-72.4074138701"><ele>245.41</ele><time>2024-08-20T00:48:03Z</time></trkpt><trkpt lat="-39.2953049485" lon="-72.4073917419"><ele>245.53</ele><time>2024-08-20T00:48:04Z</time></trkpt><trkpt lat="-39.2952834908" lon="-72.4073707033"><ele>245.09</ele><time>2024-08-20T00:48:05Z</time></trkpt><trkpt lat="-39.2952552438" lon="-72.4073483236"><ele>245.09</ele><time>2024-08-20T00:48:06Z</time></trkpt><trkpt lat="-39.2952144239" lon="-72.4073209148"><ele>244.90</ele><time>2024-08-20T00:48:07Z</time></trkpt><trkpt lat="-39.2947348114" lon="-72.4070082698"><ele>241.83</ele><time>2024-08-20T00:48:16Z</time></trkpt><trkpt lat="-39.2945235036" lon="-72.4068515282"><ele>239.02</ele><time>2024-08-20T00:48:22Z</time></trkpt><trkpt lat="-39.2945173010" lon="-72.4068140611"><ele>239.10</ele><time>2024-08-20T00:48:23Z</time></trkpt><trkpt lat="-39.2945216596" lon="-72.4067722354"><ele>239.62</ele><time>2024-08-20T00:48:24Z</time></trkpt><trkpt lat="-39.2945355736" lon="-72.4067270570"><ele>239.88</ele><time>2024-08-20T00:48:25Z</time></trkpt><trkpt lat="-39.2945504934" lon="-72.4066784419"><ele>240.19</ele><time>2024-08-20T00:48:26Z</time></trkpt><trkpt lat="-39.2947803251" lon="-72.4060429260"><ele>243.59</ele><time>2024-08-20T00:48:35Z</time></trkpt><trkpt lat="-39.2949693371" lon="-72.4054525048"><ele>244.69</ele><time>2024-08-20T00:48:42Z</time></trkpt><trkpt lat="-39.2949815746" lon="-72.4053657521"><ele>244.84</ele><time>2024-08-20T00:48:43Z</time></trkpt><trkpt lat="-39.2949902080" lon="-72.4052755628"><ele>244.90</ele><time>2024-08-20T00:48:44Z</time></trkpt><trkpt lat="-39.2949928902" lon="-72.4050940108"><ele>245.10</ele><time>2024-08-20T00:48:46Z</time></trkpt><trkpt lat="-39.2949834187" lon="-72.4050013069"><ele>245.21</ele><time>2024-08-20T00:48:47Z</time></trkpt><trkpt lat="-39.2949547525" lon="-72.4047028273"><ele>244.80</ele><time>2024-08-20T00:48:54Z</time></trkpt><trkpt lat="-39.2950357217" lon="-72.4046087824"><ele>245.20</ele><time>2024-08-20T00:48:58Z</time></trkpt><trkpt lat="-39.2950763740" lon="-72.4045926891"><ele>245.54</ele><time>2024-08-20T00:48:59Z</time></trkpt><trkpt lat="-39.2957984749" lon="-72.4043983128"><ele>247.94</ele><time>2024-08-20T00:49:10Z</time></trkpt><trkpt lat="-39.2959496845" lon="-72.4043870810"><ele>247.41</ele><time>2024-08-20T00:49:14Z</time></trkpt><trkpt lat="-39.2959751654" lon="-72.4044134002"><ele>247.09</ele><time>2024-08-20T00:49:15Z</time></trkpt><trkpt lat="-39.2959972937" lon="-72.4044555612"><ele>247.25</ele><time>2024-08-20T00:49:16Z</time></trkpt><trkpt lat="-39.2960140575" lon="-72.4045198504"><ele>247.15</ele><time>2024-08-20T00:49:17Z</time></trkpt><trkpt lat="-39.2960288934" lon="-72.4045976344"><ele>247.45</ele><time>2024-08-20T00:49:18Z</time></trkpt><trkpt lat="-39.2962058354" lon="-72.4055919796"><ele>247.33</ele><time>2024-08-20T00:49:29Z</time></trkpt><trkpt lat="-39.2961701285" lon="-72.4057529960"><ele>247.07</ele><time>2024-08-20T00:49:33Z</time></trkpt><trkpt lat="-39.2961360980" lon="-72.4057742022"><ele>246.93</ele><time>2024-08-20T00:49:34Z</time></trkpt><trkpt lat="-39.2960945237" lon="-72.4057892896"><ele>246.99</ele><time>2024-08-20T00:49:35Z</time></trkpt><trkpt lat="-39.2953428347" lon="-72.4060078897"><ele>246.20</ele><time>2024-08-20T00:49:47Z</time></trkpt><trkpt lat="-39.2951942235" lon="-72.4060911220"><ele>244.48</ele><time>2024-08-20T00:49:52Z</time></trkpt><trkpt lat="-39.2951855063" lon="-72.4061357137"><ele>244.99</ele><time>2024-08-20T00:49:53Z</time></trkpt><trkpt lat="-39.2951839976" lon="-72.4061932135"><ele>245.30</ele><time>2024-08-20T00:49:54Z</time></trkpt><trkpt lat="-39.2951881047" lon="-72.4062547367"><ele>245.15</ele><time>2024-08-20T00:49:55Z</time></trkpt><trkpt lat="-39.2951966543" lon="-72.4063212052"><ele>245.33</ele><time>2024-08-20T00:49:56Z</time></trkpt><trkpt lat="-39.2953708302" lon="-72.4072950985"><ele>246.17</ele><time>2024-08-20T00:50:08Z</time></trkpt><trkpt lat="-39.2954716645" lon="-72.4074125290"><ele>245.74</ele><time>2024-08-20T00:50:12Z</time></trkpt><trkpt lat="-39.2955120653" lon="-72.4074087571"><ele>245.93</ele><time>2024-08-20T00:50:13Z</time></trkpt><trkpt lat="-39.2955594230" lon="-72.4073961005"><ele>246.28</ele><time>2024-08-20T00:50:14Z</time></trkpt><trkpt lat="-39.2962565459" lon="-72.4071526062"><ele>247.22</ele><time>2024-08-20T00:50:25Z</time></trkpt><trkpt lat="-39.2966743000" lon="-72.4069951102"><ele>246.62</ele><time>2024-08-20T00:50:32Z</time></trkpt><trkpt lat="-39.2967150360" lon="-72.4069691263"><ele>246.15</ele><time>2024-08-20T00:50:33Z</time></trkpt><trkpt lat="-39.2967468873" lon="-72.4069439806"><ele>245.83</ele><time>2024-08-20T00:50:34Z</time></trkpt><trkpt lat="-39.2967664171" lon="-72.4069221038"><ele>245.74</ele><time>2024-08-20T00:50:35Z</time></trkpt><trkpt lat="-39.2967812531" lon="-72.4069013167"><ele>245.46</ele><time>2024-08-20T00:50:36Z</time></trkpt><trkpt lat="-39.2967908923" lon="-72.4068779312"><ele>245.23</ele><time>2024-08-20T00:50:37Z</time></trkpt><trkpt lat="-39.2967987712" lon="-72.4068476725"><ele>245.21</ele><time>2024-08-20T00:50:38Z</time></trkpt><trkpt lat="-39.2968096677" lon="-72.4068186712"><ele>244.79</ele><time>2024-08-20T00:50:39Z</time></trkpt><trkpt lat="-39.2968245037" lon="-72.4067894183"><ele>245.79</ele><time>2024-08-20T00:50:40Z</time></trkpt><trkpt lat="-39.2970058043" lon="-72.4065049365"><ele>246.64</ele><time>2024-08-20T00:50:50Z</time></trkpt><trkpt lat="-39.2970021162" lon="-72.4062801339"><ele>246.51</ele><time>2024-08-20T00:50:54Z</time></trkpt><trkpt lat="-39.2969128489" lon="-72.4059316982"><ele>249.46</ele><time>2024-08-20T00:50:59Z</time></trkpt><trkpt lat="-39.2970208917" lon="-72.4056353141"><ele>247.58</ele><time>2024-08-20T00:51:06Z</time></trkpt><trkpt lat="-39.2971969116" lon="-72.4055023771"><ele>246.01</ele><time>2024-08-20T00:51:12Z</time></trkpt><trkpt lat="-39.2971866019" lon="-72.4053623155"><ele>249.20</ele><time>2024-08-20T00:51:15Z</time></trkpt><trkpt lat="-39.2971759569" lon="-72.4053044803"><ele>248.78</ele><time>2024-08-20T00:51:16Z</time></trkpt><trkpt lat="-39.2971368972" lon="-72.4050033186"><ele>247.81</ele><time>2024-08-20T00:51:21Z</time></trkpt><trkpt lat="-39.2971400823" lon="-72.4049545359"><ele>247.19</ele><time>2024-08-20T00:51:22Z</time></trkpt><trkpt lat="-39.2971494701" lon="-72.4049114529"><ele>247.57</ele><time>2024-08-20T00:51:23Z</time></trkpt><trkpt lat="-39.2971656471" lon="-72.4048728961"><ele>249.03</ele><time>2024-08-20T00:51:24Z</time></trkpt><trkpt lat="-39.2971861828" lon="-72.4048402905"><ele>248.96</ele><time>2024-08-20T00:51:25Z</time></trkpt><trkpt lat="-39.2972067185" lon="-72.4048118759"><ele>249.09</ele><time>2024-08-20T00:51:26Z</time></trkpt><trkpt lat="-39.2972231470" lon="-72.4045034219"><ele>249.26</ele><time>2024-08-20T00:51:35Z</time></trkpt><trkpt lat="-39.2970841751" lon="-72.4037562590"><ele>250.17</ele><time>2024-08-20T00:51:47Z</time></trkpt><trkpt lat="-39.2970973346" lon="-72.4037261680"><ele>250.45</ele><time>2024-08-20T00:51:48Z</time></trkpt><trkpt lat="-39.2971250787" lon="-72.4036999326"><ele>250.77</ele><time>2024-08-20T00:51:49Z</time></trkpt><trkpt lat="-39.2971662339" lon="-72.4036802351"><ele>251.05</ele><time>2024-08-20T00:51:50Z</time></trkpt><trkpt lat="-39.2972109932" lon="-72.4036662374"><ele>250.94</ele><time>2024-08-20T00:51:51Z</time></trkpt><trkpt lat="-39.2972591892" lon="-72.4036557600"><ele>251.28</ele><time>2024-08-20T00:51:52Z</time></trkpt><trkpt lat="-39.2973148450" lon="-72.4036449473"><ele>250.84</ele><time>2024-08-20T00:51:53Z</time></trkpt><trkpt lat="-39.2977894284" lon="-72.4035026226"><ele>252.12</ele><time>2024-08-20T00:52:01Z</time></trkpt><trkpt lat="-39.2978432402" lon="-72.4035054725"><ele>251.68</ele><time>2024-08-20T00:52:02Z</time></trkpt><trkpt lat="-39.2978928611" lon="-72.4035226554"><ele>251.82</ele><time>2024-08-20T00:52:03Z</time></trkpt><trkpt lat="-39.2979382072" lon="-72.4035586137"><ele>251.76</ele><time>2024-08-20T00:52:04Z</time></trkpt><trkpt lat="-39.2979781888" lon="-72.4036065582"><ele>251.70</ele><time>2024-08-20T00:52:05Z</time></trkpt><trkpt lat="-39.2980164103" lon="-72.4036661536"><ele>251.33</ele><time>2024-08-20T00:52:06Z</time></trkpt><trkpt lat="-39.2980547156" lon="-72.4037328735"><ele>251.44</ele><time>2024-08-20T00:52:07Z</time></trkpt><trkpt lat="-39.2985702027" lon="-72.4045907613"><ele>249.61</ele><time>2024-08-20T00:52:19Z</time></trkpt><trkpt lat="-39.2986251879" lon="-72.4046360236"><ele>248.52</ele><time>2024-08-20T00:52:20Z</time></trkpt><trkpt lat="-39.2986820173" lon="-72.4046637677"><ele>249.07</ele><time>2024-08-20T00:52:21Z</time></trkpt><trkpt lat="-39.2987463064" lon="-72.4046636000"><ele>249.71</ele><time>2024-08-20T00:52:22Z</time></trkpt><trkpt lat="-39.2988162953" lon="-72.4046461657"><ele>249.46</ele><time>2024-08-20T00:52:23Z</time></trkpt><trkpt lat="-39.2988892179" lon="-72.4046241213"><ele>248.96</ele><time>2024-08-20T00:52:24Z</time></trkpt><trkpt lat="-39.2994135898" lon="-72.4044718221"><ele>247.69</ele><time>2024-08-20T00:52:34Z</time></trkpt><trkpt lat="-39.2999736685" lon="-72.4043003283"><ele>248.11</ele><time>2024-08-20T00:52:43Z</time></trkpt><trkpt lat="-39.3003833760" lon="-72.4041740969"><ele>247.54</ele><time>2024-08-20T00:52:49Z</time></trkpt><trkpt lat="-39.3004247826" lon="-72.4041204527"><ele>249.07</ele><time>2024-08-20T00:52:50Z</time></trkpt><trkpt lat="-39.3004433904" lon="-72.4040547386"><ele>249.39</ele><time>2024-08-20T00:52:51Z</time></trkpt><trkpt lat="-39.3004428875" lon="-72.4039812293"><ele>249.65</ele><time>2024-08-20T00:52:52Z</time></trkpt><trkpt lat="-39.3004317395" lon="-72.4039017688"><ele>250.00</ele><time>2024-08-20T00:52:53Z</time></trkpt><trkpt lat="-39.3004168198" lon="-72.4038183689"><ele>250.39</ele><time>2024-08-20T00:52:54Z</time></trkpt><trkpt lat="-39.3003180809" lon="-72.4032717012"><ele>253.85</ele><time>2024-08-20T00:53:00Z</time></trkpt><trkpt lat="-39.3002765905" lon="-72.4030103534"><ele>256.00</ele><time>2024-08-20T00:53:04Z</time></trkpt><trkpt lat="-39.3001055159" lon="-72.4028290529"><ele>256.28</ele><time>2024-08-20T00:53:11Z</time></trkpt><trkpt lat="-39.3000467587" lon="-72.4028459005"><ele>255.93</ele><time>2024-08-20T00:53:12Z</time></trkpt><trkpt lat="-39.2999130674" lon="-72.4028909113"><ele>254.90</ele><time>2024-08-20T00:53:14Z</time></trkpt><trkpt lat="-39.2996718362" lon="-72.4029701203"><ele>252.73</ele><time>2024-08-20T00:53:17Z</time></trkpt><trkpt lat="-39.2992969137" lon="-72.4030754808"><ele>249.68</ele><time>2024-08-20T00:53:22Z</time></trkpt><trkpt lat="-39.2985296343" lon="-72.4033079948"><ele>250.94</ele><time>2024-08-20T00:53:34Z</time></trkpt><trkpt lat="-39.2981581483" lon="-72.4034217373"><ele>250.47</ele><time>2024-08-20T00:53:40Z</time></trkpt><trkpt lat="-39.2981211003" lon="-72.4034203961"><ele>250.16</ele><time>2024-08-20T00:53:41Z</time></trkpt><trkpt lat="-39.2980954517" lon="-72.4033993576"><ele>250.72</ele><time>2024-08-20T00:53:42Z</time></trkpt><trkpt lat="-39.2980806995" lon="-72.4033632316"><ele>250.58</ele><time>2024-08-20T00:53:43Z</time></trkpt><trkpt lat="-39.2980682943" lon="-72.4033126049"><ele>250.95</ele><time>2024-08-20T00:53:44Z</time></trkpt><trkpt lat="-39.2980589066" lon="-72.4032524228"><ele>251.21</ele><time>2024-08-20T00:53:45Z</time></trkpt><trkpt lat="-39.2979062721" lon="-72.4022828043"><ele>253.00</ele><time>2024-08-20T00:53:57Z</time></trkpt><trkpt lat="-39.2979449127" lon="-72.4020585045"><ele>253.04</ele><time>2024-08-20T00:54:02Z</time></trkpt><trkpt lat="-39.2979818769" lon="-72.4020372983"><ele>253.65</ele><time>2024-08-20T00:54:03Z</time></trkpt><trkpt lat="-39.2986230925" lon="-72.4018423352"><ele>254.17</ele><time>2024-08-20T00:54:13Z</time></trkpt><trkpt lat="-39.2989236675" lon="-72.4017410818"><ele>255.11</ele><time>2024-08-20T00:54:20Z</time></trkpt><trkpt lat="-39.2994363885" lon="-72.4015892018"><ele>258.89</ele><time>2024-08-20T00:54:30Z</time></trkpt><trkpt lat="-39.2997220438" lon="-72.4015187100"><ele>260.12</ele><time>2024-08-20T00:54:34Z</time></trkpt><trkpt lat="-39.2999579106" lon="-72.4014011119"><ele>259.09</ele><time>2024-08-20T00:54:41Z</time></trkpt><trkpt lat="-39.2999659572" lon="-72.4013646506"><ele>259.32</ele><time>2024-08-20T00:54:42Z</time></trkpt><trkpt lat="-39.2999698967" lon="-72.4013136048"><ele>259.47</ele><time>2024-08-20T00:54:43Z</time></trkpt><trkpt lat="-39.2999675497" lon="-72.4012494832"><ele>259.53</ele><time>2024-08-20T00:54:44Z</time></trkpt><trkpt lat="-39.2998100538" lon="-72.4003331736"><ele>257.68</ele><time>2024-08-20T00:54:55Z</time></trkpt><trkpt lat="-39.2997777835" lon="-72.4002071097"><ele>257.26</ele><time>2024-08-20T00:54:57Z</time></trkpt><trkpt lat="-39.2997527216" lon="-72.4001599196"><ele>257.26</ele><time>2024-08-20T00:54:58Z</time></trkpt><trkpt lat="-39.2997155897" lon="-72.4001283199"><ele>256.77</ele><time>2024-08-20T00:54:59Z</time></trkpt><trkpt lat="-39.2996748537" lon="-72.4001149088"><ele>256.69</ele><time>2024-08-20T00:55:00Z</time></trkpt><trkpt lat="-39.2996309325" lon="-72.4001224525"><ele>256.28</ele><time>2024-08-20T00:55:01Z</time></trkpt><trkpt lat="-39.2995852511" lon="-72.4001369532"><ele>256.51</ele><time>2024-08-20T00:55:02Z</time></trkpt><trkpt lat="-39.2988453805" lon="-72.4003553856"><ele>254.78</ele><time>2024-08-20T00:55:14Z</time></trkpt><trkpt lat="-39.2985227611" lon="-72.4004619196"><ele>253.32</ele><time>2024-08-20T00:55:22Z</time></trkpt><trkpt lat="-39.2977483571" lon="-72.4006413762"><ele>254.00</ele><time>2024-08-20T00:55:34Z</time></trkpt><trkpt lat="-39.2974182777" lon="-72.4006836209"><ele>250.67</ele><time>2024-08-20T00:55:39Z</time></trkpt><trkpt lat="-39.2969707679" lon="-72.4006932601"><ele>247.53</ele><time>2024-08-20T00:55:44Z</time></trkpt><trkpt lat="-39.2965070810" lon="-72.4007329904"><ele>244.68</ele><time>2024-08-20T00:55:52Z</time></trkpt><trkpt lat="-39.2964547779" lon="-72.4006990436"><ele>244.61</ele><time>2024-08-20T00:55:55Z</time></trkpt><trkpt lat="-39.2964396905" lon="-72.4006673601"><ele>244.18</ele><time>2024-08-20T00:55:56Z</time></trkpt><trkpt lat="-39.2964224238" lon="-72.4006200023"><ele>243.49</ele><time>2024-08-20T00:55:57Z</time></trkpt><trkpt lat="-39.2964040674" lon="-72.4005561322"><ele>244.64</ele><time>2024-08-20T00:55:58Z</time></trkpt><trkpt lat="-39.2963834479" lon="-72.4004836287"><ele>246.38</ele><time>2024-08-20T00:55:59Z</time></trkpt><trkpt lat="-39.2963573802" lon="-72.4004069343"><ele>245.89</ele><time>2024-08-20T00:56:00Z</time></trkpt><trkpt lat="-39.2963256128" lon="-72.4003315810"><ele>245.21</ele><time>2024-08-20T00:56:01Z</time></trkpt><trkpt lat="-39.2962893192" lon="-72.4002605025"><ele>245.43</ele><time>2024-08-20T00:56:02Z</time></trkpt><trkpt lat="-39.2962472420" lon="-72.4001909327"><ele>245.79</ele><time>2024-08-20T00:56:03Z</time></trkpt><trkpt lat="-39.2961966991" lon="-72.4001201056"><ele>245.52</ele><time>2024-08-20T00:56:04Z</time></trkpt><trkpt lat="-39.2961375229" lon="-72.4000531342"><ele>245.45</ele><time>2024-08-20T00:56:05Z</time></trkpt><trkpt lat="-39.2960718088" lon="-72.3999933712"><ele>245.38</ele><time>2024-08-20T00:56:06Z</time></trkpt><trkpt lat="-39.2960024904" lon="-72.3999471869"><ele>245.53</ele><time>2024-08-20T00:56:07Z</time></trkpt><trkpt lat="-39.2959345970" lon="-72.3999118153"><ele>246.01</ele><time>2024-08-20T00:56:08Z</time></trkpt><trkpt lat="-39.2958694696" lon="-72.3998906929"><ele>246.08</ele><time>2024-08-20T00:56:09Z</time></trkpt><trkpt lat="-39.2958181724" lon="-72.3998797126"><ele>245.72</ele><time>2024-08-20T00:56:10Z</time></trkpt><trkpt lat="-39.2957800347" lon="-72.3998733424"><ele>246.08</ele><time>2024-08-20T00:56:11Z</time></trkpt><trkpt lat="-39.2955995724" lon="-72.3996405769"><ele>246.49</ele><time>2024-08-20T00:56:20Z</time></trkpt><trkpt lat="-39.2954007536" lon="-72.3985413741"><ele>248.55</ele><time>2024-08-20T00:56:32Z</time></trkpt><trkpt lat="-39.2952281702" lon="-72.3977426626"><ele>251.78</ele><time>2024-08-20T00:56:39Z</time></trkpt><trkpt lat="-39.2950564250" lon="-72.3969053943"><ele>254.93</ele><time>2024-08-20T00:56:46Z</time></trkpt><trkpt lat="-39.2949898727" lon="-72.3964406177"><ele>255.81</ele><time>2024-08-20T00:56:50Z</time></trkpt><trkpt lat="-39.2950071394" lon="-72.3952878546"><ele>259.03</ele><time>2024-08-20T00:56:59Z</time></trkpt><trkpt lat="-39.2949979194" lon="-72.3932556622"><ele>261.31</ele><time>2024-08-20T00:57:15Z</time></trkpt><trkpt lat="-39.2946821731" lon="-72.3917720653"><ele>260.58</ele><time>2024-08-20T00:57:26Z</time></trkpt><trkpt lat="-39.2940876447" lon="-72.3904333916"><ele>261.32</ele><time>2024-08-20T00:57:38Z</time></trkpt><trkpt lat="-39.2937969603" lon="-72.3899063375"><ele>262.19</ele><time>2024-08-20T00:57:43Z</time></trkpt><trkpt lat="-39.2934305035" lon="-72.3891631979"><ele>260.53</ele><time>2024-08-20T00:57:51Z</time></trkpt><trkpt lat="-39.2934177630" lon="-72.3890699074"><ele>260.56</ele><time>2024-08-20T00:57:52Z</time></trkpt><trkpt lat="-39.2934192717" lon="-72.3889756948"><ele>260.56</ele><time>2024-08-20T00:57:53Z</time></trkpt><trkpt lat="-39.2934276536" lon="-72.3888787162"><ele>260.50</ele><time>2024-08-20T00:57:54Z</time></trkpt><trkpt lat="-39.2934443336" lon="-72.3887788877"><ele>260.71</ele><time>2024-08-20T00:57:55Z</time></trkpt><trkpt lat="-39.2934638634" lon="-72.3886768799"><ele>260.71</ele><time>2024-08-20T00:57:56Z</time></trkpt><trkpt lat="-39.2938617524" lon="-72.3868541513"><ele>262.20</ele><time>2024-08-20T00:58:12Z</time></trkpt><trkpt lat="-39.2941903230" lon="-72.3852726538"><ele>263.81</ele><time>2024-08-20T00:58:26Z</time></trkpt><trkpt lat="-39.2942994554" lon="-72.3846647982"><ele>266.36</ele><time>2024-08-20T00:58:32Z</time></trkpt><trkpt lat="-39.2945118528" lon="-72.3835740611"><ele>269.41</ele><time>2024-08-20T00:58:43Z</time></trkpt><trkpt lat="-39.2947539221" lon="-72.3821744509"><ele>270.44</ele><time>2024-08-20T00:58:57Z</time></trkpt><trkpt lat="-39.2949974164" lon="-72.3808739148"><ele>268.65</ele><time>2024-08-20T00:59:11Z</time></trkpt><trkpt lat="-39.2950763740" lon="-72.3804020975"><ele>272.66</ele><time>2024-08-20T00:59:16Z</time></trkpt><trkpt lat="-39.2950947303" lon="-72.3803041130"><ele>269.88</ele><time>2024-08-20T00:59:17Z</time></trkpt><trkpt lat="-39.2952455208" lon="-72.3797364905"><ele>266.78</ele><time>2024-08-20T00:59:22Z</time></trkpt><trkpt lat="-39.2954849917" lon="-72.3785566539"><ele>263.58</ele><time>2024-08-20T00:59:33Z</time></trkpt><trkpt lat="-39.2957890872" lon="-72.3770562932"><ele>261.31</ele><time>2024-08-20T00:59:49Z</time></trkpt><trkpt lat="-39.2960838787" lon="-72.3756282683"><ele>259.95</ele><time>2024-08-20T01:00:03Z</time></trkpt><trkpt lat="-39.2963725515" lon="-72.3742818832"><ele>258.29</ele><time>2024-08-20T01:00:16Z</time></trkpt><trkpt lat="-39.2965127807" lon="-72.3735690862"><ele>256.26</ele><time>2024-08-20T01:00:26Z</time></trkpt><trkpt lat="-39.2964968551" lon="-72.3735525738"><ele>256.22</ele><time>2024-08-20T01:00:27Z</time></trkpt><trkpt lat="-39.2965117749" lon="-72.3735322058"><ele>256.25</ele><time>2024-08-20T01:00:34Z</time></trkpt><trkpt lat="-39.2965184804" lon="-72.3735709302"><ele>256.09</ele><time>2024-08-20T01:00:41Z</time></trkpt><trkpt lat="-39.2965084221" lon="-72.3736172821"><ele>256.71</ele><time>2024-08-20T01:00:42Z</time></trkpt><trkpt lat="-39.2964986153" lon="-72.3736720998"><ele>256.76</ele><time>2024-08-20T01:00:43Z</time></trkpt><trkpt lat="-39.2963397782" lon="-72.3744346853"><ele>258.51</ele><time>2024-08-20T01:00:51Z</time></trkpt><trkpt lat="-39.2959831282" lon="-72.3760984931"><ele>260.92</ele><time>2024-08-20T01:01:04Z</time></trkpt><trkpt lat="-39.2955019232" lon="-72.3782743514"><ele>261.75</ele><time>2024-08-20T01:01:21Z</time></trkpt><trkpt lat="-39.2952753603" lon="-72.3794130329"><ele>264.25</ele><time>2024-08-20T01:01:35Z</time></trkpt><trkpt lat="-39.2950342968" lon="-72.3804860841"><ele>267.67</ele><time>2024-08-20T01:01:49Z</time></trkpt><trkpt lat="-39.2947290279" lon="-72.3818136100"><ele>270.45</ele><time>2024-08-20T01:02:02Z</time></trkpt><trkpt lat="-39.2943696957" lon="-72.3836879712"><ele>269.38</ele><time>2024-08-20T01:02:16Z</time></trkpt><trkpt lat="-39.2941877246" lon="-72.3847547360"><ele>266.36</ele><time>2024-08-20T01:02:24Z</time></trkpt><trkpt lat="-39.2939605750" lon="-72.3861234169"><ele>263.25</ele><time>2024-08-20T01:02:35Z</time></trkpt><trkpt lat="-39.2935755942" lon="-72.3882450443"><ele>261.23</ele><time>2024-08-20T01:02:52Z</time></trkpt><trkpt lat="-39.2934181821" lon="-72.3892357852"><ele>260.95</ele><time>2024-08-20T01:03:00Z</time></trkpt><trkpt lat="-39.2934450042" lon="-72.3893523775"><ele>261.06</ele><time>2024-08-20T01:03:01Z</time></trkpt><trkpt lat="-39.2934823036" lon="-72.3894684669"><ele>260.84</ele><time>2024-08-20T01:03:02Z</time></trkpt><trkpt lat="-39.2935318407" lon="-72.3895811196"><ele>261.14</ele><time>2024-08-20T01:03:03Z</time></trkpt><trkpt lat="-39.2935827188" lon="-72.3896923475"><ele>261.15</ele><time>2024-08-20T01:03:04Z</time></trkpt><trkpt lat="-39.2944473960" lon="-72.3912936263"><ele>261.68</ele><time>2024-08-20T01:03:18Z</time></trkpt><trkpt lat="-39.2949052993" lon="-72.3927659076"><ele>261.16</ele><time>2024-08-20T01:03:30Z</time></trkpt><trkpt lat="-39.2950309440" lon="-72.3943223432"><ele>260.53</ele><time>2024-08-20T01:03:43Z</time></trkpt><trkpt lat="-39.2950200476" lon="-72.3952517286"><ele>258.79</ele><time>2024-08-20T01:03:50Z</time></trkpt><trkpt lat="-39.2950099893" lon="-72.3964457307"><ele>255.70</ele><time>2024-08-20T01:04:01Z</time></trkpt><trkpt lat="-39.2949621286" lon="-72.3966385983"><ele>255.01</ele><time>2024-08-20T01:04:05Z</time></trkpt><trkpt lat="-39.2949271761" lon="-72.3966420349"><ele>254.91</ele><time>2024-08-20T01:04:06Z</time></trkpt><trkpt lat="-39.2948847637" lon="-72.3966304678"><ele>254.85</ele><time>2024-08-20T01:04:07Z</time></trkpt><trkpt lat="-39.2948313709" lon="-72.3966081720"><ele>254.86</ele><time>2024-08-20T01:04:08Z</time></trkpt><trkpt lat="-39.2947656568" lon="-72.3965803441"><ele>254.99</ele><time>2024-08-20T01:04:09Z</time></trkpt><trkpt lat="-39.2939586472" lon="-72.3962069303"><ele>257.66</ele><time>2024-08-20T01:04:20Z</time></trkpt><trkpt lat="-39.2928391602" lon="-72.3956884257"><ele>260.73</ele><time>2024-08-20T01:04:36Z</time></trkpt><trkpt lat="-39.2921589687" lon="-72.3954414111"><ele>262.81</ele><time>2024-08-20T01:04:49Z</time></trkpt><trkpt lat="-39.2920950986" lon="-72.3953945562"><ele>263.28</ele><time>2024-08-20T01:04:53Z</time></trkpt><trkpt lat="-39.2920748144" lon="-72.3954031896"><ele>263.55</ele><time>2024-08-20T01:04:54Z</time></trkpt><trkpt lat="-39.2920559552" lon="-72.3954168521"><ele>263.79</ele><time>2024-08-20T01:04:55Z</time></trkpt><trkpt lat="-39.2920436338" lon="-72.3954308499"><ele>263.96</ele><time>2024-08-20T01:04:56Z</time></trkpt><trkpt lat="-39.2920919973" lon="-72.3954590969"><ele>263.16</ele><time>2024-08-20T01:05:06Z</time></trkpt><trkpt lat="-39.2921396904" lon="-72.3954588454"><ele>262.74</ele><time>2024-08-20T01:05:07Z</time></trkpt><trkpt lat="-39.2922327295" lon="-72.3954815604"><ele>262.07</ele><time>2024-08-20T01:05:09Z</time></trkpt><trkpt lat="-39.2922789976" lon="-72.3955010064"><ele>261.80</ele><time>2024-08-20T01:05:10Z</time></trkpt><trkpt lat="-39.2930367216" lon="-72.3958037607"><ele>259.87</ele><time>2024-08-20T01:05:22Z</time></trkpt><trkpt lat="-39.2940826155" lon="-72.3962495103"><ele>256.83</ele><time>2024-08-20T01:05:34Z</time></trkpt><trkpt lat="-39.2948676646" lon="-72.3965685256"><ele>254.26</ele><time>2024-08-20T01:05:44Z</time></trkpt><trkpt lat="-39.2949786410" lon="-72.3966799211"><ele>253.54</ele><time>2024-08-20T01:05:49Z</time></trkpt><trkpt lat="-39.2949918844" lon="-72.3967250995"><ele>253.46</ele><time>2024-08-20T01:05:50Z</time></trkpt><trkpt lat="-39.2949995957" lon="-72.3967863712"><ele>253.43</ele><time>2024-08-20T01:05:51Z</time></trkpt><trkpt lat="-39.2951480392" lon="-72.3976378888"><ele>250.91</ele><time>2024-08-20T01:06:00Z</time></trkpt><trkpt lat="-39.2954820581" lon="-72.3991230782"><ele>247.79</ele><time>2024-08-20T01:06:13Z</time></trkpt><trkpt lat="-39.2956134025" lon="-72.3998936266"><ele>246.66</ele><time>2024-08-20T01:06:20Z</time></trkpt><trkpt lat="-39.2956046015" lon="-72.3999971431"><ele>246.24</ele><time>2024-08-20T01:06:21Z</time></trkpt><trkpt lat="-39.2955840658" lon="-72.4000988994"><ele>245.78</ele><time>2024-08-20T01:06:22Z</time></trkpt><trkpt lat="-39.2955563217" lon="-72.4002012424"><ele>245.51</ele><time>2024-08-20T01:06:23Z</time></trkpt><trkpt lat="-39.2955327686" lon="-72.4003024958"><ele>245.14</ele><time>2024-08-20T01:06:24Z</time></trkpt><trkpt lat="-39.2953864206" lon="-72.4010800011"><ele>242.91</ele><time>2024-08-20T01:06:31Z</time></trkpt><trkpt lat="-39.2955769412" lon="-72.4022870790"><ele>242.82</ele><time>2024-08-20T01:06:42Z</time></trkpt><trkpt lat="-39.2957640253" lon="-72.4031563662"><ele>245.92</ele><time>2024-08-20T01:06:50Z</time></trkpt><trkpt lat="-39.2959633470" lon="-72.4041832332"><ele>246.46</ele><time>2024-08-20T01:07:01Z</time></trkpt><trkpt lat="-39.2959660292" lon="-72.4042354524"><ele>246.35</ele><time>2024-08-20T01:07:02Z</time></trkpt><trkpt lat="-39.2959613353" lon="-72.4042806309"><ele>246.22</ele><time>2024-08-20T01:07:03Z</time></trkpt><trkpt lat="-39.2959506903" lon="-72.4043180142"><ele>246.16</ele><time>2024-08-20T01:07:04Z</time></trkpt><trkpt lat="-39.2959299032" lon="-72.4043384660"><ele>245.97</ele><time>2024-08-20T01:07:05Z</time></trkpt><trkpt lat="-39.2959015723" lon="-72.4043512903"><ele>245.78</ele><time>2024-08-20T01:07:06Z</time></trkpt><trkpt lat="-39.2958695535" lon="-72.4043627735"><ele>245.58</ele><time>2024-08-20T01:07:07Z</time></trkpt><trkpt lat="-39.2958483472" lon="-72.4043682218"><ele>245.34</ele><time>2024-08-20T01:07:08Z</time></trkpt><trkpt lat="-39.2958263028" lon="-72.4043704011"><ele>245.26</ele><time>2024-08-20T01:07:09Z</time></trkpt><trkpt lat="-39.2957455851" lon="-72.4043718260"><ele>245.23</ele><time>2024-08-20T01:07:22Z</time></trkpt><trkpt lat="-39.2957316712" lon="-72.4043335207"><ele>245.32</ele><time>2024-08-20T01:07:53Z</time></trkpt><trkpt lat="-39.2957492732" lon="-72.4043159187"><ele>244.95</ele><time>2024-08-20T01:08:22Z</time></trkpt><trkpt lat="-39.2957914341" lon="-72.4043212831"><ele>245.10</ele><time>2024-08-20T01:08:54Z</time></trkpt></trkseg></trk></gpx>