<?xml version="1.0" encoding="UTF-8" standalone="no" ?><gpx xmlns="http://www.topografix.com/GPX/1/1" xmlns:gpxx="http://www.garmin.com/xmlschemas/GpxExtensions/v3" xmlns:gpxtrkx="http://www.garmin.com/xmlschemas/TrackStatsExtension/v1" xmlns:wptx1="http://www.garmin.com/xmlschemas/WaypointExtension/v1" xmlns:gpxtpx="http://www.garmin.com/xmlschemas/TrackPointExtension/v1" creator="GPSMAP 64sx" version="1.1" xmlns:xsi="http://www.w3.org/2001/XMLSchema-instance" xsi:schemaLocation="http://www.topografix.com/GPX/1/1 http://www.topografix.com/GPX/1/1/gpx.xsd http://www.garmin.com/xmlschemas/GpxExtensions/v3 http://www8.garmin.com/xmlschemas/GpxExtensionsv3.xsd http://www.garmin.com/xmlschemas/TrackStatsExtension/v1 http://www8.garmin.com/xmlschemas/TrackStatsExtension.xsd http://www.garmin.com/xmlschemas/WaypointExtension/v1 http://www8.garmin.com/xmlschemas/WaypointExtensionv1.xsd http://www.garmin.com/xmlschemas/TrackPointExtension/v1 http://www.garmin.com/xmlschemas/TrackPointExtensionv1.xsd"><metadata><link href="http://www.garmin.com"><text>Garmin International</text></link><time>2024-07-29T01:28:18Z</time></metadata><trk><name>HUI4-07-28 21:27:43</name><extensions><gpxx:TrackExtension><gpxx:DisplayColor>Cyan</gpxx:DisplayColor></gpxx:TrackExtension><gpxtrkx:TrackStatsExtension><gpxtrkx:Distance>9182.000</gpxtrkx:Distance><gpxtrkx:TotalElapsedTime>1542</gpxtrkx:TotalElapsedTime><gpxtrkx:MovingTime>1471</gpxtrkx:MovingTime><gpxtrkx:StoppedTime>70</gpxtrkx:StoppedTime><gpxtrkx:MovingSpeed>6.242</gpxtrkx:MovingSpeed><gpxtrkx:MaxSpeed>11.461</gpxtrkx:MaxSpeed><gpxtrkx:MaxElevation>272.982</gpxtrkx:MaxElevation><gpxtrkx:MinElevation>220.069</gpxtrkx:MinElevation><gpxtrkx:Ascent>119.000</gpxtrkx:Ascent><gpxtrkx:Descent>87.262</gpxtrkx:Descent><gpxtrkx:AvgAscentRate>0.114</gpxtrkx:AvgAscentRate><gpxtrkx:MaxAscentRate>0.633</gpxtrkx:MaxAscentRate><gpxtrkx:AvgDescentRate>0.081</gpxtrkx:AvgDescentRate><gpxtrkx:MaxDescentRate>-0.778</gpxtrkx:MaxDescentRate></gpxtrkx:TrackStatsExtension></extensions><trkseg><trkpt lat="-39.2847232986" lon="-72.4132624269"><ele>260.74</ele><time>2024-07-29T01:02:36Z</time></trkpt><trkpt lat="-39.2847226281" lon="-72.4132625945"><ele>260.74</ele><time>2024-07-29T01:02:37Z</time></trkpt><trkpt lat="-39.2847238854" lon="-72.4132594932"><ele>222.36</ele><time>2024-07-29T01:02:40Z</time></trkpt><trkpt lat="-39.2847248074" lon="-72.4132580683"><ele>222.36</ele><time>2024-07-29T01:02:41Z</time></trkpt><trkpt lat="-39.2847460974" lon="-72.4132654443"><ele>222.51</ele><time>2024-07-29T01:02:54Z</time></trkpt><trkpt lat="-39.2848335207" lon="-72.4132957030"><ele>222.80</ele><time>2024-07-29T01:02:58Z</time></trkpt><trkpt lat="-39.2848688923" lon="-72.4133033305"><ele>222.83</ele><time>2024-07-29T01:02:59Z</time></trkpt><trkpt lat="-39.2854591459" lon="-72.4134699628"><ele>224.48</ele><time>2024-07-29T01:03:10Z</time></trkpt><trkpt lat="-39.2866619490" lon="-72.4138558656"><ele>225.57</ele><time>2024-07-29T01:03:26Z</time></trkpt><trkpt lat="-39.2880536802" lon="-72.4143069796"><ele>224.52</ele><time>2024-07-29T01:03:42Z</time></trkpt><trkpt lat="-39.2891904339" lon="-72.4143234920"><ele>222.48</ele><time>2024-07-29T01:03:53Z</time></trkpt><trkpt lat="-39.2901707813" lon="-72.4138605595"><ele>220.07</ele><time>2024-07-29T01:04:04Z</time></trkpt><trkpt lat="-39.2910015117" lon="-72.4129300006"><ele>221.06</ele><time>2024-07-29T01:04:16Z</time></trkpt><trkpt lat="-39.2913972214" lon="-72.4120509066"><ele>224.19</ele><time>2024-07-29T01:04:26Z</time></trkpt><trkpt lat="-39.2917771731" lon="-72.4110040907"><ele>227.63</ele><time>2024-07-29T01:04:37Z</time></trkpt><trkpt lat="-39.2921142932" lon="-72.4100452010"><ele>230.72</ele><time>2024-07-29T01:04:47Z</time></trkpt><trkpt lat="-39.2923422810" lon="-72.4093293864"><ele>232.27</ele><time>2024-07-29T01:04:58Z</time></trkpt><trkpt lat="-39.2921322305" lon="-72.4091306515"><ele>231.57</ele><time>2024-07-29T01:05:06Z</time></trkpt><trkpt lat="-39.2913196050" lon="-72.4086941220"><ele>228.88</ele><time>2024-07-29T01:05:21Z</time></trkpt><trkpt lat="-39.2910834029" lon="-72.4085671362"><ele>228.68</ele><time>2024-07-29T01:05:26Z</time></trkpt><trkpt lat="-39.2909827363" lon="-72.4083018489"><ele>228.69</ele><time>2024-07-29T01:05:32Z</time></trkpt><trkpt lat="-39.2911778670" lon="-72.4077688437"><ele>229.30</ele><time>2024-07-29T01:05:41Z</time></trkpt><trkpt lat="-39.2914447468" lon="-72.4077002797"><ele>229.97</ele><time>2024-07-29T01:05:49Z</time></trkpt><trkpt lat="-39.2922679335" lon="-72.4083500449"><ele>232.80</ele><time>2024-07-29T01:06:04Z</time></trkpt><trkpt lat="-39.2925491463" lon="-72.4085492827"><ele>234.30</ele><time>2024-07-29T01:06:13Z</time></trkpt><trkpt lat="-39.2925573606" lon="-72.4085543957"><ele>234.37</ele><time>2024-07-29T01:06:14Z</time></trkpt><trkpt lat="-39.2925796565" lon="-72.4085870851"><ele>234.13</ele><time>2024-07-29T01:06:16Z</time></trkpt><trkpt lat="-39.2925814167" lon="-72.4086186849"><ele>234.38</ele><time>2024-07-29T01:06:17Z</time></trkpt><trkpt lat="-39.2925726157" lon="-72.4086598400"><ele>234.34</ele><time>2024-07-29T01:06:18Z</time></trkpt><trkpt lat="-39.2925560195" lon="-72.4087108858"><ele>234.14</ele><time>2024-07-29T01:06:19Z</time></trkpt><trkpt lat="-39.2925325502" lon="-72.4087725766"><ele>234.20</ele><time>2024-07-29T01:06:20Z</time></trkpt><trkpt lat="-39.2923780717" lon="-72.4092043284"><ele>233.11</ele><time>2024-07-29T01:06:26Z</time></trkpt><trkpt lat="-39.2923707794" lon="-72.4092571344"><ele>232.90</ele><time>2024-07-29T01:06:27Z</time></trkpt><trkpt lat="-39.2923717853" lon="-72.4092990439"><ele>232.57</ele><time>2024-07-29T01:06:28Z</time></trkpt><trkpt lat="-39.2923785746" lon="-72.4093333259"><ele>232.36</ele><time>2024-07-29T01:06:29Z</time></trkpt><trkpt lat="-39.2923892196" lon="-72.4093584716"><ele>232.42</ele><time>2024-07-29T01:06:30Z</time></trkpt><trkpt lat="-39.2924013734" lon="-72.4093768280"><ele>232.17</ele><time>2024-07-29T01:06:31Z</time></trkpt><trkpt lat="-39.2924183886" lon="-72.4093909934"><ele>229.57</ele><time>2024-07-29T01:06:32Z</time></trkpt><trkpt lat="-39.2924405169" lon="-72.4094056617"><ele>233.87</ele><time>2024-07-29T01:06:33Z</time></trkpt><trkpt lat="-39.2924708594" lon="-72.4094231799"><ele>232.77</ele><time>2024-07-29T01:06:34Z</time></trkpt><trkpt lat="-39.2930733506" lon="-72.4097680114"><ele>233.45</ele><time>2024-07-29T01:06:46Z</time></trkpt><trkpt lat="-39.2934320122" lon="-72.4099728651"><ele>236.61</ele><time>2024-07-29T01:06:52Z</time></trkpt><trkpt lat="-39.2937752511" lon="-72.4101789761"><ele>240.30</ele><time>2024-07-29T01:06:58Z</time></trkpt><trkpt lat="-39.2939231917" lon="-72.4102526531"><ele>242.49</ele><time>2024-07-29T01:07:01Z</time></trkpt><trkpt lat="-39.2939718906" lon="-72.4102543294"><ele>243.28</ele><time>2024-07-29T01:07:02Z</time></trkpt><trkpt lat="-39.2940231878" lon="-72.4102361407"><ele>243.61</ele><time>2024-07-29T01:07:03Z</time></trkpt><trkpt lat="-39.2940734793" lon="-72.4102008529"><ele>244.03</ele><time>2024-07-29T01:07:04Z</time></trkpt><trkpt lat="-39.2941231839" lon="-72.4101554230"><ele>244.35</ele><time>2024-07-29T01:07:05Z</time></trkpt><trkpt lat="-39.2941728886" lon="-72.4101074785"><ele>244.77</ele><time>2024-07-29T01:07:06Z</time></trkpt><trkpt lat="-39.2943783291" lon="-72.4097910617"><ele>246.39</ele><time>2024-07-29T01:07:14Z</time></trkpt><trkpt lat="-39.2943375092" lon="-72.4096863717"><ele>246.11</ele><time>2024-07-29T01:07:16Z</time></trkpt><trkpt lat="-39.2940615769" lon="-72.4091570545"><ele>243.06</ele><time>2024-07-29T01:07:23Z</time></trkpt><trkpt lat="-39.2939056735" lon="-72.4088276457"><ele>239.76</ele><time>2024-07-29T01:07:28Z</time></trkpt><trkpt lat="-39.2936075293" lon="-72.4085029308"><ele>238.73</ele><time>2024-07-29T01:07:38Z</time></trkpt><trkpt lat="-39.2929157708" lon="-72.4080684129"><ele>235.80</ele><time>2024-07-29T01:07:50Z</time></trkpt><trkpt lat="-39.2928823270" lon="-72.4078871123"><ele>235.44</ele><time>2024-07-29T01:07:57Z</time></trkpt><trkpt lat="-39.2928963248" lon="-72.4078379106"><ele>235.56</ele><time>2024-07-29T01:07:58Z</time></trkpt><trkpt lat="-39.2929157708" lon="-72.4077856913"><ele>235.72</ele><time>2024-07-29T01:07:59Z</time></trkpt><trkpt lat="-39.2931752745" lon="-72.4070557952"><ele>238.89</ele><time>2024-07-29T01:08:08Z</time></trkpt><trkpt lat="-39.2934096325" lon="-72.4064222071"><ele>241.97</ele><time>2024-07-29T01:08:16Z</time></trkpt><trkpt lat="-39.2934327666" lon="-72.4063705746"><ele>242.19</ele><time>2024-07-29T01:08:17Z</time></trkpt><trkpt lat="-39.2934518773" lon="-72.4063320179"><ele>242.50</ele><time>2024-07-29T01:08:18Z</time></trkpt><trkpt lat="-39.2934693117" lon="-72.4063091353"><ele>242.53</ele><time>2024-07-29T01:08:19Z</time></trkpt><trkpt lat="-39.2934855726" lon="-72.4062968139"><ele>242.75</ele><time>2024-07-29T01:08:20Z</time></trkpt><trkpt lat="-39.2935009114" lon="-72.4062923715"><ele>242.93</ele><time>2024-07-29T01:08:21Z</time></trkpt><trkpt lat="-39.2935216986" lon="-72.4062921200"><ele>243.33</ele><time>2024-07-29T01:08:22Z</time></trkpt><trkpt lat="-39.2935471795" lon="-72.4062968977"><ele>243.71</ele><time>2024-07-29T01:08:23Z</time></trkpt><trkpt lat="-39.2935765162" lon="-72.4063092191"><ele>244.27</ele><time>2024-07-29T01:08:24Z</time></trkpt><trkpt lat="-39.2936094571" lon="-72.4063265696"><ele>244.77</ele><time>2024-07-29T01:08:25Z</time></trkpt><trkpt lat="-39.2941229325" lon="-72.4066498596"><ele>247.27</ele><time>2024-07-29T01:08:37Z</time></trkpt><trkpt lat="-39.2944099288" lon="-72.4069325812"><ele>246.36</ele><time>2024-07-29T01:08:46Z</time></trkpt><trkpt lat="-39.2944005411" lon="-72.4069783464"><ele>246.36</ele><time>2024-07-29T01:08:47Z</time></trkpt><trkpt lat="-39.2943839449" lon="-72.4070340022"><ele>246.29</ele><time>2024-07-29T01:08:48Z</time></trkpt><trkpt lat="-39.2940819450" lon="-72.4078611284"><ele>243.16</ele><time>2024-07-29T01:08:59Z</time></trkpt><trkpt lat="-39.2939892411" lon="-72.4080933910"><ele>241.97</ele><time>2024-07-29T01:09:02Z</time></trkpt><trkpt lat="-39.2937966250" lon="-72.4085643701"><ele>239.27</ele><time>2024-07-29T01:09:09Z</time></trkpt><trkpt lat="-39.2937968764" lon="-72.4086132366"><ele>239.12</ele><time>2024-07-29T01:09:10Z</time></trkpt><trkpt lat="-39.2938114610" lon="-72.4086503685"><ele>239.15</ele><time>2024-07-29T01:09:11Z</time></trkpt><trkpt lat="-39.2938416358" lon="-72.4086678866"><ele>239.03</ele><time>2024-07-29T01:09:12Z</time></trkpt><trkpt lat="-39.2938817013" lon="-72.4086667132"><ele>239.19</ele><time>2024-07-29T01:09:13Z</time></trkpt><trkpt lat="-39.2939263768" lon="-72.4086465966"><ele>239.50</ele><time>2024-07-29T01:09:14Z</time></trkpt><trkpt lat="-39.2939714715" lon="-72.4086152483"><ele>239.89</ele><time>2024-07-29T01:09:15Z</time></trkpt><trkpt lat="-39.2940181587" lon="-72.4085793737"><ele>240.48</ele><time>2024-07-29T01:09:16Z</time></trkpt><trkpt lat="-39.2942285445" lon="-72.4084069580"><ele>243.56</ele><time>2024-07-29T01:09:20Z</time></trkpt><trkpt lat="-39.2944929935" lon="-72.4081757013"><ele>246.82</ele><time>2024-07-29T01:09:25Z</time></trkpt><trkpt lat="-39.2949688341" lon="-72.4077847693"><ele>249.91</ele><time>2024-07-29T01:09:35Z</time></trkpt><trkpt lat="-39.2953057867" lon="-72.4074643292"><ele>252.69</ele><time>2024-07-29T01:09:44Z</time></trkpt><trkpt lat="-39.2953103967" lon="-72.4074363336"><ele>252.92</ele><time>2024-07-29T01:09:45Z</time></trkpt><trkpt lat="-39.2953046970" lon="-72.4074017163"><ele>253.01</ele><time>2024-07-29T01:09:46Z</time></trkpt><trkpt lat="-39.2952855024" lon="-72.4073628243"><ele>253.20</ele><time>2024-07-29T01:09:47Z</time></trkpt><trkpt lat="-39.2952511366" lon="-72.4073254410"><ele>253.15</ele><time>2024-07-29T01:09:48Z</time></trkpt><trkpt lat="-39.2952031922" lon="-72.4072917458"><ele>252.88</ele><time>2024-07-29T01:09:49Z</time></trkpt><trkpt lat="-39.2951478716" lon="-72.4072575476"><ele>252.54</ele><time>2024-07-29T01:09:50Z</time></trkpt><trkpt lat="-39.2946632300" lon="-72.4069639295"><ele>248.96</ele><time>2024-07-29T01:09:58Z</time></trkpt><trkpt lat="-39.2945282813" lon="-72.4068599939"><ele>246.85</ele><time>2024-07-29T01:10:02Z</time></trkpt><trkpt lat="-39.2945202347" lon="-72.4068322498"><ele>246.60</ele><time>2024-07-29T01:10:03Z</time></trkpt><trkpt lat="-39.2945196480" lon="-72.4067994766"><ele>246.72</ele><time>2024-07-29T01:10:04Z</time></trkpt><trkpt lat="-39.2945311312" lon="-72.4067536276"><ele>246.80</ele><time>2024-07-29T01:10:05Z</time></trkpt><trkpt lat="-39.2945494875" lon="-72.4067004025"><ele>247.00</ele><time>2024-07-29T01:10:06Z</time></trkpt><trkpt lat="-39.2945722025" lon="-72.4066377897"><ele>247.25</ele><time>2024-07-29T01:10:07Z</time></trkpt><trkpt lat="-39.2948425189" lon="-72.4059797265"><ele>250.43</ele><time>2024-07-29T01:10:16Z</time></trkpt><trkpt lat="-39.2950411700" lon="-72.4053965975"><ele>251.59</ele><time>2024-07-29T01:10:24Z</time></trkpt><trkpt lat="-39.2950471211" lon="-72.4053210765"><ele>251.69</ele><time>2024-07-29T01:10:25Z</time></trkpt><trkpt lat="-39.2950445227" lon="-72.4052449688"><ele>251.61</ele><time>2024-07-29T01:10:26Z</time></trkpt><trkpt lat="-39.2950336263" lon="-72.4051635806"><ele>251.69</ele><time>2024-07-29T01:10:27Z</time></trkpt><trkpt lat="-39.2950216401" lon="-72.4050798453"><ele>251.73</ele><time>2024-07-29T01:10:28Z</time></trkpt><trkpt lat="-39.2949736957" lon="-72.4047233630"><ele>252.01</ele><time>2024-07-29T01:10:36Z</time></trkpt><trkpt lat="-39.2950127553" lon="-72.4046636000"><ele>252.19</ele><time>2024-07-29T01:10:39Z</time></trkpt><trkpt lat="-39.2950425949" lon="-72.4046457466"><ele>252.44</ele><time>2024-07-29T01:10:40Z</time></trkpt><trkpt lat="-39.2950784694" lon="-72.4046284799"><ele>252.66</ele><time>2024-07-29T01:10:41Z</time></trkpt><trkpt lat="-39.2956036795" lon="-72.4044667091"><ele>254.50</ele><time>2024-07-29T01:10:49Z</time></trkpt><trkpt lat="-39.2959582340" lon="-72.4044425692"><ele>254.58</ele><time>2024-07-29T01:10:57Z</time></trkpt><trkpt lat="-39.2959778477" lon="-72.4044879153"><ele>254.60</ele><time>2024-07-29T01:10:58Z</time></trkpt><trkpt lat="-39.2959906720" lon="-72.4045494385"><ele>254.67</ele><time>2024-07-29T01:10:59Z</time></trkpt><trkpt lat="-39.2961703800" lon="-72.4055732880"><ele>254.41</ele><time>2024-07-29T01:11:12Z</time></trkpt><trkpt lat="-39.2961721402" lon="-72.4056772236"><ele>254.28</ele><time>2024-07-29T01:11:14Z</time></trkpt><trkpt lat="-39.2961542029" lon="-72.4057158642"><ele>254.32</ele><time>2024-07-29T01:11:15Z</time></trkpt><trkpt lat="-39.2961237766" lon="-72.4057457875"><ele>254.30</ele><time>2024-07-29T01:11:16Z</time></trkpt><trkpt lat="-39.2960824538" lon="-72.4057636410"><ele>254.37</ele><time>2024-07-29T01:11:17Z</time></trkpt><trkpt lat="-39.2960355151" lon="-72.4057778902"><ele>254.42</ele><time>2024-07-29T01:11:18Z</time></trkpt><trkpt lat="-39.2952968180" lon="-72.4059858453"><ele>252.75</ele><time>2024-07-29T01:11:30Z</time></trkpt><trkpt lat="-39.2952133343" lon="-72.4060259108"><ele>252.40</ele><time>2024-07-29T01:11:33Z</time></trkpt><trkpt lat="-39.2951953132" lon="-72.4060534034"><ele>252.24</ele><time>2024-07-29T01:11:34Z</time></trkpt><trkpt lat="-39.2951793037" lon="-72.4060944747"><ele>252.17</ele><time>2024-07-29T01:11:35Z</time></trkpt><trkpt lat="-39.2951741908" lon="-72.4061478674"><ele>252.26</ele><time>2024-07-29T01:11:36Z</time></trkpt><trkpt lat="-39.2951736040" lon="-72.4062079657"><ele>252.58</ele><time>2024-07-29T01:11:37Z</time></trkpt><trkpt lat="-39.2953020986" lon="-72.4070547055"><ele>253.63</ele><time>2024-07-29T01:11:48Z</time></trkpt><trkpt lat="-39.2953727581" lon="-72.4073368404"><ele>253.39</ele><time>2024-07-29T01:11:54Z</time></trkpt><trkpt lat="-39.2954134941" lon="-72.4073572084"><ele>253.31</ele><time>2024-07-29T01:11:55Z</time></trkpt><trkpt lat="-39.2954633664" lon="-72.4073672667"><ele>253.45</ele><time>2024-07-29T01:11:56Z</time></trkpt><trkpt lat="-39.2955175135" lon="-72.4073644169"><ele>253.52</ele><time>2024-07-29T01:11:57Z</time></trkpt><trkpt lat="-39.2955761869" lon="-72.4073551130"><ele>253.82</ele><time>2024-07-29T01:11:58Z</time></trkpt><trkpt lat="-39.2956404760" lon="-72.4073413666"><ele>254.02</ele><time>2024-07-29T01:11:59Z</time></trkpt><trkpt lat="-39.2966940813" lon="-72.4070040789"><ele>253.31</ele><time>2024-07-29T01:12:14Z</time></trkpt><trkpt lat="-39.2968245037" lon="-72.4068325851"><ele>252.66</ele><time>2024-07-29T01:12:22Z</time></trkpt><trkpt lat="-39.2970028706" lon="-72.4065891746"><ele>254.23</ele><time>2024-07-29T01:12:30Z</time></trkpt><trkpt lat="-39.2970343027" lon="-72.4063952174"><ele>254.86</ele><time>2024-07-29T01:12:34Z</time></trkpt><trkpt lat="-39.2969366536" lon="-72.4057771359"><ele>255.05</ele><time>2024-07-29T01:12:46Z</time></trkpt><trkpt lat="-39.2971249949" lon="-72.4056267645"><ele>254.76</ele><time>2024-07-29T01:12:55Z</time></trkpt><trkpt lat="-39.2972026952" lon="-72.4055669177"><ele>254.92</ele><time>2024-07-29T01:12:58Z</time></trkpt><trkpt lat="-39.2971781362" lon="-72.4052981101"><ele>255.36</ele><time>2024-07-29T01:13:04Z</time></trkpt><trkpt lat="-39.2972387373" lon="-72.4047858920"><ele>256.83</ele><time>2024-07-29T01:13:17Z</time></trkpt><trkpt lat="-39.2972524837" lon="-72.4047466647"><ele>257.05</ele><time>2024-07-29T01:13:19Z</time></trkpt><trkpt lat="-39.2971595284" lon="-72.4041911121"><ele>257.98</ele><time>2024-07-29T01:13:30Z</time></trkpt><trkpt lat="-39.2970935628" lon="-72.4037600309"><ele>258.34</ele><time>2024-07-29T01:13:37Z</time></trkpt><trkpt lat="-39.2971052974" lon="-72.4037230667"><ele>258.36</ele><time>2024-07-29T01:13:38Z</time></trkpt><trkpt lat="-39.2971306946" lon="-72.4036936462"><ele>258.45</ele><time>2024-07-29T01:13:39Z</time></trkpt><trkpt lat="-39.2971709277" lon="-72.4036769662"><ele>258.65</ele><time>2024-07-29T01:13:40Z</time></trkpt><trkpt lat="-39.2972190399" lon="-72.4036652315"><ele>258.91</ele><time>2024-07-29T01:13:41Z</time></trkpt><trkpt lat="-39.2972721811" lon="-72.4036535807"><ele>259.00</ele><time>2024-07-29T01:13:42Z</time></trkpt><trkpt lat="-39.2977897637" lon="-72.4035301991"><ele>260.15</ele><time>2024-07-29T01:13:51Z</time></trkpt><trkpt lat="-39.2978377920" lon="-72.4035328813"><ele>260.07</ele><time>2024-07-29T01:13:52Z</time></trkpt><trkpt lat="-39.2978817131" lon="-72.4035488069"><ele>259.89</ele><time>2024-07-29T01:13:53Z</time></trkpt><trkpt lat="-39.2979195155" lon="-72.4035785627"><ele>259.81</ele><time>2024-07-29T01:13:54Z</time></trkpt><trkpt lat="-39.2979508638" lon="-72.4036294408"><ele>259.75</ele><time>2024-07-29T01:13:55Z</time></trkpt><trkpt lat="-39.2979831342" lon="-72.4036862701"><ele>259.72</ele><time>2024-07-29T01:13:56Z</time></trkpt><trkpt lat="-39.2985059973" lon="-72.4045877438"><ele>257.54</ele><time>2024-07-29T01:14:10Z</time></trkpt><trkpt lat="-39.2985500861" lon="-72.4046336766"><ele>257.38</ele><time>2024-07-29T01:14:11Z</time></trkpt><trkpt lat="-39.2986010481" lon="-72.4046672881"><ele>257.27</ele><time>2024-07-29T01:14:12Z</time></trkpt><trkpt lat="-39.2986577097" lon="-72.4046808667"><ele>257.07</ele><time>2024-07-29T01:14:13Z</time></trkpt><trkpt lat="-39.2987175565" lon="-72.4046761729"><ele>256.89</ele><time>2024-07-29T01:14:14Z</time></trkpt><trkpt lat="-39.2987794988" lon="-72.4046615046"><ele>256.82</ele><time>2024-07-29T01:14:15Z</time></trkpt><trkpt lat="-39.2988398485" lon="-72.4046477582"><ele>256.78</ele><time>2024-07-29T01:14:16Z</time></trkpt><trkpt lat="-39.2993627954" lon="-72.4045114685"><ele>255.84</ele><time>2024-07-29T01:14:27Z</time></trkpt><trkpt lat="-39.2999794520" lon="-72.4043447524"><ele>256.22</ele><time>2024-07-29T01:14:36Z</time></trkpt><trkpt lat="-39.3002876546" lon="-72.4042664655"><ele>256.60</ele><time>2024-07-29T01:14:41Z</time></trkpt><trkpt lat="-39.3003343418" lon="-72.4042397272"><ele>256.64</ele><time>2024-07-29T01:14:42Z</time></trkpt><trkpt lat="-39.3003673665" lon="-72.4042023439"><ele>256.86</ele><time>2024-07-29T01:14:43Z</time></trkpt><trkpt lat="-39.3003840465" lon="-72.4041518848"><ele>257.05</ele><time>2024-07-29T01:14:44Z</time></trkpt><trkpt lat="-39.3003909197" lon="-72.4040943012"><ele>257.43</ele><time>2024-07-29T01:14:45Z</time></trkpt><trkpt lat="-39.3003923446" lon="-72.4040317722"><ele>257.62</ele><time>2024-07-29T01:14:46Z</time></trkpt><trkpt lat="-39.3003891595" lon="-72.4039646331"><ele>257.90</ele><time>2024-07-29T01:14:47Z</time></trkpt><trkpt lat="-39.3003808614" lon="-72.4038948119"><ele>258.13</ele><time>2024-07-29T01:14:48Z</time></trkpt><trkpt lat="-39.3003715575" lon="-72.4038238171"><ele>258.71</ele><time>2024-07-29T01:14:49Z</time></trkpt><trkpt lat="-39.3003055919" lon="-72.4033730384"><ele>261.95</ele><time>2024-07-29T01:14:55Z</time></trkpt><trkpt lat="-39.3002513610" lon="-72.4030284584"><ele>265.04</ele><time>2024-07-29T01:15:00Z</time></trkpt><trkpt lat="-39.3001930229" lon="-72.4028598145"><ele>266.28</ele><time>2024-07-29T01:15:04Z</time></trkpt><trkpt lat="-39.3001695536" lon="-72.4028446432"><ele>266.34</ele><time>2024-07-29T01:15:05Z</time></trkpt><trkpt lat="-39.3001391273" lon="-72.4028365966"><ele>266.29</ele><time>2024-07-29T01:15:06Z</time></trkpt><trkpt lat="-39.3000989780" lon="-72.4028359260"><ele>265.89</ele><time>2024-07-29T01:15:07Z</time></trkpt><trkpt lat="-39.3000492733" lon="-72.4028400332"><ele>265.51</ele><time>2024-07-29T01:15:08Z</time></trkpt><trkpt lat="-39.2999954615" lon="-72.4028507620"><ele>265.00</ele><time>2024-07-29T01:15:09Z</time></trkpt><trkpt lat="-39.2999408115" lon="-72.4028654303"><ele>264.35</ele><time>2024-07-29T01:15:10Z</time></trkpt><trkpt lat="-39.2998823058" lon="-72.4028806854"><ele>263.67</ele><time>2024-07-29T01:15:11Z</time></trkpt><trkpt lat="-39.2995507177" lon="-72.4029674381"><ele>260.59</ele><time>2024-07-29T01:15:16Z</time></trkpt><trkpt lat="-39.2990970891" lon="-72.4030862935"><ele>258.71</ele><time>2024-07-29T01:15:25Z</time></trkpt><trkpt lat="-39.2984310631" lon="-72.4033160415"><ele>259.67</ele><time>2024-07-29T01:15:35Z</time></trkpt><trkpt lat="-39.2980648577" lon="-72.4033429474"><ele>259.81</ele><time>2024-07-29T01:15:43Z</time></trkpt><trkpt lat="-39.2980438191" lon="-72.4032989424"><ele>259.84</ele><time>2024-07-29T01:15:44Z</time></trkpt><trkpt lat="-39.2980317492" lon="-72.4032385927"><ele>259.97</ele><time>2024-07-29T01:15:45Z</time></trkpt><trkpt lat="-39.2978952080" lon="-72.4022936169"><ele>261.85</ele><time>2024-07-29T01:15:57Z</time></trkpt><trkpt lat="-39.2978825513" lon="-72.4020901881"><ele>262.36</ele><time>2024-07-29T01:16:01Z</time></trkpt><trkpt lat="-39.2978978902" lon="-72.4020574149"><ele>262.41</ele><time>2024-07-29T01:16:02Z</time></trkpt><trkpt lat="-39.2979272269" lon="-72.4020345323"><ele>262.72</ele><time>2024-07-29T01:16:03Z</time></trkpt><trkpt lat="-39.2980062682" lon="-72.4019961432"><ele>262.76</ele><time>2024-07-29T01:16:05Z</time></trkpt><trkpt lat="-39.2987064086" lon="-72.4018212128"><ele>264.11</ele><time>2024-07-29T01:16:17Z</time></trkpt><trkpt lat="-39.2992493045" lon="-72.4016348831"><ele>267.06</ele><time>2024-07-29T01:16:27Z</time></trkpt><trkpt lat="-39.2998235486" lon="-72.4015166145"><ele>269.11</ele><time>2024-07-29T01:16:36Z</time></trkpt><trkpt lat="-39.2998608481" lon="-72.4015045445"><ele>269.28</ele><time>2024-07-29T01:16:37Z</time></trkpt><trkpt lat="-39.2998867482" lon="-72.4014882836"><ele>269.28</ele><time>2024-07-29T01:16:38Z</time></trkpt><trkpt lat="-39.2999074515" lon="-72.4014662392"><ele>269.30</ele><time>2024-07-29T01:16:39Z</time></trkpt><trkpt lat="-39.2999289930" lon="-72.4014308676"><ele>269.36</ele><time>2024-07-29T01:16:40Z</time></trkpt><trkpt lat="-39.2999429908" lon="-72.4013797380"><ele>269.01</ele><time>2024-07-29T01:16:41Z</time></trkpt><trkpt lat="-39.2999465950" lon="-72.4013177957"><ele>268.94</ele><time>2024-07-29T01:16:42Z</time></trkpt><trkpt lat="-39.2999443319" lon="-72.4012433644"><ele>268.82</ele><time>2024-07-29T01:16:43Z</time></trkpt><trkpt lat="-39.2999357823" lon="-72.4011580367"><ele>268.80</ele><time>2024-07-29T01:16:44Z</time></trkpt><trkpt lat="-39.2997909430" lon="-72.4002020806"><ele>266.73</ele><time>2024-07-29T01:16:55Z</time></trkpt><trkpt lat="-39.2997627798" lon="-72.4001526274"><ele>266.60</ele><time>2024-07-29T01:16:56Z</time></trkpt><trkpt lat="-39.2997257318" lon="-72.4001225363"><ele>266.50</ele><time>2024-07-29T01:16:57Z</time></trkpt><trkpt lat="-39.2996843252" lon="-72.4001107179"><ele>266.41</ele><time>2024-07-29T01:16:58Z</time></trkpt><trkpt lat="-39.2996398173" lon="-72.4001115561"><ele>266.28</ele><time>2024-07-29T01:16:59Z</time></trkpt><trkpt lat="-39.2995941360" lon="-72.4001191836"><ele>266.22</ele><time>2024-07-29T01:17:00Z</time></trkpt><trkpt lat="-39.2995431740" lon="-72.4001299962"><ele>266.13</ele><time>2024-07-29T01:17:01Z</time></trkpt><trkpt lat="-39.2987743858" lon="-72.4003413040"><ele>263.95</ele><time>2024-07-29T01:17:13Z</time></trkpt><trkpt lat="-39.2984508444" lon="-72.4004283920"><ele>263.36</ele><time>2024-07-29T01:17:21Z</time></trkpt><trkpt lat="-39.2976647895" lon="-72.4006217625"><ele>262.35</ele><time>2024-07-29T01:17:34Z</time></trkpt><trkpt lat="-39.2972659785" lon="-72.4006567989"><ele>258.78</ele><time>2024-07-29T01:17:40Z</time></trkpt><trkpt lat="-39.2969520763" lon="-72.4006689526"><ele>256.04</ele><time>2024-07-29T01:17:44Z</time></trkpt><trkpt lat="-39.2964849528" lon="-72.4006840400"><ele>254.61</ele><time>2024-07-29T01:17:53Z</time></trkpt><trkpt lat="-39.2964629922" lon="-72.4006673601"><ele>254.50</ele><time>2024-07-29T01:17:54Z</time></trkpt><trkpt lat="-39.2964413669" lon="-72.4006366823"><ele>254.38</ele><time>2024-07-29T01:17:55Z</time></trkpt><trkpt lat="-39.2964209151" lon="-72.4005894922"><ele>254.54</ele><time>2024-07-29T01:17:56Z</time></trkpt><trkpt lat="-39.2964034807" lon="-72.4005284719"><ele>254.65</ele><time>2024-07-29T01:17:57Z</time></trkpt><trkpt lat="-39.2963843700" lon="-72.4004610814"><ele>254.63</ele><time>2024-07-29T01:17:58Z</time></trkpt><trkpt lat="-39.2962702084" lon="-72.4001942854"><ele>254.47</ele><time>2024-07-29T01:18:02Z</time></trkpt><trkpt lat="-39.2962275445" lon="-72.4001308344"><ele>254.44</ele><time>2024-07-29T01:18:03Z</time></trkpt><trkpt lat="-39.2961326614" lon="-72.4000154156"><ele>254.42</ele><time>2024-07-29T01:18:05Z</time></trkpt><trkpt lat="-39.2960801069" lon="-72.3999685608"><ele>254.63</ele><time>2024-07-29T01:18:06Z</time></trkpt><trkpt lat="-39.2960234452" lon="-72.3999280762"><ele>254.75</ele><time>2024-07-29T01:18:07Z</time></trkpt><trkpt lat="-39.2959635984" lon="-72.3998966441"><ele>254.76</ele><time>2024-07-29T01:18:08Z</time></trkpt><trkpt lat="-39.2959045898" lon="-72.3998707440"><ele>255.09</ele><time>2024-07-29T01:18:09Z</time></trkpt><trkpt lat="-39.2958502751" lon="-72.3998526391"><ele>255.29</ele><time>2024-07-29T01:18:10Z</time></trkpt><trkpt lat="-39.2956567369" lon="-72.3998127412"><ele>255.48</ele><time>2024-07-29T01:18:17Z</time></trkpt><trkpt lat="-39.2956459243" lon="-72.3997922894"><ele>255.42</ele><time>2024-07-29T01:18:18Z</time></trkpt><trkpt lat="-39.2956346087" lon="-72.3997639585"><ele>255.37</ele><time>2024-07-29T01:18:19Z</time></trkpt><trkpt lat="-39.2956245504" lon="-72.3997236416"><ele>255.33</ele><time>2024-07-29T01:18:20Z</time></trkpt><trkpt lat="-39.2956165876" lon="-72.3996700812"><ele>255.61</ele><time>2024-07-29T01:18:21Z</time></trkpt><trkpt lat="-39.2956059426" lon="-72.3996054567"><ele>255.73</ele><time>2024-07-29T01:18:22Z</time></trkpt><trkpt lat="-39.2954279948" lon="-72.3986966070"><ele>257.49</ele><time>2024-07-29T01:18:32Z</time></trkpt><trkpt lat="-39.2951040342" lon="-72.3972815741"><ele>260.81</ele><time>2024-07-29T01:18:48Z</time></trkpt><trkpt lat="-39.2949893698" lon="-72.3964763246"><ele>264.08</ele><time>2024-07-29T01:18:57Z</time></trkpt><trkpt lat="-39.2950044572" lon="-72.3951917142"><ele>267.16</ele><time>2024-07-29T01:19:10Z</time></trkpt><trkpt lat="-39.2950197123" lon="-72.3937767651"><ele>269.47</ele><time>2024-07-29T01:19:25Z</time></trkpt><trkpt lat="-39.2948411778" lon="-72.3923586309"><ele>269.56</ele><time>2024-07-29T01:19:40Z</time></trkpt><trkpt lat="-39.2944339849" lon="-72.3911614437"><ele>269.76</ele><time>2024-07-29T01:19:53Z</time></trkpt><trkpt lat="-39.2938110419" lon="-72.3899547849"><ele>270.14</ele><time>2024-07-29T01:20:08Z</time></trkpt><trkpt lat="-39.2934801243" lon="-72.3892869148"><ele>270.40</ele><time>2024-07-29T01:20:18Z</time></trkpt><trkpt lat="-39.2934598401" lon="-72.3892174289"><ele>270.32</ele><time>2024-07-29T01:20:19Z</time></trkpt><trkpt lat="-39.2934453394" lon="-72.3891418241"><ele>270.43</ele><time>2024-07-29T01:20:20Z</time></trkpt><trkpt lat="-39.2934395559" lon="-72.3890632857"><ele>270.52</ele><time>2024-07-29T01:20:21Z</time></trkpt><trkpt lat="-39.2934412323" lon="-72.3889852501"><ele>270.54</ele><time>2024-07-29T01:20:22Z</time></trkpt><trkpt lat="-39.2934542242" lon="-72.3889050353"><ele>270.59</ele><time>2024-07-29T01:20:23Z</time></trkpt><trkpt lat="-39.2934703175" lon="-72.3888246529"><ele>270.68</ele><time>2024-07-29T01:20:24Z</time></trkpt><trkpt lat="-39.2937086988" lon="-72.3876961134"><ele>271.45</ele><time>2024-07-29T01:20:38Z</time></trkpt><trkpt lat="-39.2938839644" lon="-72.3866363894"><ele>271.31</ele><time>2024-07-29T01:20:53Z</time></trkpt><trkpt lat="-39.2938690446" lon="-72.3866169434"><ele>271.21</ele><time>2024-07-29T01:20:54Z</time></trkpt><trkpt lat="-39.2938534543" lon="-72.3866019398"><ele>270.87</ele><time>2024-07-29T01:21:05Z</time></trkpt><trkpt lat="-39.2938708887" lon="-72.3866561707"><ele>270.85</ele><time>2024-07-29T01:21:14Z</time></trkpt><trkpt lat="-39.2938606627" lon="-72.3867048696"><ele>270.94</ele><time>2024-07-29T01:21:15Z</time></trkpt><trkpt lat="-39.2937066872" lon="-72.3874888290"><ele>270.57</ele><time>2024-07-29T01:21:24Z</time></trkpt><trkpt lat="-39.2934330180" lon="-72.3887911253"><ele>270.02</ele><time>2024-07-29T01:21:39Z</time></trkpt><trkpt lat="-39.2933885101" lon="-72.3891440872"><ele>269.62</ele><time>2024-07-29T01:21:44Z</time></trkpt><trkpt lat="-39.2933932040" lon="-72.3892180156"><ele>269.63</ele><time>2024-07-29T01:21:45Z</time></trkpt><trkpt lat="-39.2934054416" lon="-72.3892915249"><ele>269.60</ele><time>2024-07-29T01:21:46Z</time></trkpt><trkpt lat="-39.2934258934" lon="-72.3893604241"><ele>269.62</ele><time>2024-07-29T01:21:47Z</time></trkpt><trkpt lat="-39.2934506200" lon="-72.3894253839"><ele>269.49</ele><time>2024-07-29T01:21:48Z</time></trkpt><trkpt lat="-39.2934792023" lon="-72.3894908465"><ele>269.39</ele><time>2024-07-29T01:21:49Z</time></trkpt><trkpt lat="-39.2935095448" lon="-72.3895571474"><ele>269.44</ele><time>2024-07-29T01:21:50Z</time></trkpt><trkpt lat="-39.2940802686" lon="-72.3906494770"><ele>269.34</ele><time>2024-07-29T01:22:06Z</time></trkpt><trkpt lat="-39.2946144473" lon="-72.3918867297"><ele>269.20</ele><time>2024-07-29T01:22:22Z</time></trkpt><trkpt lat="-39.2949607037" lon="-72.3936025891"><ele>269.41</ele><time>2024-07-29T01:22:40Z</time></trkpt><trkpt lat="-39.2949832510" lon="-72.3949405085"><ele>267.47</ele><time>2024-07-29T01:22:55Z</time></trkpt><trkpt lat="-39.2949472088" lon="-72.3962335847"><ele>264.78</ele><time>2024-07-29T01:23:10Z</time></trkpt><trkpt lat="-39.2949078977" lon="-72.3965782486"><ele>263.71</ele><time>2024-07-29T01:23:17Z</time></trkpt><trkpt lat="-39.2948853504" lon="-72.3965871334"><ele>263.74</ele><time>2024-07-29T01:23:18Z</time></trkpt><trkpt lat="-39.2948525771" lon="-72.3965839483"><ele>263.66</ele><time>2024-07-29T01:23:19Z</time></trkpt><trkpt lat="-39.2948148586" lon="-72.3965682741"><ele>263.55</ele><time>2024-07-29T01:23:20Z</time></trkpt><trkpt lat="-39.2947735358" lon="-72.3965489957"><ele>263.58</ele><time>2024-07-29T01:23:21Z</time></trkpt><trkpt lat="-39.2941608187" lon="-72.3962766677"><ele>264.84</ele><time>2024-07-29T01:23:33Z</time></trkpt><trkpt lat="-39.2932240572" lon="-72.3958679661"><ele>267.96</ele><time>2024-07-29T01:23:50Z</time></trkpt><trkpt lat="-39.2924937420" lon="-72.3955528066"><ele>270.39</ele><time>2024-07-29T01:24:05Z</time></trkpt><trkpt lat="-39.2921983637" lon="-72.3954113200"><ele>271.92</ele><time>2024-07-29T01:24:15Z</time></trkpt><trkpt lat="-39.2921602260" lon="-72.3954134155"><ele>272.49</ele><time>2024-07-29T01:24:18Z</time></trkpt><trkpt lat="-39.2921460606" lon="-72.3954270780"><ele>272.64</ele><time>2024-07-29T01:24:19Z</time></trkpt><trkpt lat="-39.2921332363" lon="-72.3954447638"><ele>272.66</ele><time>2024-07-29T01:24:20Z</time></trkpt><trkpt lat="-39.2921215855" lon="-72.3954565823"><ele>272.93</ele><time>2024-07-29T01:24:21Z</time></trkpt><trkpt lat="-39.2921157181" lon="-72.3954114038"><ele>272.59</ele><time>2024-07-29T01:24:31Z</time></trkpt><trkpt lat="-39.2921588849" lon="-72.3954254854"><ele>272.46</ele><time>2024-07-29T01:24:32Z</time></trkpt><trkpt lat="-39.2921836954" lon="-72.3954356275"><ele>272.28</ele><time>2024-07-29T01:24:33Z</time></trkpt><trkpt lat="-39.2922659218" lon="-72.3954649642"><ele>271.53</ele><time>2024-07-29T01:24:35Z</time></trkpt><trkpt lat="-39.2928948160" lon="-72.3957460094"><ele>269.30</ele><time>2024-07-29T01:24:47Z</time></trkpt><trkpt lat="-39.2938962858" lon="-72.3961728998"><ele>266.24</ele><time>2024-07-29T01:25:02Z</time></trkpt><trkpt lat="-39.2948269285" lon="-72.3965654243"><ele>263.70</ele><time>2024-07-29T01:25:18Z</time></trkpt><trkpt lat="-39.2949803174" lon="-72.3967255186"><ele>263.26</ele><time>2024-07-29T01:25:25Z</time></trkpt><trkpt lat="-39.2949907947" lon="-72.3967837729"><ele>263.23</ele><time>2024-07-29T01:25:26Z</time></trkpt><trkpt lat="-39.2951596063" lon="-72.3976396490"><ele>260.05</ele><time>2024-07-29T01:25:36Z</time></trkpt><trkpt lat="-39.2955237161" lon="-72.3992899619"><ele>257.00</ele><time>2024-07-29T01:25:52Z</time></trkpt><trkpt lat="-39.2956093792" lon="-72.3998378869"><ele>255.79</ele><time>2024-07-29T01:25:59Z</time></trkpt><trkpt lat="-39.2956012487" lon="-72.3999145813"><ele>255.62</ele><time>2024-07-29T01:26:00Z</time></trkpt><trkpt lat="-39.2955851555" lon="-72.3999921139"><ele>255.26</ele><time>2024-07-29T01:26:01Z</time></trkpt><trkpt lat="-39.2955636140" lon="-72.4000696465"><ele>255.15</ele><time>2024-07-29T01:26:02Z</time></trkpt><trkpt lat="-39.2955402285" lon="-72.4001487717"><ele>254.60</ele><time>2024-07-29T01:26:03Z</time></trkpt><trkpt lat="-39.2953596823" lon="-72.4012146983"><ele>252.05</ele><time>2024-07-29T01:26:15Z</time></trkpt><trkpt lat="-39.2953704949" lon="-72.4013079889"><ele>251.79</ele><time>2024-07-29T01:26:16Z</time></trkpt><trkpt lat="-39.2955790367" lon="-72.4024882447"><ele>252.40</ele><time>2024-07-29T01:26:29Z</time></trkpt><trkpt lat="-39.2957137339" lon="-72.4031708669"><ele>255.02</ele><time>2024-07-29T01:26:39Z</time></trkpt><trkpt lat="-39.2958938610" lon="-72.4040925410"><ele>255.89</ele><time>2024-07-29T01:26:51Z</time></trkpt><trkpt lat="-39.2958933581" lon="-72.4042139947"><ele>255.25</ele><time>2024-07-29T01:27:00Z</time></trkpt><trkpt lat="-39.2958772648" lon="-72.4042154197"><ele>255.19</ele><time>2024-07-29T01:27:28Z</time></trkpt><trkpt lat="-39.2958719004" lon="-72.4042181019"><ele>254.93</ele><time>2024-07-29T01:27:59Z</time></trkpt></trkseg></trk></gpx>