<?xml version="1.0" encoding="UTF-8" standalone="no" ?><gpx xmlns="http://www.topografix.com/GPX/1/1" xmlns:gpxx="http://www.garmin.com/xmlschemas/GpxExtensions/v3" xmlns:gpxtrkx="http://www.garmin.com/xmlschemas/TrackStatsExtension/v1" xmlns:wptx1="http://www.garmin.com/xmlschemas/WaypointExtension/v1" xmlns:gpxtpx="http://www.garmin.com/xmlschemas/TrackPointExtension/v1" creator="GPSMAP 64sx" version="1.1" xmlns:xsi="http://www.w3.org/2001/XMLSchema-instance" xsi:schemaLocation="http://www.topografix.com/GPX/1/1 http://www.topografix.com/GPX/1/1/gpx.xsd http://www.garmin.com/xmlschemas/GpxExtensions/v3 http://www8.garmin.com/xmlschemas/GpxExtensionsv3.xsd http://www.garmin.com/xmlschemas/TrackStatsExtension/v1 http://www8.garmin.com/xmlschemas/TrackStatsExtension.xsd http://www.garmin.com/xmlschemas/WaypointExtension/v1 http://www8.garmin.com/xmlschemas/WaypointExtensionv1.xsd http://www.garmin.com/xmlschemas/TrackPointExtension/v1 http://www.garmin.com/xmlschemas/TrackPointExtensionv1.xsd"><metadata><link href="http://www.garmin.com"><text>Garmin International</text></link><time>2024-09-17T00:40:57Z</time></metadata><trk><name>GPS HUIS 240916</name><extensions><gpxx:TrackExtension><gpxx:DisplayColor>Cyan</gpxx:DisplayColor></gpxx:TrackExtension><gpxtrkx:TrackStatsExtension><gpxtrkx:Distance>12900.000</gpxtrkx:Distance><gpxtrkx:TotalElapsedTime>1716</gpxtrkx:TotalElapsedTime><gpxtrkx:MovingTime>1669</gpxtrkx:MovingTime><gpxtrkx:StoppedTime>47</gpxtrkx:StoppedTime><gpxtrkx:MovingSpeed>7.729</gpxtrkx:MovingSpeed><gpxtrkx:MaxSpeed>18.053</gpxtrkx:MaxSpeed><gpxtrkx:MaxElevation>284.604</gpxtrkx:MaxElevation><gpxtrkx:MinElevation>228.172</gpxtrkx:MinElevation><gpxtrkx:Ascent>144.000</gpxtrkx:Ascent><gpxtrkx:Descent>147.477</gpxtrkx:Descent><gpxtrkx:AvgAscentRate>0.123</gpxtrkx:AvgAscentRate><gpxtrkx:MaxAscentRate>0.827</gpxtrkx:MaxAscentRate><gpxtrkx:AvgDescentRate>0.124</gpxtrkx:AvgDescentRate><gpxtrkx:MaxDescentRate>-1.255</gpxtrkx:MaxDescentRate></gpxtrkx:TrackStatsExtension></extensions><trkseg><trkpt lat="-39.2731152847" lon="-72.4093170650"><ele>265.19</ele><time>2024-09-17T00:12:21Z</time></trkpt><trkpt lat="-39.2731100880" lon="-72.4093184061"><ele>258.59</ele><time>2024-09-17T00:12:27Z</time></trkpt><trkpt lat="-39.2731096689" lon="-72.4093195796"><ele>264.18</ele><time>2024-09-17T00:12:28Z</time></trkpt><trkpt lat="-39.2731108423" lon="-72.4093225971"><ele>260.97</ele><time>2024-09-17T00:12:29Z</time></trkpt><trkpt lat="-39.2731126864" lon="-72.4093267042"><ele>259.73</ele><time>2024-09-17T00:12:31Z</time></trkpt><trkpt lat="-39.2731346469" lon="-72.4093391933"><ele>260.22</ele><time>2024-09-17T00:12:41Z</time></trkpt><trkpt lat="-39.2732255906" lon="-72.4093491677"><ele>259.36</ele><time>2024-09-17T00:12:45Z</time></trkpt><trkpt lat="-39.2732605431" lon="-72.4093562085"><ele>260.27</ele><time>2024-09-17T00:12:46Z</time></trkpt><trkpt lat="-39.2738384753" lon="-72.4095391855"><ele>260.45</ele><time>2024-09-17T00:12:55Z</time></trkpt><trkpt lat="-39.2752645724" lon="-72.4100182950"><ele>260.98</ele><time>2024-09-17T00:13:10Z</time></trkpt><trkpt lat="-39.2766342591" lon="-72.4102267530"><ele>262.29</ele><time>2024-09-17T00:13:22Z</time></trkpt><trkpt lat="-39.2780246492" lon="-72.4097303767"><ele>261.01</ele><time>2024-09-17T00:13:34Z</time></trkpt><trkpt lat="-39.2787487619" lon="-72.4098364916"><ele>257.56</ele><time>2024-09-17T00:13:40Z</time></trkpt><trkpt lat="-39.2788647674" lon="-72.4098986015"><ele>256.85</ele><time>2024-09-17T00:13:41Z</time></trkpt><trkpt lat="-39.2789798509" lon="-72.4099736195"><ele>255.88</ele><time>2024-09-17T00:13:42Z</time></trkpt><trkpt lat="-39.2790935095" lon="-72.4100633897"><ele>254.74</ele><time>2024-09-17T00:13:43Z</time></trkpt><trkpt lat="-39.2792012170" lon="-72.4101658165"><ele>253.61</ele><time>2024-09-17T00:13:44Z</time></trkpt><trkpt lat="-39.2793038115" lon="-72.4102789722"><ele>251.68</ele><time>2024-09-17T00:13:45Z</time></trkpt><trkpt lat="-39.2796001118" lon="-72.4106667191"><ele>247.90</ele><time>2024-09-17T00:13:48Z</time></trkpt><trkpt lat="-39.2798839230" lon="-72.4110747501"><ele>244.37</ele><time>2024-09-17T00:13:51Z</time></trkpt><trkpt lat="-39.2801846657" lon="-72.4114501756"><ele>239.81</ele><time>2024-09-17T00:13:54Z</time></trkpt><trkpt lat="-39.2802982405" lon="-72.4115594756"><ele>240.11</ele><time>2024-09-17T00:13:55Z</time></trkpt><trkpt lat="-39.2804226279" lon="-72.4116537720"><ele>238.04</ele><time>2024-09-17T00:13:56Z</time></trkpt><trkpt lat="-39.2805528827" lon="-72.4117367528"><ele>236.05</ele><time>2024-09-17T00:13:57Z</time></trkpt><trkpt lat="-39.2806888372" lon="-72.4118074123"><ele>235.71</ele><time>2024-09-17T00:13:58Z</time></trkpt><trkpt lat="-39.2808294855" lon="-72.4118665885"><ele>234.96</ele><time>2024-09-17T00:13:59Z</time></trkpt><trkpt lat="-39.2809738219" lon="-72.4119193945"><ele>233.73</ele><time>2024-09-17T00:14:00Z</time></trkpt><trkpt lat="-39.2815720383" lon="-72.4121301156"><ele>231.28</ele><time>2024-09-17T00:14:04Z</time></trkpt><trkpt lat="-39.2831140570" lon="-72.4126459379"><ele>228.68</ele><time>2024-09-17T00:14:15Z</time></trkpt><trkpt lat="-39.2839702684" lon="-72.4129299168"><ele>228.66</ele><time>2024-09-17T00:14:26Z</time></trkpt><trkpt lat="-39.2848494463" lon="-72.4132465012"><ele>231.69</ele><time>2024-09-17T00:14:36Z</time></trkpt><trkpt lat="-39.2864120845" lon="-72.4137810152"><ele>234.72</ele><time>2024-09-17T00:14:53Z</time></trkpt><trkpt lat="-39.2880972661" lon="-72.4143550918"><ele>232.79</ele><time>2024-09-17T00:15:11Z</time></trkpt><trkpt lat="-39.2893472593" lon="-72.4143614620"><ele>230.21</ele><time>2024-09-17T00:15:24Z</time></trkpt><trkpt lat="-39.2903939076" lon="-72.4137943424"><ele>228.26</ele><time>2024-09-17T00:15:36Z</time></trkpt><trkpt lat="-39.2912212852" lon="-72.4126659706"><ele>230.28</ele><time>2024-09-17T00:15:49Z</time></trkpt><trkpt lat="-39.2915989738" lon="-72.4116691947"><ele>234.07</ele><time>2024-09-17T00:15:58Z</time></trkpt><trkpt lat="-39.2916390393" lon="-72.4115573801"><ele>234.29</ele><time>2024-09-17T00:15:59Z</time></trkpt><trkpt lat="-39.2919985391" lon="-72.4105929583"><ele>237.29</ele><time>2024-09-17T00:16:08Z</time></trkpt><trkpt lat="-39.2921615671" lon="-72.4101684988"><ele>238.64</ele><time>2024-09-17T00:16:14Z</time></trkpt><trkpt lat="-39.2921833601" lon="-72.4101077300"><ele>238.70</ele><time>2024-09-17T00:16:15Z</time></trkpt><trkpt lat="-39.2923893034" lon="-72.4095195718"><ele>240.05</ele><time>2024-09-17T00:16:27Z</time></trkpt><trkpt lat="-39.2924104258" lon="-72.4094537739"><ele>240.10</ele><time>2024-09-17T00:16:33Z</time></trkpt><trkpt lat="-39.2924141977" lon="-72.4094277900"><ele>240.07</ele><time>2024-09-17T00:16:34Z</time></trkpt><trkpt lat="-39.2924137786" lon="-72.4093933403"><ele>240.28</ele><time>2024-09-17T00:16:35Z</time></trkpt><trkpt lat="-39.2924088333" lon="-72.4093605671"><ele>240.33</ele><time>2024-09-17T00:16:36Z</time></trkpt><trkpt lat="-39.2923994455" lon="-72.4093370140"><ele>240.50</ele><time>2024-09-17T00:16:37Z</time></trkpt><trkpt lat="-39.2923883814" lon="-72.4093195796"><ele>240.47</ele><time>2024-09-17T00:16:38Z</time></trkpt><trkpt lat="-39.2923772335" lon="-72.4093044922"><ele>240.49</ele><time>2024-09-17T00:16:39Z</time></trkpt><trkpt lat="-39.2920673545" lon="-72.4091381952"><ele>239.34</ele><time>2024-09-17T00:16:47Z</time></trkpt><trkpt lat="-39.2910948861" lon="-72.4085900187"><ele>236.64</ele><time>2024-09-17T00:17:03Z</time></trkpt><trkpt lat="-39.2910101451" lon="-72.4083307665"><ele>237.05</ele><time>2024-09-17T00:17:08Z</time></trkpt><trkpt lat="-39.2912026774" lon="-72.4077758845"><ele>237.43</ele><time>2024-09-17T00:17:15Z</time></trkpt><trkpt lat="-39.2914449982" lon="-72.4076851923"><ele>237.67</ele><time>2024-09-17T00:17:21Z</time></trkpt><trkpt lat="-39.2922352441" lon="-72.4082904495"><ele>240.29</ele><time>2024-09-17T00:17:33Z</time></trkpt><trkpt lat="-39.2926075682" lon="-72.4085706566"><ele>242.31</ele><time>2024-09-17T00:17:42Z</time></trkpt><trkpt lat="-39.2926299479" lon="-72.4086585827"><ele>242.07</ele><time>2024-09-17T00:17:46Z</time></trkpt><trkpt lat="-39.2926172074" lon="-72.4086999055"><ele>241.86</ele><time>2024-09-17T00:17:47Z</time></trkpt><trkpt lat="-39.2924331408" lon="-72.4092273787"><ele>240.69</ele><time>2024-09-17T00:17:54Z</time></trkpt><trkpt lat="-39.2924275249" lon="-72.4092871416"><ele>239.68</ele><time>2024-09-17T00:17:55Z</time></trkpt><trkpt lat="-39.2924340628" lon="-72.4093296379"><ele>240.87</ele><time>2024-09-17T00:17:56Z</time></trkpt><trkpt lat="-39.2924468033" lon="-72.4093603157"><ele>240.73</ele><time>2024-09-17T00:17:57Z</time></trkpt><trkpt lat="-39.2924623936" lon="-72.4093847908"><ele>240.33</ele><time>2024-09-17T00:17:58Z</time></trkpt><trkpt lat="-39.2924809176" lon="-72.4094080087"><ele>240.06</ele><time>2024-09-17T00:17:59Z</time></trkpt><trkpt lat="-39.2925068177" lon="-72.4094307236"><ele>239.92</ele><time>2024-09-17T00:18:00Z</time></trkpt><trkpt lat="-39.2925443687" lon="-72.4094580486"><ele>239.98</ele><time>2024-09-17T00:18:01Z</time></trkpt><trkpt lat="-39.2925926484" lon="-72.4094870500"><ele>240.29</ele><time>2024-09-17T00:18:02Z</time></trkpt><trkpt lat="-39.2931960616" lon="-72.4098461308"><ele>242.82</ele><time>2024-09-17T00:18:10Z</time></trkpt><trkpt lat="-39.2936479300" lon="-72.4101113342"><ele>246.36</ele><time>2024-09-17T00:18:16Z</time></trkpt><trkpt lat="-39.2939055897" lon="-72.4102482107"><ele>249.48</ele><time>2024-09-17T00:18:20Z</time></trkpt><trkpt lat="-39.2939562164" lon="-72.4102692492"><ele>250.11</ele><time>2024-09-17T00:18:21Z</time></trkpt><trkpt lat="-39.2940085195" lon="-72.4102777988"><ele>250.71</ele><time>2024-09-17T00:18:22Z</time></trkpt><trkpt lat="-39.2940628342" lon="-72.4102675728"><ele>251.00</ele><time>2024-09-17T00:18:23Z</time></trkpt><trkpt lat="-39.2941204179" lon="-72.4102289323"><ele>251.89</ele><time>2024-09-17T00:18:24Z</time></trkpt><trkpt lat="-39.2941780016" lon="-72.4101805687"><ele>252.23</ele><time>2024-09-17T00:18:25Z</time></trkpt><trkpt lat="-39.2944214959" lon="-72.4099740386"><ele>253.32</ele><time>2024-09-17T00:18:30Z</time></trkpt><trkpt lat="-39.2944419477" lon="-72.4099317938"><ele>253.79</ele><time>2024-09-17T00:18:31Z</time></trkpt><trkpt lat="-39.2944529280" lon="-72.4098841846"><ele>253.75</ele><time>2024-09-17T00:18:32Z</time></trkpt><trkpt lat="-39.2944517545" lon="-72.4098343123"><ele>254.27</ele><time>2024-09-17T00:18:33Z</time></trkpt><trkpt lat="-39.2944345716" lon="-72.4097814225"><ele>254.04</ele><time>2024-09-17T00:18:34Z</time></trkpt><trkpt lat="-39.2944052350" lon="-72.4097239226"><ele>254.21</ele><time>2024-09-17T00:18:35Z</time></trkpt><trkpt lat="-39.2943680193" lon="-72.4096608907"><ele>254.15</ele><time>2024-09-17T00:18:36Z</time></trkpt><trkpt lat="-39.2943251040" lon="-72.4095925782"><ele>253.89</ele><time>2024-09-17T00:18:37Z</time></trkpt><trkpt lat="-39.2940573022" lon="-72.4091141392"><ele>250.08</ele><time>2024-09-17T00:18:43Z</time></trkpt><trkpt lat="-39.2938981298" lon="-72.4087926093"><ele>247.40</ele><time>2024-09-17T00:18:48Z</time></trkpt><trkpt lat="-39.2937599123" lon="-72.4085945450"><ele>246.62</ele><time>2024-09-17T00:18:55Z</time></trkpt><trkpt lat="-39.2937128060" lon="-72.4085593410"><ele>246.84</ele><time>2024-09-17T00:18:56Z</time></trkpt><trkpt lat="-39.2930304352" lon="-72.4081496336"><ele>244.87</ele><time>2024-09-17T00:19:07Z</time></trkpt><trkpt lat="-39.2929848377" lon="-72.4081230629"><ele>244.23</ele><time>2024-09-17T00:19:08Z</time></trkpt><trkpt lat="-39.2929542437" lon="-72.4081050418"><ele>244.49</ele><time>2024-09-17T00:19:09Z</time></trkpt><trkpt lat="-39.2929356359" lon="-72.4080922175"><ele>245.08</ele><time>2024-09-17T00:19:10Z</time></trkpt><trkpt lat="-39.2929244880" lon="-72.4080784712"><ele>244.75</ele><time>2024-09-17T00:19:11Z</time></trkpt><trkpt lat="-39.2929114960" lon="-72.4080530740"><ele>243.71</ele><time>2024-09-17T00:19:13Z</time></trkpt><trkpt lat="-39.2929034494" lon="-72.4080118351"><ele>243.25</ele><time>2024-09-17T00:19:15Z</time></trkpt><trkpt lat="-39.2930477019" lon="-72.4075348210"><ele>244.99</ele><time>2024-09-17T00:19:23Z</time></trkpt><trkpt lat="-39.2932879273" lon="-72.4069039151"><ele>248.12</ele><time>2024-09-17T00:19:29Z</time></trkpt><trkpt lat="-39.2933704052" lon="-72.4066861533"><ele>248.86</ele><time>2024-09-17T00:19:31Z</time></trkpt><trkpt lat="-39.2935379595" lon="-72.4063206185"><ele>251.38</ele><time>2024-09-17T00:19:38Z</time></trkpt><trkpt lat="-39.2935538013" lon="-72.4063160084"><ele>250.91</ele><time>2024-09-17T00:19:39Z</time></trkpt><trkpt lat="-39.2935776897" lon="-72.4063189421"><ele>251.20</ele><time>2024-09-17T00:19:40Z</time></trkpt><trkpt lat="-39.2936085351" lon="-72.4063293356"><ele>251.65</ele><time>2024-09-17T00:19:41Z</time></trkpt><trkpt lat="-39.2936449964" lon="-72.4063476082"><ele>252.09</ele><time>2024-09-17T00:19:42Z</time></trkpt><trkpt lat="-39.2936876602" lon="-72.4063740950"><ele>252.74</ele><time>2024-09-17T00:19:43Z</time></trkpt><trkpt lat="-39.2939885706" lon="-72.4065653700"><ele>255.03</ele><time>2024-09-17T00:19:49Z</time></trkpt><trkpt lat="-39.2940332461" lon="-72.4065968860"><ele>255.05</ele><time>2024-09-17T00:19:50Z</time></trkpt><trkpt lat="-39.2940804362" lon="-72.4066211935"><ele>255.12</ele><time>2024-09-17T00:19:51Z</time></trkpt><trkpt lat="-39.2944791634" lon="-72.4068860617"><ele>254.13</ele><time>2024-09-17T00:20:00Z</time></trkpt><trkpt lat="-39.2944873776" lon="-72.4069317430"><ele>253.85</ele><time>2024-09-17T00:20:01Z</time></trkpt><trkpt lat="-39.2944824323" lon="-72.4069915060"><ele>253.93</ele><time>2024-09-17T00:20:02Z</time></trkpt><trkpt lat="-39.2944651656" lon="-72.4070650991"><ele>253.84</ele><time>2024-09-17T00:20:03Z</time></trkpt><trkpt lat="-39.2944351584" lon="-72.4071522709"><ele>253.67</ele><time>2024-09-17T00:20:04Z</time></trkpt><trkpt lat="-39.2943971884" lon="-72.4072509259"><ele>253.32</ele><time>2024-09-17T00:20:05Z</time></trkpt><trkpt lat="-39.2942664307" lon="-72.4075753056"><ele>252.03</ele><time>2024-09-17T00:20:08Z</time></trkpt><trkpt lat="-39.2939938512" lon="-72.4082637113"><ele>248.74</ele><time>2024-09-17T00:20:15Z</time></trkpt><trkpt lat="-39.2938602436" lon="-72.4086547270"><ele>246.63</ele><time>2024-09-17T00:20:21Z</time></trkpt><trkpt lat="-39.2938786000" lon="-72.4086912721"><ele>246.48</ele><time>2024-09-17T00:20:22Z</time></trkpt><trkpt lat="-39.2939044163" lon="-72.4087128136"><ele>246.42</ele><time>2024-09-17T00:20:23Z</time></trkpt><trkpt lat="-39.2939366866" lon="-72.4087174237"><ele>246.52</ele><time>2024-09-17T00:20:24Z</time></trkpt><trkpt lat="-39.2939709686" lon="-72.4087074492"><ele>246.68</ele><time>2024-09-17T00:20:25Z</time></trkpt><trkpt lat="-39.2940090224" lon="-72.4086854048"><ele>246.86</ele><time>2024-09-17T00:20:26Z</time></trkpt><trkpt lat="-39.2940528598" lon="-72.4086543079"><ele>247.31</ele><time>2024-09-17T00:20:27Z</time></trkpt><trkpt lat="-39.2941034865" lon="-72.4086148292"><ele>247.79</ele><time>2024-09-17T00:20:28Z</time></trkpt><trkpt lat="-39.2943670973" lon="-72.4083928764"><ele>251.24</ele><time>2024-09-17T00:20:32Z</time></trkpt><trkpt lat="-39.2945773993" lon="-72.4082090613"><ele>254.50</ele><time>2024-09-17T00:20:35Z</time></trkpt><trkpt lat="-39.2951325327" lon="-72.4077140260"><ele>257.82</ele><time>2024-09-17T00:20:43Z</time></trkpt><trkpt lat="-39.2953545693" lon="-72.4074594676"><ele>259.45</ele><time>2024-09-17T00:20:49Z</time></trkpt><trkpt lat="-39.2953430861" lon="-72.4074162170"><ele>259.58</ele><time>2024-09-17T00:20:50Z</time></trkpt><trkpt lat="-39.2953137495" lon="-72.4073744752"><ele>259.54</ele><time>2024-09-17T00:20:51Z</time></trkpt><trkpt lat="-39.2952717561" lon="-72.4073391035"><ele>259.29</ele><time>2024-09-17T00:20:52Z</time></trkpt><trkpt lat="-39.2952176090" lon="-72.4073038157"><ele>259.13</ele><time>2024-09-17T00:20:53Z</time></trkpt><trkpt lat="-39.2951507214" lon="-72.4072620738"><ele>258.76</ele><time>2024-09-17T00:20:54Z</time></trkpt><trkpt lat="-39.2946727853" lon="-72.4069670308"><ele>255.09</ele><time>2024-09-17T00:21:01Z</time></trkpt><trkpt lat="-39.2945989408" lon="-72.4069179129"><ele>254.32</ele><time>2024-09-17T00:21:03Z</time></trkpt><trkpt lat="-39.2945776507" lon="-72.4068900850"><ele>254.01</ele><time>2024-09-17T00:21:04Z</time></trkpt><trkpt lat="-39.2945649941" lon="-72.4068497680"><ele>253.87</ele><time>2024-09-17T00:21:05Z</time></trkpt><trkpt lat="-39.2945668381" lon="-72.4067962915"><ele>253.97</ele><time>2024-09-17T00:21:06Z</time></trkpt><trkpt lat="-39.2945825122" lon="-72.4067325052"><ele>254.07</ele><time>2024-09-17T00:21:07Z</time></trkpt><trkpt lat="-39.2946066521" lon="-72.4066570681"><ele>254.29</ele><time>2024-09-17T00:21:08Z</time></trkpt><trkpt lat="-39.2948980909" lon="-72.4058752041"><ele>257.67</ele><time>2024-09-17T00:21:16Z</time></trkpt><trkpt lat="-39.2950550001" lon="-72.4054337293"><ele>258.37</ele><time>2024-09-17T00:21:22Z</time></trkpt><trkpt lat="-39.2950630467" lon="-72.4053737149"><ele>258.45</ele><time>2024-09-17T00:21:23Z</time></trkpt><trkpt lat="-39.2950635497" lon="-72.4053092580"><ele>258.50</ele><time>2024-09-17T00:21:24Z</time></trkpt><trkpt lat="-39.2950579338" lon="-72.4052416161"><ele>258.44</ele><time>2024-09-17T00:21:25Z</time></trkpt><trkpt lat="-39.2950467020" lon="-72.4051732197"><ele>258.42</ele><time>2024-09-17T00:21:26Z</time></trkpt><trkpt lat="-39.2950332072" lon="-72.4051000457"><ele>258.75</ele><time>2024-09-17T00:21:27Z</time></trkpt><trkpt lat="-39.2949962430" lon="-72.4047181662"><ele>258.94</ele><time>2024-09-17T00:21:35Z</time></trkpt><trkpt lat="-39.2950237356" lon="-72.4046633486"><ele>259.19</ele><time>2024-09-17T00:21:38Z</time></trkpt><trkpt lat="-39.2950468697" lon="-72.4046453275"><ele>259.33</ele><time>2024-09-17T00:21:39Z</time></trkpt><trkpt lat="-39.2950787209" lon="-72.4046287313"><ele>259.49</ele><time>2024-09-17T00:21:40Z</time></trkpt><trkpt lat="-39.2951182835" lon="-72.4046132248"><ele>259.55</ele><time>2024-09-17T00:21:41Z</time></trkpt><trkpt lat="-39.2951728497" lon="-72.4045993946"><ele>259.68</ele><time>2024-09-17T00:21:42Z</time></trkpt><trkpt lat="-39.2952363845" lon="-72.4045852292"><ele>259.94</ele><time>2024-09-17T00:21:43Z</time></trkpt><trkpt lat="-39.2959278915" lon="-72.4043988995"><ele>261.52</ele><time>2024-09-17T00:21:54Z</time></trkpt><trkpt lat="-39.2960315756" lon="-72.4044910166"><ele>261.68</ele><time>2024-09-17T00:21:59Z</time></trkpt><trkpt lat="-39.2960517760" lon="-72.4045565631"><ele>261.69</ele><time>2024-09-17T00:22:00Z</time></trkpt><trkpt lat="-39.2960696295" lon="-72.4046451598"><ele>261.86</ele><time>2024-09-17T00:22:01Z</time></trkpt><trkpt lat="-39.2962437216" lon="-72.4055996910"><ele>261.67</ele><time>2024-09-17T00:22:10Z</time></trkpt><trkpt lat="-39.2962443922" lon="-72.4056612141"><ele>261.60</ele><time>2024-09-17T00:22:11Z</time></trkpt><trkpt lat="-39.2962295562" lon="-72.4057073146"><ele>261.53</ele><time>2024-09-17T00:22:12Z</time></trkpt><trkpt lat="-39.2961998843" lon="-72.4057400879"><ele>261.40</ele><time>2024-09-17T00:22:13Z</time></trkpt><trkpt lat="-39.2961548734" lon="-72.4057662394"><ele>261.46</ele><time>2024-09-17T00:22:14Z</time></trkpt><trkpt lat="-39.2960945237" lon="-72.4057907145"><ele>261.55</ele><time>2024-09-17T00:22:15Z</time></trkpt><trkpt lat="-39.2960174941" lon="-72.4058134295"><ele>261.71</ele><time>2024-09-17T00:22:16Z</time></trkpt><trkpt lat="-39.2959314119" lon="-72.4058347195"><ele>261.75</ele><time>2024-09-17T00:22:17Z</time></trkpt><trkpt lat="-39.2952520587" lon="-72.4060358852"><ele>259.36</ele><time>2024-09-17T00:22:27Z</time></trkpt><trkpt lat="-39.2952083889" lon="-72.4061134178"><ele>259.33</ele><time>2024-09-17T00:22:29Z</time></trkpt><trkpt lat="-39.2952065449" lon="-72.4061819818"><ele>259.40</ele><time>2024-09-17T00:22:30Z</time></trkpt><trkpt lat="-39.2952171061" lon="-72.4062652141"><ele>259.54</ele><time>2024-09-17T00:22:31Z</time></trkpt><trkpt lat="-39.2953885999" lon="-72.4071923364"><ele>260.23</ele><time>2024-09-17T00:22:40Z</time></trkpt><trkpt lat="-39.2954344489" lon="-72.4073567055"><ele>260.02</ele><time>2024-09-17T00:22:43Z</time></trkpt><trkpt lat="-39.2954730056" lon="-72.4073975254"><ele>259.86</ele><time>2024-09-17T00:22:44Z</time></trkpt><trkpt lat="-39.2955198605" lon="-72.4074170552"><ele>259.92</ele><time>2024-09-17T00:22:45Z</time></trkpt><trkpt lat="-39.2955747619" lon="-72.4074208271"><ele>259.99</ele><time>2024-09-17T00:22:46Z</time></trkpt><trkpt lat="-39.2956356984" lon="-72.4074114393"><ele>260.28</ele><time>2024-09-17T00:22:47Z</time></trkpt><trkpt lat="-39.2957056034" lon="-72.4073935021"><ele>260.56</ele><time>2024-09-17T00:22:48Z</time></trkpt><trkpt lat="-39.2957827169" lon="-72.4073700327"><ele>261.08</ele><time>2024-09-17T00:22:49Z</time></trkpt><trkpt lat="-39.2967080791" lon="-72.4070715532"><ele>260.02</ele><time>2024-09-17T00:23:01Z</time></trkpt><trkpt lat="-39.2968623061" lon="-72.4069879018"><ele>259.10</ele><time>2024-09-17T00:23:06Z</time></trkpt><trkpt lat="-39.2968732025" lon="-72.4069546256"><ele>259.10</ele><time>2024-09-17T00:23:07Z</time></trkpt><trkpt lat="-39.2968830094" lon="-72.4069159012"><ele>259.13</ele><time>2024-09-17T00:23:08Z</time></trkpt><trkpt lat="-39.2970817443" lon="-72.4065509532"><ele>261.26</ele><time>2024-09-17T00:23:18Z</time></trkpt><trkpt lat="-39.2970993463" lon="-72.4064538907"><ele>261.35</ele><time>2024-09-17T00:23:20Z</time></trkpt><trkpt lat="-39.2969918903" lon="-72.4061153457"><ele>261.54</ele><time>2024-09-17T00:23:26Z</time></trkpt><trkpt lat="-39.2970640585" lon="-72.4056637287"><ele>261.75</ele><time>2024-09-17T00:23:35Z</time></trkpt><trkpt lat="-39.2971009389" lon="-72.4056480546"><ele>261.58</ele><time>2024-09-17T00:23:36Z</time></trkpt><trkpt lat="-39.2972306907" lon="-72.4055969249"><ele>261.17</ele><time>2024-09-17T00:23:40Z</time></trkpt><trkpt lat="-39.2972534057" lon="-72.4054335617"><ele>261.27</ele><time>2024-09-17T00:23:44Z</time></trkpt><trkpt lat="-39.2972179502" lon="-72.4052505847"><ele>261.79</ele><time>2024-09-17T00:23:48Z</time></trkpt><trkpt lat="-39.2972846702" lon="-72.4048198387"><ele>262.94</ele><time>2024-09-17T00:23:59Z</time></trkpt><trkpt lat="-39.2973053735" lon="-72.4046722334"><ele>263.08</ele><time>2024-09-17T00:24:04Z</time></trkpt><trkpt lat="-39.2971560918" lon="-72.4039258249"><ele>264.17</ele><time>2024-09-17T00:24:13Z</time></trkpt><trkpt lat="-39.2971535772" lon="-72.4037264194"><ele>264.28</ele><time>2024-09-17T00:24:19Z</time></trkpt><trkpt lat="-39.2971830815" lon="-72.4037027825"><ele>264.45</ele><time>2024-09-17T00:24:20Z</time></trkpt><trkpt lat="-39.2972289305" lon="-72.4036866892"><ele>264.49</ele><time>2024-09-17T00:24:21Z</time></trkpt><trkpt lat="-39.2978088744" lon="-72.4035439454"><ele>265.77</ele><time>2024-09-17T00:24:29Z</time></trkpt><trkpt lat="-39.2978658713" lon="-72.4035406765"><ele>265.76</ele><time>2024-09-17T00:24:30Z</time></trkpt><trkpt lat="-39.2979185097" lon="-72.4035569374"><ele>265.59</ele><time>2024-09-17T00:24:31Z</time></trkpt><trkpt lat="-39.2979676276" lon="-72.4035924766"><ele>265.43</ele><time>2024-09-17T00:24:32Z</time></trkpt><trkpt lat="-39.2980101239" lon="-72.4036431033"><ele>265.44</ele><time>2024-09-17T00:24:33Z</time></trkpt><trkpt lat="-39.2980521172" lon="-72.4037089851"><ele>265.39</ele><time>2024-09-17T00:24:34Z</time></trkpt><trkpt lat="-39.2980950326" lon="-72.4037838355"><ele>265.16</ele><time>2024-09-17T00:24:35Z</time></trkpt><trkpt lat="-39.2985917442" lon="-72.4046693835"><ele>262.92</ele><time>2024-09-17T00:24:46Z</time></trkpt><trkpt lat="-39.2986339889" lon="-72.4047029950"><ele>262.79</ele><time>2024-09-17T00:24:47Z</time></trkpt><trkpt lat="-39.2986817658" lon="-72.4047159031"><ele>262.59</ele><time>2024-09-17T00:24:48Z</time></trkpt><trkpt lat="-39.2987364996" lon="-72.4047145620"><ele>262.38</ele><time>2024-09-17T00:24:49Z</time></trkpt><trkpt lat="-39.2987968493" lon="-72.4047031626"><ele>262.46</ele><time>2024-09-17T00:24:50Z</time></trkpt><trkpt lat="-39.2988628987" lon="-72.4046850577"><ele>262.44</ele><time>2024-09-17T00:24:51Z</time></trkpt><trkpt lat="-39.2993380688" lon="-72.4045454152"><ele>261.46</ele><time>2024-09-17T00:25:00Z</time></trkpt><trkpt lat="-39.2997126561" lon="-72.4044439103"><ele>262.40</ele><time>2024-09-17T00:25:08Z</time></trkpt><trkpt lat="-39.3004121259" lon="-72.4042578321"><ele>262.31</ele><time>2024-09-17T00:25:18Z</time></trkpt><trkpt lat="-39.3004490063" lon="-72.4042160902"><ele>262.64</ele><time>2024-09-17T00:25:19Z</time></trkpt><trkpt lat="-39.3004746549" lon="-72.4041648768"><ele>262.84</ele><time>2024-09-17T00:25:20Z</time></trkpt><trkpt lat="-39.3004868925" lon="-72.4041064549"><ele>263.12</ele><time>2024-09-17T00:25:21Z</time></trkpt><trkpt lat="-39.3004897423" lon="-72.4040446803"><ele>263.28</ele><time>2024-09-17T00:25:22Z</time></trkpt><trkpt lat="-39.3004818633" lon="-72.4039732665"><ele>263.56</ele><time>2024-09-17T00:25:23Z</time></trkpt><trkpt lat="-39.3004697096" lon="-72.4038895313"><ele>263.75</ele><time>2024-09-17T00:25:24Z</time></trkpt><trkpt lat="-39.3004533648" lon="-72.4037943967"><ele>264.21</ele><time>2024-09-17T00:25:25Z</time></trkpt><trkpt lat="-39.3003622536" lon="-72.4032614753"><ele>267.69</ele><time>2024-09-17T00:25:31Z</time></trkpt><trkpt lat="-39.3002630118" lon="-72.4028694537"><ele>270.72</ele><time>2024-09-17T00:25:38Z</time></trkpt><trkpt lat="-39.3002325855" lon="-72.4028485827"><ele>270.93</ele><time>2024-09-17T00:25:39Z</time></trkpt><trkpt lat="-39.3001919333" lon="-72.4028395303"><ele>270.71</ele><time>2024-09-17T00:25:40Z</time></trkpt><trkpt lat="-39.3001456652" lon="-72.4028417096"><ele>270.20</ele><time>2024-09-17T00:25:41Z</time></trkpt><trkpt lat="-39.3000317551" lon="-72.4028608203"><ele>269.16</ele><time>2024-09-17T00:25:43Z</time></trkpt><trkpt lat="-39.2996271607" lon="-72.4029665999"><ele>266.01</ele><time>2024-09-17T00:25:48Z</time></trkpt><trkpt lat="-39.2993896175" lon="-72.4030374270"><ele>264.70</ele><time>2024-09-17T00:25:51Z</time></trkpt><trkpt lat="-39.2987165507" lon="-72.4032415263"><ele>264.42</ele><time>2024-09-17T00:26:01Z</time></trkpt><trkpt lat="-39.2982015666" lon="-72.4033840187"><ele>264.28</ele><time>2024-09-17T00:26:09Z</time></trkpt><trkpt lat="-39.2981437314" lon="-72.4033843540"><ele>264.57</ele><time>2024-09-17T00:26:12Z</time></trkpt><trkpt lat="-39.2981264647" lon="-72.4033693504"><ele>264.73</ele><time>2024-09-17T00:26:13Z</time></trkpt><trkpt lat="-39.2981144786" lon="-72.4033477250"><ele>264.68</ele><time>2024-09-17T00:26:14Z</time></trkpt><trkpt lat="-39.2981034983" lon="-72.4033163767"><ele>264.85</ele><time>2024-09-17T00:26:15Z</time></trkpt><trkpt lat="-39.2980939429" lon="-72.4032724556"><ele>264.76</ele><time>2024-09-17T00:26:16Z</time></trkpt><trkpt lat="-39.2980839685" lon="-72.4032140337"><ele>264.85</ele><time>2024-09-17T00:26:17Z</time></trkpt><trkpt lat="-39.2979558930" lon="-72.4023859017"><ele>266.57</ele><time>2024-09-17T00:26:25Z</time></trkpt><trkpt lat="-39.2979242932" lon="-72.4021581654"><ele>266.67</ele><time>2024-09-17T00:26:28Z</time></trkpt><trkpt lat="-39.2979294062" lon="-72.4021056108"><ele>266.92</ele><time>2024-09-17T00:26:29Z</time></trkpt><trkpt lat="-39.2979454994" lon="-72.4020590913"><ele>266.86</ele><time>2024-09-17T00:26:30Z</time></trkpt><trkpt lat="-39.2979754228" lon="-72.4020184390"><ele>266.98</ele><time>2024-09-17T00:26:31Z</time></trkpt><trkpt lat="-39.2980208527" lon="-72.4019860849"><ele>267.05</ele><time>2024-09-17T00:26:32Z</time></trkpt><trkpt lat="-39.2980796937" lon="-72.4019631185"><ele>267.02</ele><time>2024-09-17T00:26:33Z</time></trkpt><trkpt lat="-39.2981469166" lon="-72.4019418284"><ele>267.11</ele><time>2024-09-17T00:26:34Z</time></trkpt><trkpt lat="-39.2988226656" lon="-72.4017881881"><ele>268.43</ele><time>2024-09-17T00:26:43Z</time></trkpt><trkpt lat="-39.2993949819" lon="-72.4016202986"><ele>271.65</ele><time>2024-09-17T00:26:51Z</time></trkpt><trkpt lat="-39.2999511212" lon="-72.4014927261"><ele>273.51</ele><time>2024-09-17T00:27:00Z</time></trkpt><trkpt lat="-39.2999890912" lon="-72.4014495593"><ele>273.52</ele><time>2024-09-17T00:27:02Z</time></trkpt><trkpt lat="-39.3000013288" lon="-72.4014006089"><ele>273.58</ele><time>2024-09-17T00:27:03Z</time></trkpt><trkpt lat="-39.3000057712" lon="-72.4013356492"><ele>273.53</ele><time>2024-09-17T00:27:04Z</time></trkpt><trkpt lat="-39.2999977246" lon="-72.4012593739"><ele>273.40</ele><time>2024-09-17T00:27:05Z</time></trkpt><trkpt lat="-39.2999840621" lon="-72.4011724535"><ele>273.35</ele><time>2024-09-17T00:27:06Z</time></trkpt><trkpt lat="-39.2998162564" lon="-72.4001797847"><ele>271.08</ele><time>2024-09-17T00:27:17Z</time></trkpt><trkpt lat="-39.2997896019" lon="-72.4001367856"><ele>270.79</ele><time>2024-09-17T00:27:18Z</time></trkpt><trkpt lat="-39.2997506261" lon="-72.4001113046"><ele>270.72</ele><time>2024-09-17T00:27:19Z</time></trkpt><trkpt lat="-39.2996985745" lon="-72.4001103826"><ele>270.52</ele><time>2024-09-17T00:27:20Z</time></trkpt><trkpt lat="-39.2996383924" lon="-72.4001189321"><ele>270.66</ele><time>2024-09-17T00:27:21Z</time></trkpt><trkpt lat="-39.2995715048" lon="-72.4001349416"><ele>270.51</ele><time>2024-09-17T00:27:22Z</time></trkpt><trkpt lat="-39.2995011806" lon="-72.4001569021"><ele>270.32</ele><time>2024-09-17T00:27:23Z</time></trkpt><trkpt lat="-39.2987842765" lon="-72.4003657792"><ele>267.93</ele><time>2024-09-17T00:27:34Z</time></trkpt><trkpt lat="-39.2982237786" lon="-72.4005083553"><ele>267.71</ele><time>2024-09-17T00:27:43Z</time></trkpt><trkpt lat="-39.2974709161" lon="-72.4006565474"><ele>265.51</ele><time>2024-09-17T00:27:54Z</time></trkpt><trkpt lat="-39.2971599475" lon="-72.4006815255"><ele>262.03</ele><time>2024-09-17T00:27:58Z</time></trkpt><trkpt lat="-39.2965147085" lon="-72.4006948527"><ele>259.57</ele><time>2024-09-17T00:28:09Z</time></trkpt><trkpt lat="-39.2964859586" lon="-72.4006587267"><ele>259.58</ele><time>2024-09-17T00:28:10Z</time></trkpt><trkpt lat="-39.2964607291" lon="-72.4006031547"><ele>259.63</ele><time>2024-09-17T00:28:11Z</time></trkpt><trkpt lat="-39.2964388523" lon="-72.4005318247"><ele>259.49</ele><time>2024-09-17T00:28:12Z</time></trkpt><trkpt lat="-39.2963505071" lon="-72.4002796132"><ele>259.58</ele><time>2024-09-17T00:28:15Z</time></trkpt><trkpt lat="-39.2963085137" lon="-72.4001963809"><ele>259.56</ele><time>2024-09-17T00:28:16Z</time></trkpt><trkpt lat="-39.2962621618" lon="-72.4001203571"><ele>259.60</ele><time>2024-09-17T00:28:17Z</time></trkpt><trkpt lat="-39.2962111998" lon="-72.4000508711"><ele>259.53</ele><time>2024-09-17T00:28:18Z</time></trkpt><trkpt lat="-39.2961555440" lon="-72.3999900185"><ele>259.40</ele><time>2024-09-17T00:28:19Z</time></trkpt><trkpt lat="-39.2960963678" lon="-72.3999369610"><ele>259.46</ele><time>2024-09-17T00:28:20Z</time></trkpt><trkpt lat="-39.2960334197" lon="-72.3998945486"><ele>259.47</ele><time>2024-09-17T00:28:21Z</time></trkpt><trkpt lat="-39.2959688790" lon="-72.3998637032"><ele>259.58</ele><time>2024-09-17T00:28:22Z</time></trkpt><trkpt lat="-39.2959062662" lon="-72.3998429161"><ele>259.88</ele><time>2024-09-17T00:28:23Z</time></trkpt><trkpt lat="-39.2958544660" lon="-72.3998310138"><ele>260.45</ele><time>2024-09-17T00:28:24Z</time></trkpt><trkpt lat="-39.2958190106" lon="-72.3998264037"><ele>260.58</ele><time>2024-09-17T00:28:25Z</time></trkpt><trkpt lat="-39.2957910150" lon="-72.3998269904"><ele>259.46</ele><time>2024-09-17T00:28:26Z</time></trkpt><trkpt lat="-39.2957658693" lon="-72.3998267390"><ele>259.13</ele><time>2024-09-17T00:28:27Z</time></trkpt><trkpt lat="-39.2957445793" lon="-72.3998231348"><ele>259.65</ele><time>2024-09-17T00:28:28Z</time></trkpt><trkpt lat="-39.2957273126" lon="-72.3998172674"><ele>261.93</ele><time>2024-09-17T00:28:29Z</time></trkpt><trkpt lat="-39.2957122251" lon="-72.3998057842"><ele>261.37</ele><time>2024-09-17T00:28:30Z</time></trkpt><trkpt lat="-39.2956975568" lon="-72.3997828178"><ele>260.71</ele><time>2024-09-17T00:28:31Z</time></trkpt><trkpt lat="-39.2956859898" lon="-72.3997531459"><ele>259.92</ele><time>2024-09-17T00:28:32Z</time></trkpt><trkpt lat="-39.2956745066" lon="-72.3997124936"><ele>260.67</ele><time>2024-09-17T00:28:33Z</time></trkpt><trkpt lat="-39.2956668790" lon="-72.3996589333"><ele>258.85</ele><time>2024-09-17T00:28:34Z</time></trkpt><trkpt lat="-39.2956589162" lon="-72.3995948955"><ele>261.28</ele><time>2024-09-17T00:28:35Z</time></trkpt><trkpt lat="-39.2956189346" lon="-72.3993317876"><ele>259.89</ele><time>2024-09-17T00:28:38Z</time></trkpt><trkpt lat="-39.2954072915" lon="-72.3983058427"><ele>263.50</ele><time>2024-09-17T00:28:48Z</time></trkpt><trkpt lat="-39.2951226421" lon="-72.3969376646"><ele>266.56</ele><time>2024-09-17T00:29:01Z</time></trkpt><trkpt lat="-39.2950889468" lon="-72.3967132811"><ele>267.71</ele><time>2024-09-17T00:29:03Z</time></trkpt><trkpt lat="-39.2950470373" lon="-72.3955240566"><ele>270.75</ele><time>2024-09-17T00:29:13Z</time></trkpt><trkpt lat="-39.2950795591" lon="-72.3937705625"><ele>273.99</ele><time>2024-09-17T00:29:28Z</time></trkpt><trkpt lat="-39.2949027847" lon="-72.3924050666"><ele>274.76</ele><time>2024-09-17T00:29:40Z</time></trkpt><trkpt lat="-39.2947482225" lon="-72.3918750789"><ele>274.59</ele><time>2024-09-17T00:29:45Z</time></trkpt><trkpt lat="-39.2947097495" lon="-72.3917678744"><ele>273.65</ele><time>2024-09-17T00:29:46Z</time></trkpt><trkpt lat="-39.2941174842" lon="-72.3904399294"><ele>281.50</ele><time>2024-09-17T00:29:59Z</time></trkpt><trkpt lat="-39.2940666061" lon="-72.3903441243"><ele>273.82</ele><time>2024-09-17T00:30:00Z</time></trkpt><trkpt lat="-39.2935359478" lon="-72.3892869987"><ele>276.04</ele><time>2024-09-17T00:30:11Z</time></trkpt><trkpt lat="-39.2935055215" lon="-72.3891781177"><ele>275.46</ele><time>2024-09-17T00:30:12Z</time></trkpt><trkpt lat="-39.2934883386" lon="-72.3890687339"><ele>274.45</ele><time>2024-09-17T00:30:13Z</time></trkpt><trkpt lat="-39.2934884224" lon="-72.3889489565"><ele>273.76</ele><time>2024-09-17T00:30:14Z</time></trkpt><trkpt lat="-39.2934990674" lon="-72.3888361361"><ele>273.32</ele><time>2024-09-17T00:30:15Z</time></trkpt><trkpt lat="-39.2935172562" lon="-72.3887256626"><ele>273.73</ele><time>2024-09-17T00:30:16Z</time></trkpt><trkpt lat="-39.2938763369" lon="-72.3870394751"><ele>275.16</ele><time>2024-09-17T00:30:31Z</time></trkpt><trkpt lat="-39.2941979505" lon="-72.3853865638"><ele>278.30</ele><time>2024-09-17T00:30:46Z</time></trkpt><trkpt lat="-39.2943700310" lon="-72.3843508959"><ele>281.62</ele><time>2024-09-17T00:30:56Z</time></trkpt><trkpt lat="-39.2946629785" lon="-72.3826834001"><ele>284.42</ele><time>2024-09-17T00:31:11Z</time></trkpt><trkpt lat="-39.2949905433" lon="-72.3811624199"><ele>283.51</ele><time>2024-09-17T00:31:24Z</time></trkpt><trkpt lat="-39.2951850034" lon="-72.3802371416"><ele>281.98</ele><time>2024-09-17T00:31:32Z</time></trkpt><trkpt lat="-39.2953924555" lon="-72.3792914953"><ele>278.82</ele><time>2024-09-17T00:31:40Z</time></trkpt><trkpt lat="-39.2954127397" lon="-72.3791662697"><ele>278.55</ele><time>2024-09-17T00:31:41Z</time></trkpt><trkpt lat="-39.2957404722" lon="-72.3775789049"><ele>275.55</ele><time>2024-09-17T00:31:55Z</time></trkpt><trkpt lat="-39.2960397899" lon="-72.3761318531"><ele>270.82</ele><time>2024-09-17T00:32:08Z</time></trkpt><trkpt lat="-39.2960594036" lon="-72.3760240618"><ele>273.33</ele><time>2024-09-17T00:32:09Z</time></trkpt><trkpt lat="-39.2961043306" lon="-72.3758050427"><ele>268.07</ele><time>2024-09-17T00:32:11Z</time></trkpt><trkpt lat="-39.2961266264" lon="-72.3756933119"><ele>272.15</ele><time>2024-09-17T00:32:12Z</time></trkpt><trkpt lat="-39.2962813564" lon="-72.3749226797"><ele>282.03</ele><time>2024-09-17T00:32:19Z</time></trkpt><trkpt lat="-39.2963049933" lon="-72.3748189118"><ele>274.35</ele><time>2024-09-17T00:32:20Z</time></trkpt><trkpt lat="-39.2963311449" lon="-72.3747143894"><ele>270.78</ele><time>2024-09-17T00:32:21Z</time></trkpt><trkpt lat="-39.2963570450" lon="-72.3746134713"><ele>272.93</ele><time>2024-09-17T00:32:22Z</time></trkpt><trkpt lat="-39.2964101862" lon="-72.3744086176"><ele>280.29</ele><time>2024-09-17T00:32:24Z</time></trkpt><trkpt lat="-39.2964369245" lon="-72.3743079510"><ele>274.96</ele><time>2024-09-17T00:32:25Z</time></trkpt><trkpt lat="-39.2964891437" lon="-72.3741196934"><ele>271.71</ele><time>2024-09-17T00:32:27Z</time></trkpt><trkpt lat="-39.2965945043" lon="-72.3736323696"><ele>270.50</ele><time>2024-09-17T00:32:36Z</time></trkpt><trkpt lat="-39.2965814285" lon="-72.3736004345"><ele>270.40</ele><time>2024-09-17T00:32:38Z</time></trkpt><trkpt lat="-39.2965694424" lon="-72.3735848442"><ele>270.53</ele><time>2024-09-17T00:32:39Z</time></trkpt><trkpt lat="-39.2965789139" lon="-72.3735859338"><ele>270.45</ele><time>2024-09-17T00:32:49Z</time></trkpt><trkpt lat="-39.2965860385" lon="-72.3735803179"><ele>270.41</ele><time>2024-09-17T00:32:52Z</time></trkpt><trkpt lat="-39.2965190671" lon="-72.3737342935"><ele>270.61</ele><time>2024-09-17T00:32:56Z</time></trkpt><trkpt lat="-39.2963119503" lon="-72.3746063467"><ele>272.43</ele><time>2024-09-17T00:33:05Z</time></trkpt><trkpt lat="-39.2959506065" lon="-72.3762213718"><ele>274.29</ele><time>2024-09-17T00:33:20Z</time></trkpt><trkpt lat="-39.2955468502" lon="-72.3781951424"><ele>275.98</ele><time>2024-09-17T00:33:38Z</time></trkpt><trkpt lat="-39.2952678166" lon="-72.3796039727"><ele>279.21</ele><time>2024-09-17T00:33:51Z</time></trkpt><trkpt lat="-39.2950217240" lon="-72.3807871621"><ele>282.22</ele><time>2024-09-17T00:34:02Z</time></trkpt><trkpt lat="-39.2946081609" lon="-72.3829707317"><ele>283.20</ele><time>2024-09-17T00:34:22Z</time></trkpt><trkpt lat="-39.2943673488" lon="-72.3843607027"><ele>280.18</ele><time>2024-09-17T00:34:35Z</time></trkpt><trkpt lat="-39.2941581365" lon="-72.3853924312"><ele>277.12</ele><time>2024-09-17T00:34:45Z</time></trkpt><trkpt lat="-39.2938625067" lon="-72.3870108090"><ele>273.96</ele><time>2024-09-17T00:34:59Z</time></trkpt><trkpt lat="-39.2935143225" lon="-72.3886912130"><ele>273.76</ele><time>2024-09-17T00:35:14Z</time></trkpt><trkpt lat="-39.2934537213" lon="-72.3890219629"><ele>272.38</ele><time>2024-09-17T00:35:17Z</time></trkpt><trkpt lat="-39.2934569903" lon="-72.3891305085"><ele>273.45</ele><time>2024-09-17T00:35:18Z</time></trkpt><trkpt lat="-39.2934721615" lon="-72.3892401438"><ele>272.98</ele><time>2024-09-17T00:35:19Z</time></trkpt><trkpt lat="-39.2935001571" lon="-72.3893463425"><ele>272.92</ele><time>2024-09-17T00:35:20Z</time></trkpt><trkpt lat="-39.2935393006" lon="-72.3894488532"><ele>273.54</ele><time>2024-09-17T00:35:21Z</time></trkpt><trkpt lat="-39.2935800366" lon="-72.3895469215"><ele>273.31</ele><time>2024-09-17T00:35:22Z</time></trkpt><trkpt lat="-39.2936288193" lon="-72.3896419723"><ele>273.56</ele><time>2024-09-17T00:35:23Z</time></trkpt><trkpt lat="-39.2944965139" lon="-72.3913905211"><ele>272.48</ele><time>2024-09-17T00:35:41Z</time></trkpt><trkpt lat="-39.2949898727" lon="-72.3930726852"><ele>273.15</ele><time>2024-09-17T00:35:57Z</time></trkpt><trkpt lat="-39.2950596102" lon="-72.3935022578"><ele>270.94</ele><time>2024-09-17T00:36:01Z</time></trkpt><trkpt lat="-39.2950601969" lon="-72.3945032246"><ele>270.28</ele><time>2024-09-17T00:36:10Z</time></trkpt><trkpt lat="-39.2950160243" lon="-72.3960731551"><ele>266.89</ele><time>2024-09-17T00:36:24Z</time></trkpt><trkpt lat="-39.2950058822" lon="-72.3964905739"><ele>270.09</ele><time>2024-09-17T00:36:30Z</time></trkpt><trkpt lat="-39.2949780542" lon="-72.3965368420"><ele>268.54</ele><time>2024-09-17T00:36:32Z</time></trkpt><trkpt lat="-39.2949576862" lon="-72.3965474032"><ele>267.52</ele><time>2024-09-17T00:36:33Z</time></trkpt><trkpt lat="-39.2949228175" lon="-72.3965512589"><ele>266.67</ele><time>2024-09-17T00:36:34Z</time></trkpt><trkpt lat="-39.2948814109" lon="-72.3965469003"><ele>267.09</ele><time>2024-09-17T00:36:35Z</time></trkpt><trkpt lat="-39.2948322929" lon="-72.3965320643"><ele>267.06</ele><time>2024-09-17T00:36:36Z</time></trkpt><trkpt lat="-39.2947725300" lon="-72.3965090141"><ele>267.14</ele><time>2024-09-17T00:36:37Z</time></trkpt><trkpt lat="-39.2946444545" lon="-72.3964619078"><ele>265.79</ele><time>2024-09-17T00:36:39Z</time></trkpt><trkpt lat="-39.2945092544" lon="-72.3964143824"><ele>266.60</ele><time>2024-09-17T00:36:41Z</time></trkpt><trkpt lat="-39.2938872334" lon="-72.3961734027"><ele>269.93</ele><time>2024-09-17T00:36:49Z</time></trkpt><trkpt lat="-39.2935857363" lon="-72.3960585706"><ele>271.67</ele><time>2024-09-17T00:36:53Z</time></trkpt><trkpt lat="-39.2926792335" lon="-72.3956372961"><ele>273.43</ele><time>2024-09-17T00:37:07Z</time></trkpt><trkpt lat="-39.2925616354" lon="-72.3956017569"><ele>275.14</ele><time>2024-09-17T00:37:12Z</time></trkpt><trkpt lat="-39.2925450392" lon="-72.3956111446"><ele>276.46</ele><time>2024-09-17T00:37:13Z</time></trkpt><trkpt lat="-39.2925307900" lon="-72.3956186045"><ele>274.76</ele><time>2024-09-17T00:37:14Z</time></trkpt><trkpt lat="-39.2925197259" lon="-72.3956276570"><ele>272.45</ele><time>2024-09-17T00:37:15Z</time></trkpt><trkpt lat="-39.2925101705" lon="-72.3956326023"><ele>273.51</ele><time>2024-09-17T00:37:16Z</time></trkpt><trkpt lat="-39.2925111763" lon="-72.3956090491"><ele>273.11</ele><time>2024-09-17T00:37:20Z</time></trkpt><trkpt lat="-39.2925128527" lon="-72.3955940455"><ele>273.74</ele><time>2024-09-17T00:37:21Z</time></trkpt><trkpt lat="-39.2926127650" lon="-72.3956673034"><ele>273.31</ele><time>2024-09-17T00:37:30Z</time></trkpt><trkpt lat="-39.2931148410" lon="-72.3958657868"><ele>272.03</ele><time>2024-09-17T00:37:38Z</time></trkpt><trkpt lat="-39.2940992955" lon="-72.3962674476"><ele>268.89</ele><time>2024-09-17T00:37:51Z</time></trkpt><trkpt lat="-39.2949386593" lon="-72.3966153804"><ele>265.94</ele><time>2024-09-17T00:38:05Z</time></trkpt><trkpt lat="-39.2949982546" lon="-72.3966437951"><ele>267.42</ele><time>2024-09-17T00:38:08Z</time></trkpt><trkpt lat="-39.2950609513" lon="-72.3967763968"><ele>264.99</ele><time>2024-09-17T00:38:12Z</time></trkpt><trkpt lat="-39.2950749490" lon="-72.3968480621"><ele>264.79</ele><time>2024-09-17T00:38:13Z</time></trkpt><trkpt lat="-39.2952992488" lon="-72.3979239631"><ele>261.89</ele><time>2024-09-17T00:38:24Z</time></trkpt><trkpt lat="-39.2956053559" lon="-72.3993783910"><ele>258.79</ele><time>2024-09-17T00:38:39Z</time></trkpt><trkpt lat="-39.2956812959" lon="-72.3998120707"><ele>262.14</ele><time>2024-09-17T00:38:44Z</time></trkpt><trkpt lat="-39.2956754286" lon="-72.3999003321"><ele>259.49</ele><time>2024-09-17T00:38:45Z</time></trkpt><trkpt lat="-39.2956581619" lon="-72.3999936227"><ele>258.65</ele><time>2024-09-17T00:38:46Z</time></trkpt><trkpt lat="-39.2954450101" lon="-72.4007975310"><ele>255.52</ele><time>2024-09-17T00:38:54Z</time></trkpt><trkpt lat="-39.2954261508" lon="-72.4010107666"><ele>254.92</ele><time>2024-09-17T00:38:56Z</time></trkpt><trkpt lat="-39.2956008296" lon="-72.4022161681"><ele>254.68</ele><time>2024-09-17T00:39:07Z</time></trkpt><trkpt lat="-39.2957776040" lon="-72.4031673465"><ele>257.69</ele><time>2024-09-17T00:39:16Z</time></trkpt><trkpt lat="-39.2959747463" lon="-72.4042373803"><ele>258.41</ele><time>2024-09-17T00:39:29Z</time></trkpt><trkpt lat="-39.2959359381" lon="-72.4043539725"><ele>258.18</ele><time>2024-09-17T00:39:33Z</time></trkpt><trkpt lat="-39.2959118821" lon="-72.4043706525"><ele>258.12</ele><time>2024-09-17T00:39:34Z</time></trkpt><trkpt lat="-39.2958867364" lon="-72.4043802079"><ele>258.03</ele><time>2024-09-17T00:39:35Z</time></trkpt><trkpt lat="-39.2958627641" lon="-72.4043841474"><ele>257.99</ele><time>2024-09-17T00:39:36Z</time></trkpt><trkpt lat="-39.2958419770" lon="-72.4043850694"><ele>257.84</ele><time>2024-09-17T00:39:37Z</time></trkpt><trkpt lat="-39.2958247941" lon="-72.4043820519"><ele>257.83</ele><time>2024-09-17T00:39:38Z</time></trkpt><trkpt lat="-39.2958102934" lon="-72.4043780286"><ele>257.76</ele><time>2024-09-17T00:39:39Z</time></trkpt><trkpt lat="-39.2957765982" lon="-72.4044037610"><ele>257.44</ele><time>2024-09-17T00:39:52Z</time></trkpt><trkpt lat="-39.2957838066" lon="-72.4043963011"><ele>257.44</ele><time>2024-09-17T00:40:05Z</time></trkpt><trkpt lat="-39.2957890872" lon="-72.4043836445"><ele>257.56</ele><time>2024-09-17T00:40:30Z</time></trkpt></trkseg></trk></gpx>