<?xml version="1.0" encoding="UTF-8" standalone="no" ?><gpx xmlns="http://www.topografix.com/GPX/1/1" xmlns:gpxx="http://www.garmin.com/xmlschemas/GpxExtensions/v3" xmlns:gpxtrkx="http://www.garmin.com/xmlschemas/TrackStatsExtension/v1" xmlns:wptx1="http://www.garmin.com/xmlschemas/WaypointExtension/v1" xmlns:gpxtpx="http://www.garmin.com/xmlschemas/TrackPointExtension/v1" creator="GPSMAP 64sx" version="1.1" xmlns:xsi="http://www.w3.org/2001/XMLSchema-instance" xsi:schemaLocation="http://www.topografix.com/GPX/1/1 http://www.topografix.com/GPX/1/1/gpx.xsd http://www.garmin.com/xmlschemas/GpxExtensions/v3 http://www8.garmin.com/xmlschemas/GpxExtensionsv3.xsd http://www.garmin.com/xmlschemas/TrackStatsExtension/v1 http://www8.garmin.com/xmlschemas/TrackStatsExtension.xsd http://www.garmin.com/xmlschemas/WaypointExtension/v1 http://www8.garmin.com/xmlschemas/WaypointExtensionv1.xsd http://www.garmin.com/xmlschemas/TrackPointExtension/v1 http://www.garmin.com/xmlschemas/TrackPointExtensionv1.xsd"><metadata><link href="http://www.garmin.com"><text>Garmin International</text></link><time>2024-08-24T01:21:16Z</time></metadata><trk><name>GPS HUIS 240823</name><extensions><gpxx:TrackExtension><gpxx:DisplayColor>Cyan</gpxx:DisplayColor></gpxx:TrackExtension><gpxtrkx:TrackStatsExtension><gpxtrkx:Distance>12871.000</gpxtrkx:Distance><gpxtrkx:TotalElapsedTime>1809</gpxtrkx:TotalElapsedTime><gpxtrkx:MovingTime>1682</gpxtrkx:MovingTime><gpxtrkx:StoppedTime>127</gpxtrkx:StoppedTime><gpxtrkx:MovingSpeed>7.653</gpxtrkx:MovingSpeed><gpxtrkx:MaxSpeed>16.995</gpxtrkx:MaxSpeed><gpxtrkx:MaxElevation>260.783</gpxtrkx:MaxElevation><gpxtrkx:MinElevation>202.224</gpxtrkx:MinElevation><gpxtrkx:Ascent>145.000</gpxtrkx:Ascent><gpxtrkx:Descent>144.785</gpxtrkx:Descent><gpxtrkx:AvgAscentRate>0.103</gpxtrkx:AvgAscentRate><gpxtrkx:MaxAscentRate>0.829</gpxtrkx:MaxAscentRate><gpxtrkx:AvgDescentRate>0.102</gpxtrkx:AvgDescentRate><gpxtrkx:MaxDescentRate>-1.274</gpxtrkx:MaxDescentRate></gpxtrkx:TrackStatsExtension></extensions><trkseg><trkpt lat="-39.2732052226" lon="-72.4094041530"><ele>236.11</ele><time>2024-08-24T00:51:07Z</time></trkpt><trkpt lat="-39.2732027918" lon="-72.4094046559"><ele>236.11</ele><time>2024-08-24T00:51:08Z</time></trkpt><trkpt lat="-39.2732368223" lon="-72.4094044045"><ele>234.50</ele><time>2024-08-24T00:51:21Z</time></trkpt><trkpt lat="-39.2732912209" lon="-72.4094103556"><ele>234.70</ele><time>2024-08-24T00:51:24Z</time></trkpt><trkpt lat="-39.2737444304" lon="-72.4095297139"><ele>235.20</ele><time>2024-08-24T00:51:31Z</time></trkpt><trkpt lat="-39.2748835310" lon="-72.4099035468"><ele>235.40</ele><time>2024-08-24T00:51:41Z</time></trkpt><trkpt lat="-39.2763475981" lon="-72.4102632981"><ele>237.08</ele><time>2024-08-24T00:51:52Z</time></trkpt><trkpt lat="-39.2773906421" lon="-72.4098892137"><ele>237.09</ele><time>2024-08-24T00:52:00Z</time></trkpt><trkpt lat="-39.2782994919" lon="-72.4097195640"><ele>234.66</ele><time>2024-08-24T00:52:07Z</time></trkpt><trkpt lat="-39.2784318421" lon="-72.4097468890"><ele>234.13</ele><time>2024-08-24T00:52:08Z</time></trkpt><trkpt lat="-39.2785645276" lon="-72.4097908102"><ele>233.51</ele><time>2024-08-24T00:52:09Z</time></trkpt><trkpt lat="-39.2789662722" lon="-72.4099844322"><ele>230.29</ele><time>2024-08-24T00:52:12Z</time></trkpt><trkpt lat="-39.2790845409" lon="-72.4100928940"><ele>229.22</ele><time>2024-08-24T00:52:13Z</time></trkpt><trkpt lat="-39.2792033963" lon="-72.4102108274"><ele>227.68</ele><time>2024-08-24T00:52:14Z</time></trkpt><trkpt lat="-39.2794191465" lon="-72.4104805570"><ele>224.27</ele><time>2024-08-24T00:52:16Z</time></trkpt><trkpt lat="-39.2797290254" lon="-72.4109123927"><ele>220.41</ele><time>2024-08-24T00:52:19Z</time></trkpt><trkpt lat="-39.2800304387" lon="-72.4113344215"><ele>216.38</ele><time>2024-08-24T00:52:22Z</time></trkpt><trkpt lat="-39.2803739291" lon="-72.4116647523"><ele>212.47</ele><time>2024-08-24T00:52:25Z</time></trkpt><trkpt lat="-39.2806390487" lon="-72.4118211586"><ele>210.15</ele><time>2024-08-24T00:52:27Z</time></trkpt><trkpt lat="-39.2807863187" lon="-72.4118807539"><ele>209.24</ele><time>2024-08-24T00:52:28Z</time></trkpt><trkpt lat="-39.2812200822" lon="-72.4120379984"><ele>205.92</ele><time>2024-08-24T00:52:31Z</time></trkpt><trkpt lat="-39.2819757108" lon="-72.4122876953"><ele>203.29</ele><time>2024-08-24T00:52:38Z</time></trkpt><trkpt lat="-39.2833074275" lon="-72.4127243925"><ele>202.31</ele><time>2024-08-24T00:52:53Z</time></trkpt><trkpt lat="-39.2846853286" lon="-72.4131741654"><ele>205.32</ele><time>2024-08-24T00:53:09Z</time></trkpt><trkpt lat="-39.2861714400" lon="-72.4136837851"><ele>208.12</ele><time>2024-08-24T00:53:26Z</time></trkpt><trkpt lat="-39.2874594033" lon="-72.4141343124"><ele>208.58</ele><time>2024-08-24T00:53:41Z</time></trkpt><trkpt lat="-39.2888665572" lon="-72.4144308642"><ele>205.97</ele><time>2024-08-24T00:53:57Z</time></trkpt><trkpt lat="-39.2899940070" lon="-72.4140582886"><ele>203.50</ele><time>2024-08-24T00:54:10Z</time></trkpt><trkpt lat="-39.2906578537" lon="-72.4134926777"><ele>203.32</ele><time>2024-08-24T00:54:19Z</time></trkpt><trkpt lat="-39.2913025897" lon="-72.4123288505"><ele>206.21</ele><time>2024-08-24T00:54:32Z</time></trkpt><trkpt lat="-39.2915972974" lon="-72.4114849605"><ele>209.35</ele><time>2024-08-24T00:54:40Z</time></trkpt><trkpt lat="-39.2919589765" lon="-72.4104396533"><ele>212.43</ele><time>2024-08-24T00:54:50Z</time></trkpt><trkpt lat="-39.2922815960" lon="-72.4094904028"><ele>215.03</ele><time>2024-08-24T00:55:02Z</time></trkpt><trkpt lat="-39.2922137864" lon="-72.4092135485"><ele>215.39</ele><time>2024-08-24T00:55:11Z</time></trkpt><trkpt lat="-39.2921706196" lon="-72.4091889057"><ele>215.14</ele><time>2024-08-24T00:55:12Z</time></trkpt><trkpt lat="-39.2913325969" lon="-72.4087731633"><ele>211.81</ele><time>2024-08-24T00:55:26Z</time></trkpt><trkpt lat="-39.2910134979" lon="-72.4085923657"><ele>211.68</ele><time>2024-08-24T00:55:32Z</time></trkpt><trkpt lat="-39.2909437604" lon="-72.4083350413"><ele>211.54</ele><time>2024-08-24T00:55:37Z</time></trkpt><trkpt lat="-39.2911494523" lon="-72.4077309575"><ele>212.35</ele><time>2024-08-24T00:55:46Z</time></trkpt><trkpt lat="-39.2913973052" lon="-72.4077097513"><ele>212.79</ele><time>2024-08-24T00:55:52Z</time></trkpt><trkpt lat="-39.2921525147" lon="-72.4083044473"><ele>215.52</ele><time>2024-08-24T00:56:05Z</time></trkpt><trkpt lat="-39.2925346456" lon="-72.4085736740"><ele>217.20</ele><time>2024-08-24T00:56:15Z</time></trkpt><trkpt lat="-39.2925524991" lon="-72.4086826388"><ele>217.12</ele><time>2024-08-24T00:56:19Z</time></trkpt><trkpt lat="-39.2925359868" lon="-72.4087343551"><ele>217.11</ele><time>2024-08-24T00:56:20Z</time></trkpt><trkpt lat="-39.2925080750" lon="-72.4088048469"><ele>217.07</ele><time>2024-08-24T00:56:21Z</time></trkpt><trkpt lat="-39.2923585419" lon="-72.4092489202"><ele>215.72</ele><time>2024-08-24T00:56:27Z</time></trkpt><trkpt lat="-39.2923572008" lon="-72.4093028158"><ele>215.72</ele><time>2024-08-24T00:56:28Z</time></trkpt><trkpt lat="-39.2923613917" lon="-72.4093433842"><ele>215.55</ele><time>2024-08-24T00:56:29Z</time></trkpt><trkpt lat="-39.2923713662" lon="-72.4093712959"><ele>215.27</ele><time>2024-08-24T00:56:30Z</time></trkpt><trkpt lat="-39.2923862860" lon="-72.4093968607"><ele>215.11</ele><time>2024-08-24T00:56:31Z</time></trkpt><trkpt lat="-39.2924091686" lon="-72.4094192404"><ele>215.22</ele><time>2024-08-24T00:56:32Z</time></trkpt><trkpt lat="-39.2924460489" lon="-72.4094400275"><ele>215.32</ele><time>2024-08-24T00:56:33Z</time></trkpt><trkpt lat="-39.2924898025" lon="-72.4094657600"><ele>215.53</ele><time>2024-08-24T00:56:34Z</time></trkpt><trkpt lat="-39.2930425890" lon="-72.4097778182"><ele>217.46</ele><time>2024-08-24T00:56:42Z</time></trkpt><trkpt lat="-39.2934873328" lon="-72.4100329634"><ele>220.48</ele><time>2024-08-24T00:56:49Z</time></trkpt><trkpt lat="-39.2937612534" lon="-72.4101952370"><ele>223.63</ele><time>2024-08-24T00:56:54Z</time></trkpt><trkpt lat="-39.2938684579" lon="-72.4102611188"><ele>225.15</ele><time>2024-08-24T00:56:56Z</time></trkpt><trkpt lat="-39.2939181626" lon="-72.4102736916"><ele>225.80</ele><time>2024-08-24T00:56:57Z</time></trkpt><trkpt lat="-39.2939700466" lon="-72.4102649745"><ele>226.37</ele><time>2024-08-24T00:56:58Z</time></trkpt><trkpt lat="-39.2940239422" lon="-72.4102382362"><ele>227.12</ele><time>2024-08-24T00:56:59Z</time></trkpt><trkpt lat="-39.2940808553" lon="-72.4101972487"><ele>227.57</ele><time>2024-08-24T00:57:00Z</time></trkpt><trkpt lat="-39.2941397801" lon="-72.4101500586"><ele>228.05</ele><time>2024-08-24T00:57:01Z</time></trkpt><trkpt lat="-39.2943361681" lon="-72.4099906348"><ele>228.98</ele><time>2024-08-24T00:57:05Z</time></trkpt><trkpt lat="-39.2943548597" lon="-72.4099555984"><ele>229.33</ele><time>2024-08-24T00:57:06Z</time></trkpt><trkpt lat="-39.2943655048" lon="-72.4099193048"><ele>229.63</ele><time>2024-08-24T00:57:07Z</time></trkpt><trkpt lat="-39.2943689413" lon="-72.4098804966"><ele>229.49</ele><time>2024-08-24T00:57:08Z</time></trkpt><trkpt lat="-39.2943634093" lon="-72.4098335579"><ele>229.90</ele><time>2024-08-24T00:57:09Z</time></trkpt><trkpt lat="-39.2943398561" lon="-72.4097787403"><ele>229.88</ele><time>2024-08-24T00:57:10Z</time></trkpt><trkpt lat="-39.2943017185" lon="-72.4097100925"><ele>229.90</ele><time>2024-08-24T00:57:11Z</time></trkpt><trkpt lat="-39.2942573782" lon="-72.4096344039"><ele>229.72</ele><time>2024-08-24T00:57:12Z</time></trkpt><trkpt lat="-39.2940092739" lon="-72.4091526121"><ele>226.23</ele><time>2024-08-24T00:57:18Z</time></trkpt><trkpt lat="-39.2938822880" lon="-72.4088987242"><ele>223.22</ele><time>2024-08-24T00:57:22Z</time></trkpt><trkpt lat="-39.2938622553" lon="-72.4088538811"><ele>222.95</ele><time>2024-08-24T00:57:23Z</time></trkpt><trkpt lat="-39.2936966289" lon="-72.4086357001"><ele>222.10</ele><time>2024-08-24T00:57:29Z</time></trkpt><trkpt lat="-39.2936463375" lon="-72.4086051900"><ele>222.33</ele><time>2024-08-24T00:57:30Z</time></trkpt><trkpt lat="-39.2930533178" lon="-72.4082057085"><ele>221.28</ele><time>2024-08-24T00:57:38Z</time></trkpt><trkpt lat="-39.2928317841" lon="-72.4080281798"><ele>218.77</ele><time>2024-08-24T00:57:45Z</time></trkpt><trkpt lat="-39.2928235698" lon="-72.4079245795"><ele>218.78</ele><time>2024-08-24T00:57:48Z</time></trkpt><trkpt lat="-39.2928384896" lon="-72.4078649841"><ele>219.32</ele><time>2024-08-24T00:57:49Z</time></trkpt><trkpt lat="-39.2928614561" lon="-72.4077987671"><ele>219.15</ele><time>2024-08-24T00:57:50Z</time></trkpt><trkpt lat="-39.2931002565" lon="-72.4071410391"><ele>222.38</ele><time>2024-08-24T00:57:57Z</time></trkpt><trkpt lat="-39.2933386378" lon="-72.4064570758"><ele>225.45</ele><time>2024-08-24T00:58:06Z</time></trkpt><trkpt lat="-39.2934397236" lon="-72.4063331075"><ele>226.43</ele><time>2024-08-24T00:58:17Z</time></trkpt><trkpt lat="-39.2936708964" lon="-72.4064193573"><ele>229.58</ele><time>2024-08-24T00:58:24Z</time></trkpt><trkpt lat="-39.2937599123" lon="-72.4064744264"><ele>230.38</ele><time>2024-08-24T00:58:26Z</time></trkpt><trkpt lat="-39.2942553665" lon="-72.4067793600"><ele>230.51</ele><time>2024-08-24T00:58:36Z</time></trkpt><trkpt lat="-39.2943769880" lon="-72.4068755005"><ele>229.91</ele><time>2024-08-24T00:58:40Z</time></trkpt><trkpt lat="-39.2943882197" lon="-72.4069163203"><ele>229.73</ele><time>2024-08-24T00:58:41Z</time></trkpt><trkpt lat="-39.2943910696" lon="-72.4069615826"><ele>229.68</ele><time>2024-08-24T00:58:42Z</time></trkpt><trkpt lat="-39.2943831906" lon="-72.4070123769"><ele>229.71</ele><time>2024-08-24T00:58:43Z</time></trkpt><trkpt lat="-39.2943699472" lon="-72.4070743192"><ele>229.51</ele><time>2024-08-24T00:58:44Z</time></trkpt><trkpt lat="-39.2943432089" lon="-72.4071544502"><ele>229.45</ele><time>2024-08-24T00:58:45Z</time></trkpt><trkpt lat="-39.2943155486" lon="-72.4072439689"><ele>229.14</ele><time>2024-08-24T00:58:46Z</time></trkpt><trkpt lat="-39.2941907421" lon="-72.4076225795"><ele>227.49</ele><time>2024-08-24T00:58:50Z</time></trkpt><trkpt lat="-39.2939537019" lon="-72.4082524795"><ele>224.46</ele><time>2024-08-24T00:58:57Z</time></trkpt><trkpt lat="-39.2938418034" lon="-72.4086274020"><ele>222.28</ele><time>2024-08-24T00:59:02Z</time></trkpt><trkpt lat="-39.2938557174" lon="-72.4086711556"><ele>222.23</ele><time>2024-08-24T00:59:03Z</time></trkpt><trkpt lat="-39.2938783485" lon="-72.4087042641"><ele>221.94</ele><time>2024-08-24T00:59:04Z</time></trkpt><trkpt lat="-39.2939117085" lon="-72.4087232072"><ele>222.10</ele><time>2024-08-24T00:59:05Z</time></trkpt><trkpt lat="-39.2939511035" lon="-72.4087166693"><ele>222.35</ele><time>2024-08-24T00:59:06Z</time></trkpt><trkpt lat="-39.2939935159" lon="-72.4086921103"><ele>222.91</ele><time>2024-08-24T00:59:07Z</time></trkpt><trkpt lat="-39.2940421309" lon="-72.4086559005"><ele>223.30</ele><time>2024-08-24T00:59:08Z</time></trkpt><trkpt lat="-39.2942860443" lon="-72.4084374681"><ele>226.75</ele><time>2024-08-24T00:59:12Z</time></trkpt><trkpt lat="-39.2944097612" lon="-72.4083202053"><ele>228.97</ele><time>2024-08-24T00:59:14Z</time></trkpt><trkpt lat="-39.2947527487" lon="-72.4080059677"><ele>232.45</ele><time>2024-08-24T00:59:19Z</time></trkpt><trkpt lat="-39.2948219832" lon="-72.4079447798"><ele>232.68</ele><time>2024-08-24T00:59:20Z</time></trkpt><trkpt lat="-39.2950231489" lon="-72.4077713583"><ele>233.90</ele><time>2024-08-24T00:59:23Z</time></trkpt><trkpt lat="-39.2952730134" lon="-72.4075493217"><ele>235.54</ele><time>2024-08-24T00:59:28Z</time></trkpt><trkpt lat="-39.2952879332" lon="-72.4075095914"><ele>235.98</ele><time>2024-08-24T00:59:29Z</time></trkpt><trkpt lat="-39.2952871788" lon="-72.4074682686"><ele>236.12</ele><time>2024-08-24T00:59:30Z</time></trkpt><trkpt lat="-39.2952703312" lon="-72.4074274488"><ele>236.38</ele><time>2024-08-24T00:59:31Z</time></trkpt><trkpt lat="-39.2952345405" lon="-72.4073852878"><ele>236.32</ele><time>2024-08-24T00:59:32Z</time></trkpt><trkpt lat="-39.2951799743" lon="-72.4073427077"><ele>236.17</ele><time>2024-08-24T00:59:33Z</time></trkpt><trkpt lat="-39.2951156851" lon="-72.4072976131"><ele>235.87</ele><time>2024-08-24T00:59:34Z</time></trkpt><trkpt lat="-39.2946136091" lon="-72.4069679528"><ele>232.28</ele><time>2024-08-24T00:59:41Z</time></trkpt><trkpt lat="-39.2945139483" lon="-72.4068900011"><ele>230.37</ele><time>2024-08-24T00:59:44Z</time></trkpt><trkpt lat="-39.2944849469" lon="-72.4068475887"><ele>230.02</ele><time>2024-08-24T00:59:46Z</time></trkpt><trkpt lat="-39.2944793310" lon="-72.4068081938"><ele>230.06</ele><time>2024-08-24T00:59:47Z</time></trkpt><trkpt lat="-39.2944922391" lon="-72.4067570642"><ele>230.26</ele><time>2024-08-24T00:59:48Z</time></trkpt><trkpt lat="-39.2945147865" lon="-72.4066941161"><ele>230.35</ele><time>2024-08-24T00:59:49Z</time></trkpt><trkpt lat="-39.2945471406" lon="-72.4066160806"><ele>230.95</ele><time>2024-08-24T00:59:50Z</time></trkpt><trkpt lat="-39.2947772238" lon="-72.4059948977"><ele>234.03</ele><time>2024-08-24T00:59:56Z</time></trkpt><trkpt lat="-39.2949713487" lon="-72.4054054823"><ele>235.03</ele><time>2024-08-24T01:00:02Z</time></trkpt><trkpt lat="-39.2949790601" lon="-72.4053288717"><ele>235.02</ele><time>2024-08-24T01:00:03Z</time></trkpt><trkpt lat="-39.2949732766" lon="-72.4052608944"><ele>235.07</ele><time>2024-08-24T01:00:04Z</time></trkpt><trkpt lat="-39.2949032038" lon="-72.4047411326"><ele>235.26</ele><time>2024-08-24T01:00:13Z</time></trkpt><trkpt lat="-39.2950051278" lon="-72.4046378676"><ele>235.89</ele><time>2024-08-24T01:00:18Z</time></trkpt><trkpt lat="-39.2955736723" lon="-72.4044711515"><ele>237.77</ele><time>2024-08-24T01:00:26Z</time></trkpt><trkpt lat="-39.2958849762" lon="-72.4044040963"><ele>237.95</ele><time>2024-08-24T01:00:33Z</time></trkpt><trkpt lat="-39.2959153187" lon="-72.4044393841"><ele>237.99</ele><time>2024-08-24T01:00:34Z</time></trkpt><trkpt lat="-39.2959400453" lon="-72.4044816289"><ele>238.03</ele><time>2024-08-24T01:00:35Z</time></trkpt><trkpt lat="-39.2959585693" lon="-72.4045455828"><ele>238.02</ele><time>2024-08-24T01:00:36Z</time></trkpt><trkpt lat="-39.2959769256" lon="-72.4046257138"><ele>238.17</ele><time>2024-08-24T01:00:37Z</time></trkpt><trkpt lat="-39.2959936894" lon="-72.4047166575"><ele>238.16</ele><time>2024-08-24T01:00:38Z</time></trkpt><trkpt lat="-39.2961733975" lon="-72.4056324642"><ele>237.87</ele><time>2024-08-24T01:00:47Z</time></trkpt><trkpt lat="-39.2961743195" lon="-72.4056830909"><ele>237.63</ele><time>2024-08-24T01:00:48Z</time></trkpt><trkpt lat="-39.2961614951" lon="-72.4057216477"><ele>237.52</ele><time>2024-08-24T01:00:49Z</time></trkpt><trkpt lat="-39.2961345892" lon="-72.4057542533"><ele>237.45</ele><time>2024-08-24T01:00:50Z</time></trkpt><trkpt lat="-39.2960826214" lon="-72.4057839252"><ele>237.57</ele><time>2024-08-24T01:00:51Z</time></trkpt><trkpt lat="-39.2960224394" lon="-72.4058091547"><ele>237.75</ele><time>2024-08-24T01:00:52Z</time></trkpt><trkpt lat="-39.2959500197" lon="-72.4058384076"><ele>237.96</ele><time>2024-08-24T01:00:53Z</time></trkpt><trkpt lat="-39.2951546609" lon="-72.4061027728"><ele>235.50</ele><time>2024-08-24T01:01:05Z</time></trkpt><trkpt lat="-39.2951399088" lon="-72.4061561655"><ele>235.75</ele><time>2024-08-24T01:01:06Z</time></trkpt><trkpt lat="-39.2951378971" lon="-72.4062312674"><ele>235.82</ele><time>2024-08-24T01:01:07Z</time></trkpt><trkpt lat="-39.2951481231" lon="-72.4063237198"><ele>236.12</ele><time>2024-08-24T01:01:08Z</time></trkpt><trkpt lat="-39.2951631267" lon="-72.4064334389"><ele>236.28</ele><time>2024-08-24T01:01:09Z</time></trkpt><trkpt lat="-39.2953287531" lon="-72.4073780794"><ele>236.27</ele><time>2024-08-24T01:01:19Z</time></trkpt><trkpt lat="-39.2953708302" lon="-72.4074181449"><ele>236.24</ele><time>2024-08-24T01:01:20Z</time></trkpt><trkpt lat="-39.2954163440" lon="-72.4074473139"><ele>236.16</ele><time>2024-08-24T01:01:21Z</time></trkpt><trkpt lat="-39.2954705749" lon="-72.4074546061"><ele>236.43</ele><time>2024-08-24T01:01:22Z</time></trkpt><trkpt lat="-39.2955340259" lon="-72.4074453022"><ele>236.70</ele><time>2024-08-24T01:01:23Z</time></trkpt><trkpt lat="-39.2956029251" lon="-72.4074256048"><ele>236.91</ele><time>2024-08-24T01:01:24Z</time></trkpt><trkpt lat="-39.2956735846" lon="-72.4074007105"><ele>237.06</ele><time>2024-08-24T01:01:25Z</time></trkpt><trkpt lat="-39.2966313846" lon="-72.4070490059"><ele>236.32</ele><time>2024-08-24T01:01:38Z</time></trkpt><trkpt lat="-39.2967225797" lon="-72.4070144724"><ele>236.07</ele><time>2024-08-24T01:01:40Z</time></trkpt><trkpt lat="-39.2967495695" lon="-72.4069943558"><ele>235.95</ele><time>2024-08-24T01:01:41Z</time></trkpt><trkpt lat="-39.2967660818" lon="-72.4069708865"><ele>235.95</ele><time>2024-08-24T01:01:42Z</time></trkpt><trkpt lat="-39.2969276011" lon="-72.4067199323"><ele>236.32</ele><time>2024-08-24T01:01:50Z</time></trkpt><trkpt lat="-39.2969457898" lon="-72.4066758435"><ele>236.52</ele><time>2024-08-24T01:01:51Z</time></trkpt><trkpt lat="-39.2969926447" lon="-72.4064153340"><ele>237.82</ele><time>2024-08-24T01:01:56Z</time></trkpt><trkpt lat="-39.2968832608" lon="-72.4058210570"><ele>238.12</ele><time>2024-08-24T01:02:08Z</time></trkpt><trkpt lat="-39.2970519885" lon="-72.4056478869"><ele>237.84</ele><time>2024-08-24T01:02:14Z</time></trkpt><trkpt lat="-39.2971420940" lon="-72.4055995233"><ele>237.63</ele><time>2024-08-24T01:02:17Z</time></trkpt><trkpt lat="-39.2971352208" lon="-72.4052813463"><ele>238.29</ele><time>2024-08-24T01:02:24Z</time></trkpt><trkpt lat="-39.2971054651" lon="-72.4050929211"><ele>238.63</ele><time>2024-08-24T01:02:28Z</time></trkpt><trkpt lat="-39.2971083988" lon="-72.4049905781"><ele>238.85</ele><time>2024-08-24T01:02:30Z</time></trkpt><trkpt lat="-39.2971203849" lon="-72.4049396161"><ele>239.01</ele><time>2024-08-24T01:02:31Z</time></trkpt><trkpt lat="-39.2971367296" lon="-72.4048939347"><ele>239.14</ele><time>2024-08-24T01:02:32Z</time></trkpt><trkpt lat="-39.2971545830" lon="-72.4048604909"><ele>239.24</ele><time>2024-08-24T01:02:33Z</time></trkpt><trkpt lat="-39.2971721012" lon="-72.4048385303"><ele>239.32</ele><time>2024-08-24T01:02:34Z</time></trkpt><trkpt lat="-39.2971882783" lon="-72.4048246164"><ele>239.26</ele><time>2024-08-24T01:02:35Z</time></trkpt><trkpt lat="-39.2972038686" lon="-72.4048057571"><ele>239.40</ele><time>2024-08-24T01:02:36Z</time></trkpt><trkpt lat="-39.2972151842" lon="-72.4047780968"><ele>239.52</ele><time>2024-08-24T01:02:37Z</time></trkpt><trkpt lat="-39.2972217221" lon="-72.4047378637"><ele>239.56</ele><time>2024-08-24T01:02:38Z</time></trkpt><trkpt lat="-39.2972190399" lon="-72.4046865664"><ele>239.85</ele><time>2024-08-24T01:02:39Z</time></trkpt><trkpt lat="-39.2972103227" lon="-72.4046279769"><ele>239.86</ele><time>2024-08-24T01:02:40Z</time></trkpt><trkpt lat="-39.2971978337" lon="-72.4045622628"><ele>240.05</ele><time>2024-08-24T01:02:41Z</time></trkpt><trkpt lat="-39.2970294412" lon="-72.4038507231"><ele>240.84</ele><time>2024-08-24T01:02:50Z</time></trkpt><trkpt lat="-39.2970244959" lon="-72.4038260803"><ele>240.80</ele><time>2024-08-24T01:02:51Z</time></trkpt><trkpt lat="-39.2970252503" lon="-72.4037961569"><ele>240.85</ele><time>2024-08-24T01:02:52Z</time></trkpt><trkpt lat="-39.2970406730" lon="-72.4037612043"><ele>240.91</ele><time>2024-08-24T01:02:53Z</time></trkpt><trkpt lat="-39.2970627174" lon="-72.4037308618"><ele>241.09</ele><time>2024-08-24T01:02:54Z</time></trkpt><trkpt lat="-39.2971023638" lon="-72.4037058838"><ele>241.28</ele><time>2024-08-24T01:02:55Z</time></trkpt><trkpt lat="-39.2971566785" lon="-72.4036896229"><ele>241.52</ele><time>2024-08-24T01:02:56Z</time></trkpt><trkpt lat="-39.2972226441" lon="-72.4036747869"><ele>241.82</ele><time>2024-08-24T01:02:57Z</time></trkpt><trkpt lat="-39.2977599241" lon="-72.4035562668"><ele>242.59</ele><time>2024-08-24T01:03:05Z</time></trkpt><trkpt lat="-39.2978111375" lon="-72.4035700131"><ele>242.50</ele><time>2024-08-24T01:03:06Z</time></trkpt><trkpt lat="-39.2978516221" lon="-72.4036141019"><ele>242.38</ele><time>2024-08-24T01:03:07Z</time></trkpt><trkpt lat="-39.2978957947" lon="-72.4036744516"><ele>242.26</ele><time>2024-08-24T01:03:08Z</time></trkpt><trkpt lat="-39.2979401350" lon="-72.4037456140"><ele>242.25</ele><time>2024-08-24T01:03:09Z</time></trkpt><trkpt lat="-39.2979874089" lon="-72.4038244039"><ele>242.02</ele><time>2024-08-24T01:03:10Z</time></trkpt><trkpt lat="-39.2984471563" lon="-72.4046348501"><ele>239.85</ele><time>2024-08-24T01:03:20Z</time></trkpt><trkpt lat="-39.2984925024" lon="-72.4046760052"><ele>239.68</ele><time>2024-08-24T01:03:21Z</time></trkpt><trkpt lat="-39.2985439673" lon="-72.4047030788"><ele>239.57</ele><time>2024-08-24T01:03:22Z</time></trkpt><trkpt lat="-39.2985969409" lon="-72.4047159869"><ele>239.17</ele><time>2024-08-24T01:03:23Z</time></trkpt><trkpt lat="-39.2986562848" lon="-72.4047105387"><ele>239.52</ele><time>2024-08-24T01:03:24Z</time></trkpt><trkpt lat="-39.2987233400" lon="-72.4046977982"><ele>239.49</ele><time>2024-08-24T01:03:25Z</time></trkpt><trkpt lat="-39.2993635498" lon="-72.4045184255"><ele>238.21</ele><time>2024-08-24T01:03:35Z</time></trkpt><trkpt lat="-39.3001121376" lon="-72.4043121468"><ele>238.34</ele><time>2024-08-24T01:03:46Z</time></trkpt><trkpt lat="-39.3003333360" lon="-72.4042264000"><ele>238.85</ele><time>2024-08-24T01:03:50Z</time></trkpt><trkpt lat="-39.3003623374" lon="-72.4041826464"><ele>239.24</ele><time>2024-08-24T01:03:51Z</time></trkpt><trkpt lat="-39.3003797717" lon="-72.4041289184"><ele>239.72</ele><time>2024-08-24T01:03:52Z</time></trkpt><trkpt lat="-39.3003866449" lon="-72.4040633719"><ele>239.98</ele><time>2024-08-24T01:03:53Z</time></trkpt><trkpt lat="-39.3003833760" lon="-72.4039922934"><ele>240.20</ele><time>2024-08-24T01:03:54Z</time></trkpt><trkpt lat="-39.3003737368" lon="-72.4039147608"><ele>240.75</ele><time>2024-08-24T01:03:55Z</time></trkpt><trkpt lat="-39.3002720643" lon="-72.4033350684"><ele>244.19</ele><time>2024-08-24T01:04:02Z</time></trkpt><trkpt lat="-39.3002288137" lon="-72.4031358305"><ele>245.87</ele><time>2024-08-24T01:04:05Z</time></trkpt><trkpt lat="-39.3001299072" lon="-72.4028797634"><ele>247.84</ele><time>2024-08-24T01:04:11Z</time></trkpt><trkpt lat="-39.3000988942" lon="-72.4028676935"><ele>247.96</ele><time>2024-08-24T01:04:12Z</time></trkpt><trkpt lat="-39.3000619300" lon="-72.4028644245"><ele>247.87</ele><time>2024-08-24T01:04:13Z</time></trkpt><trkpt lat="-39.3000199366" lon="-72.4028644245"><ele>247.59</ele><time>2024-08-24T01:04:14Z</time></trkpt><trkpt lat="-39.2999712378" lon="-72.4028687831"><ele>247.06</ele><time>2024-08-24T01:04:15Z</time></trkpt><trkpt lat="-39.2999127321" lon="-72.4028780870"><ele>246.71</ele><time>2024-08-24T01:04:16Z</time></trkpt><trkpt lat="-39.2995233089" lon="-72.4029771611"><ele>242.62</ele><time>2024-08-24T01:04:21Z</time></trkpt><trkpt lat="-39.2989535909" lon="-72.4031591322"><ele>240.92</ele><time>2024-08-24T01:04:30Z</time></trkpt><trkpt lat="-39.2983324081" lon="-72.4033571966"><ele>241.29</ele><time>2024-08-24T01:04:39Z</time></trkpt><trkpt lat="-39.2982735671" lon="-72.4033659138"><ele>241.13</ele><time>2024-08-24T01:04:40Z</time></trkpt><trkpt lat="-39.2980385385" lon="-72.4033631478"><ele>241.39</ele><time>2024-08-24T01:04:47Z</time></trkpt><trkpt lat="-39.2980195954" lon="-72.4033189751"><ele>241.50</ele><time>2024-08-24T01:04:48Z</time></trkpt><trkpt lat="-39.2980042566" lon="-72.4032639060"><ele>241.88</ele><time>2024-08-24T01:04:49Z</time></trkpt><trkpt lat="-39.2979926057" lon="-72.4031937495"><ele>242.04</ele><time>2024-08-24T01:04:50Z</time></trkpt><trkpt lat="-39.2979797814" lon="-72.4031144567"><ele>242.17</ele><time>2024-08-24T01:04:51Z</time></trkpt><trkpt lat="-39.2978508677" lon="-72.4023278989"><ele>243.24</ele><time>2024-08-24T01:05:00Z</time></trkpt><trkpt lat="-39.2978331819" lon="-72.4021895975"><ele>243.36</ele><time>2024-08-24T01:05:06Z</time></trkpt><trkpt lat="-39.2978315055" lon="-72.4021642003"><ele>243.43</ele><time>2024-08-24T01:05:07Z</time></trkpt><trkpt lat="-39.2978256382" lon="-72.4021310918"><ele>243.44</ele><time>2024-08-24T01:05:08Z</time></trkpt><trkpt lat="-39.2978275660" lon="-72.4020968936"><ele>243.52</ele><time>2024-08-24T01:05:09Z</time></trkpt><trkpt lat="-39.2978437431" lon="-72.4020631146"><ele>243.67</ele><time>2024-08-24T01:05:10Z</time></trkpt><trkpt lat="-39.2978706490" lon="-72.4020338617"><ele>243.66</ele><time>2024-08-24T01:05:11Z</time></trkpt><trkpt lat="-39.2979107145" lon="-72.4020081293"><ele>243.64</ele><time>2024-08-24T01:05:12Z</time></trkpt><trkpt lat="-39.2979649454" lon="-72.4019897729"><ele>243.63</ele><time>2024-08-24T01:05:13Z</time></trkpt><trkpt lat="-39.2980243731" lon="-72.4019723386"><ele>243.79</ele><time>2024-08-24T01:05:14Z</time></trkpt><trkpt lat="-39.2980886623" lon="-72.4019563291"><ele>243.80</ele><time>2024-08-24T01:05:15Z</time></trkpt><trkpt lat="-39.2989001144" lon="-72.4017581809"><ele>246.01</ele><time>2024-08-24T01:05:28Z</time></trkpt><trkpt lat="-39.2994472012" lon="-72.4016250763"><ele>249.08</ele><time>2024-08-24T01:05:35Z</time></trkpt><trkpt lat="-39.2998815514" lon="-72.4014692567"><ele>250.74</ele><time>2024-08-24T01:05:43Z</time></trkpt><trkpt lat="-39.2998978961" lon="-72.4014213961"><ele>250.81</ele><time>2024-08-24T01:05:44Z</time></trkpt><trkpt lat="-39.2999079544" lon="-72.4013573583"><ele>250.39</ele><time>2024-08-24T01:05:45Z</time></trkpt><trkpt lat="-39.2999076191" lon="-72.4012824241"><ele>250.12</ele><time>2024-08-24T01:05:46Z</time></trkpt><trkpt lat="-39.2998941243" lon="-72.4012021255"><ele>249.96</ele><time>2024-08-24T01:05:47Z</time></trkpt><trkpt lat="-39.2998781987" lon="-72.4011182226"><ele>249.67</ele><time>2024-08-24T01:05:48Z</time></trkpt><trkpt lat="-39.2997330241" lon="-72.4002330936"><ele>247.61</ele><time>2024-08-24T01:05:58Z</time></trkpt><trkpt lat="-39.2997081298" lon="-72.4001812935"><ele>247.61</ele><time>2024-08-24T01:05:59Z</time></trkpt><trkpt lat="-39.2996718362" lon="-72.4001405574"><ele>247.53</ele><time>2024-08-24T01:06:00Z</time></trkpt><trkpt lat="-39.2996263225" lon="-72.4001179263"><ele>247.43</ele><time>2024-08-24T01:06:01Z</time></trkpt><trkpt lat="-39.2995771207" lon="-72.4001126457"><ele>247.47</ele><time>2024-08-24T01:06:02Z</time></trkpt><trkpt lat="-39.2995171901" lon="-72.4001215305"><ele>247.48</ele><time>2024-08-24T01:06:03Z</time></trkpt><trkpt lat="-39.2994500510" lon="-72.4001361150"><ele>247.08</ele><time>2024-08-24T01:06:04Z</time></trkpt><trkpt lat="-39.2986808438" lon="-72.4003610853"><ele>243.83</ele><time>2024-08-24T01:06:15Z</time></trkpt><trkpt lat="-39.2980465014" lon="-72.4005417991"><ele>243.17</ele><time>2024-08-24T01:06:25Z</time></trkpt><trkpt lat="-39.2971823271" lon="-72.4006848782"><ele>239.67</ele><time>2024-08-24T01:06:37Z</time></trkpt><trkpt lat="-39.2968469672" lon="-72.4007065874"><ele>236.46</ele><time>2024-08-24T01:06:41Z</time></trkpt><trkpt lat="-39.2967725359" lon="-72.4007121194"><ele>236.21</ele><time>2024-08-24T01:06:42Z</time></trkpt><trkpt lat="-39.2964105215" lon="-72.4007024802"><ele>235.31</ele><time>2024-08-24T01:06:50Z</time></trkpt><trkpt lat="-39.2963887285" lon="-72.4006599002"><ele>235.23</ele><time>2024-08-24T01:06:51Z</time></trkpt><trkpt lat="-39.2963688634" lon="-72.4006046634"><ele>235.22</ele><time>2024-08-24T01:06:52Z</time></trkpt><trkpt lat="-39.2962904088" lon="-72.4003875721"><ele>235.35</ele><time>2024-08-24T01:06:55Z</time></trkpt><trkpt lat="-39.2962541152" lon="-72.4003125541"><ele>235.32</ele><time>2024-08-24T01:06:56Z</time></trkpt><trkpt lat="-39.2961732298" lon="-72.4001700617"><ele>235.25</ele><time>2024-08-24T01:06:58Z</time></trkpt><trkpt lat="-39.2961267103" lon="-72.4001054373"><ele>235.24</ele><time>2024-08-24T01:06:59Z</time></trkpt><trkpt lat="-39.2960746586" lon="-72.4000457581"><ele>235.17</ele><time>2024-08-24T01:07:00Z</time></trkpt><trkpt lat="-39.2960166559" lon="-72.3999938741"><ele>235.11</ele><time>2024-08-24T01:07:01Z</time></trkpt><trkpt lat="-39.2959578149" lon="-72.3999500368"><ele>235.19</ele><time>2024-08-24T01:07:02Z</time></trkpt><trkpt lat="-39.2958965432" lon="-72.3999139946"><ele>235.22</ele><time>2024-08-24T01:07:03Z</time></trkpt><trkpt lat="-39.2958357744" lon="-72.3998870887"><ele>235.27</ele><time>2024-08-24T01:07:04Z</time></trkpt><trkpt lat="-39.2957793642" lon="-72.3998672236"><ele>235.59</ele><time>2024-08-24T01:07:05Z</time></trkpt><trkpt lat="-39.2957350239" lon="-72.3998543993"><ele>235.81</ele><time>2024-08-24T01:07:06Z</time></trkpt><trkpt lat="-39.2957035918" lon="-72.3998489510"><ele>236.06</ele><time>2024-08-24T01:07:07Z</time></trkpt><trkpt lat="-39.2956751771" lon="-72.3998491187"><ele>236.62</ele><time>2024-08-24T01:07:08Z</time></trkpt><trkpt lat="-39.2956491932" lon="-72.3998454306"><ele>236.50</ele><time>2024-08-24T01:07:09Z</time></trkpt><trkpt lat="-39.2956234608" lon="-72.3998373002"><ele>236.54</ele><time>2024-08-24T01:07:10Z</time></trkpt><trkpt lat="-39.2955982313" lon="-72.3998261523"><ele>236.32</ele><time>2024-08-24T01:07:11Z</time></trkpt><trkpt lat="-39.2955801263" lon="-72.3998036887"><ele>236.14</ele><time>2024-08-24T01:07:12Z</time></trkpt><trkpt lat="-39.2955698166" lon="-72.3997724243"><ele>236.14</ele><time>2024-08-24T01:07:13Z</time></trkpt><trkpt lat="-39.2955605965" lon="-72.3997261561"><ele>236.16</ele><time>2024-08-24T01:07:14Z</time></trkpt><trkpt lat="-39.2954215407" lon="-72.3990212381"><ele>237.55</ele><time>2024-08-24T01:07:22Z</time></trkpt><trkpt lat="-39.2951209657" lon="-72.3976458516"><ele>239.44</ele><time>2024-08-24T01:07:36Z</time></trkpt><trkpt lat="-39.2949700914" lon="-72.3969762214"><ele>242.68</ele><time>2024-08-24T01:07:43Z</time></trkpt><trkpt lat="-39.2948980909" lon="-72.3964846227"><ele>244.46</ele><time>2024-08-24T01:07:48Z</time></trkpt><trkpt lat="-39.2949172854" lon="-72.3951617070"><ele>247.56</ele><time>2024-08-24T01:08:01Z</time></trkpt><trkpt lat="-39.2949517351" lon="-72.3936370388"><ele>249.77</ele><time>2024-08-24T01:08:16Z</time></trkpt><trkpt lat="-39.2947591189" lon="-72.3922426254"><ele>249.83</ele><time>2024-08-24T01:08:30Z</time></trkpt><trkpt lat="-39.2942743097" lon="-72.3908952344"><ele>249.89</ele><time>2024-08-24T01:08:45Z</time></trkpt><trkpt lat="-39.2935826350" lon="-72.3895590752"><ele>250.14</ele><time>2024-08-24T01:09:01Z</time></trkpt><trkpt lat="-39.2934699822" lon="-72.3893030081"><ele>249.96</ele><time>2024-08-24T01:09:04Z</time></trkpt><trkpt lat="-39.2934464291" lon="-72.3892089631"><ele>250.07</ele><time>2024-08-24T01:09:05Z</time></trkpt><trkpt lat="-39.2934267316" lon="-72.3891077098"><ele>250.03</ele><time>2024-08-24T01:09:06Z</time></trkpt><trkpt lat="-39.2934224568" lon="-72.3890098091"><ele>249.96</ele><time>2024-08-24T01:09:07Z</time></trkpt><trkpt lat="-39.2934306711" lon="-72.3889154289"><ele>250.03</ele><time>2024-08-24T01:09:08Z</time></trkpt><trkpt lat="-39.2934454232" lon="-72.3888155166"><ele>250.16</ele><time>2024-08-24T01:09:09Z</time></trkpt><trkpt lat="-39.2934616003" lon="-72.3887171131"><ele>250.49</ele><time>2024-08-24T01:09:10Z</time></trkpt><trkpt lat="-39.2937451601" lon="-72.3872660380"><ele>250.84</ele><time>2024-08-24T01:09:25Z</time></trkpt><trkpt lat="-39.2939935159" lon="-72.3859522585"><ele>252.50</ele><time>2024-08-24T01:09:37Z</time></trkpt><trkpt lat="-39.2941930890" lon="-72.3849366233"><ele>255.64</ele><time>2024-08-24T01:09:46Z</time></trkpt><trkpt lat="-39.2944462225" lon="-72.3837195709"><ele>258.70</ele><time>2024-08-24T01:09:57Z</time></trkpt><trkpt lat="-39.2946847714" lon="-72.3823918775"><ele>260.78</ele><time>2024-08-24T01:10:09Z</time></trkpt><trkpt lat="-39.2948534153" lon="-72.3815096822"><ele>260.35</ele><time>2024-08-24T01:10:17Z</time></trkpt><trkpt lat="-39.2948721908" lon="-72.3814018909"><ele>260.48</ele><time>2024-08-24T01:10:18Z</time></trkpt><trkpt lat="-39.2951740231" lon="-72.3799550068"><ele>257.47</ele><time>2024-08-24T01:10:31Z</time></trkpt><trkpt lat="-39.2953935452" lon="-72.3788292333"><ele>254.28</ele><time>2024-08-24T01:10:41Z</time></trkpt><trkpt lat="-39.2957698926" lon="-72.3770008050"><ele>251.53</ele><time>2024-08-24T01:10:58Z</time></trkpt><trkpt lat="-39.2961280514" lon="-72.3752669245"><ele>250.10</ele><time>2024-08-24T01:11:14Z</time></trkpt><trkpt lat="-39.2963506747" lon="-72.3742279038"><ele>248.53</ele><time>2024-08-24T01:11:24Z</time></trkpt><trkpt lat="-39.2964287102" lon="-72.3738453537"><ele>247.79</ele><time>2024-08-24T01:11:29Z</time></trkpt><trkpt lat="-39.2964402772" lon="-72.3737855069"><ele>247.69</ele><time>2024-08-24T01:11:30Z</time></trkpt><trkpt lat="-39.2964509223" lon="-72.3737344611"><ele>247.51</ele><time>2024-08-24T01:11:31Z</time></trkpt><trkpt lat="-39.2964575440" lon="-72.3736187909"><ele>247.17</ele><time>2024-08-24T01:11:34Z</time></trkpt><trkpt lat="-39.2964463122" lon="-72.3736034520"><ele>247.23</ele><time>2024-08-24T01:11:35Z</time></trkpt><trkpt lat="-39.2964354996" lon="-72.3735879455"><ele>247.13</ele><time>2024-08-24T01:11:36Z</time></trkpt><trkpt lat="-39.2964294646" lon="-72.3735751212"><ele>246.99</ele><time>2024-08-24T01:11:37Z</time></trkpt><trkpt lat="-39.2964812648" lon="-72.3735809885"><ele>246.88</ele><time>2024-08-24T01:11:50Z</time></trkpt><trkpt lat="-39.2964824382" lon="-72.3736028653"><ele>247.07</ele><time>2024-08-24T01:11:54Z</time></trkpt><trkpt lat="-39.2964506708" lon="-72.3737251572"><ele>247.33</ele><time>2024-08-24T01:11:57Z</time></trkpt><trkpt lat="-39.2964355834" lon="-72.3737903684"><ele>247.44</ele><time>2024-08-24T01:11:58Z</time></trkpt><trkpt lat="-39.2962778360" lon="-72.3745688796"><ele>248.66</ele><time>2024-08-24T01:12:05Z</time></trkpt><trkpt lat="-39.2960482556" lon="-72.3756686691"><ele>250.24</ele><time>2024-08-24T01:12:16Z</time></trkpt><trkpt lat="-39.2957142368" lon="-72.3772633262"><ele>251.68</ele><time>2024-08-24T01:12:31Z</time></trkpt><trkpt lat="-39.2952715047" lon="-72.3794020526"><ele>254.96</ele><time>2024-08-24T01:12:51Z</time></trkpt><trkpt lat="-39.2950403318" lon="-72.3805662990"><ele>258.19</ele><time>2024-08-24T01:13:02Z</time></trkpt><trkpt lat="-39.2947834264" lon="-72.3819683399"><ele>260.30</ele><time>2024-08-24T01:13:15Z</time></trkpt><trkpt lat="-39.2945250962" lon="-72.3832672834"><ele>260.16</ele><time>2024-08-24T01:13:27Z</time></trkpt><trkpt lat="-39.2942823563" lon="-72.3845632095"><ele>257.00</ele><time>2024-08-24T01:13:39Z</time></trkpt><trkpt lat="-39.2941000499" lon="-72.3856220953"><ele>253.86</ele><time>2024-08-24T01:13:49Z</time></trkpt><trkpt lat="-39.2937539611" lon="-72.3873964604"><ele>250.56</ele><time>2024-08-24T01:14:06Z</time></trkpt><trkpt lat="-39.2934300844" lon="-72.3891038541"><ele>250.29</ele><time>2024-08-24T01:14:22Z</time></trkpt><trkpt lat="-39.2934331857" lon="-72.3892123159"><ele>250.34</ele><time>2024-08-24T01:14:23Z</time></trkpt><trkpt lat="-39.2934493627" lon="-72.3893164191"><ele>250.34</ele><time>2024-08-24T01:14:24Z</time></trkpt><trkpt lat="-39.2934797052" lon="-72.3894159123"><ele>250.20</ele><time>2024-08-24T01:14:25Z</time></trkpt><trkpt lat="-39.2935171723" lon="-72.3895129748"><ele>250.13</ele><time>2024-08-24T01:14:26Z</time></trkpt><trkpt lat="-39.2935580760" lon="-72.3896087799"><ele>250.14</ele><time>2024-08-24T01:14:27Z</time></trkpt><trkpt lat="-39.2942820210" lon="-72.3909769580"><ele>250.11</ele><time>2024-08-24T01:14:42Z</time></trkpt><trkpt lat="-39.2948427703" lon="-72.3925813381"><ele>250.38</ele><time>2024-08-24T01:14:58Z</time></trkpt><trkpt lat="-39.2950057983" lon="-72.3940963671"><ele>250.09</ele><time>2024-08-24T01:15:12Z</time></trkpt><trkpt lat="-39.2950061336" lon="-72.3956625257"><ele>247.61</ele><time>2024-08-24T01:15:26Z</time></trkpt><trkpt lat="-39.2949913815" lon="-72.3965082597"><ele>244.76</ele><time>2024-08-24T01:15:36Z</time></trkpt><trkpt lat="-39.2949586920" lon="-72.3966045678"><ele>244.51</ele><time>2024-08-24T01:15:39Z</time></trkpt><trkpt lat="-39.2949330434" lon="-72.3966165539"><ele>244.49</ele><time>2024-08-24T01:15:40Z</time></trkpt><trkpt lat="-39.2948988453" lon="-72.3966194876"><ele>244.48</ele><time>2024-08-24T01:15:41Z</time></trkpt><trkpt lat="-39.2948552594" lon="-72.3966065794"><ele>244.53</ele><time>2024-08-24T01:15:42Z</time></trkpt><trkpt lat="-39.2948014475" lon="-72.3965877201"><ele>244.56</ele><time>2024-08-24T01:15:43Z</time></trkpt><trkpt lat="-39.2940207571" lon="-72.3962700460"><ele>246.26</ele><time>2024-08-24T01:15:54Z</time></trkpt><trkpt lat="-39.2932292540" lon="-72.3959271424"><ele>249.34</ele><time>2024-08-24T01:16:05Z</time></trkpt><trkpt lat="-39.2924729548" lon="-72.3955784552"><ele>251.42</ele><time>2024-08-24T01:16:18Z</time></trkpt><trkpt lat="-39.2923942488" lon="-72.3956083786"><ele>251.46</ele><time>2024-08-24T01:16:28Z</time></trkpt><trkpt lat="-39.2923997808" lon="-72.3955935426"><ele>251.52</ele><time>2024-08-24T01:16:29Z</time></trkpt><trkpt lat="-39.2924283631" lon="-72.3955580872"><ele>251.60</ele><time>2024-08-24T01:16:33Z</time></trkpt><trkpt lat="-39.2927757930" lon="-72.3956894316"><ele>250.94</ele><time>2024-08-24T01:16:43Z</time></trkpt><trkpt lat="-39.2937277257" lon="-72.3961192556"><ele>247.79</ele><time>2024-08-24T01:16:58Z</time></trkpt><trkpt lat="-39.2946508247" lon="-72.3965045717"><ele>244.72</ele><time>2024-08-24T01:17:12Z</time></trkpt><trkpt lat="-39.2949653137" lon="-72.3966893926"><ele>243.76</ele><time>2024-08-24T01:17:21Z</time></trkpt><trkpt lat="-39.2949783895" lon="-72.3967364151"><ele>243.82</ele><time>2024-08-24T01:17:22Z</time></trkpt><trkpt lat="-39.2951321974" lon="-72.3975196201"><ele>240.92</ele><time>2024-08-24T01:17:31Z</time></trkpt><trkpt lat="-39.2952465266" lon="-72.3979261424"><ele>239.32</ele><time>2024-08-24T01:17:35Z</time></trkpt><trkpt lat="-39.2955931183" lon="-72.3995941412"><ele>236.40</ele><time>2024-08-24T01:17:52Z</time></trkpt><trkpt lat="-39.2956352793" lon="-72.3998609371"><ele>235.59</ele><time>2024-08-24T01:17:56Z</time></trkpt><trkpt lat="-39.2956361175" lon="-72.3999306746"><ele>235.34</ele><time>2024-08-24T01:17:57Z</time></trkpt><trkpt lat="-39.2956278194" lon="-72.4000092968"><ele>235.25</ele><time>2024-08-24T01:17:58Z</time></trkpt><trkpt lat="-39.2956074513" lon="-72.4000971392"><ele>235.03</ele><time>2024-08-24T01:17:59Z</time></trkpt><trkpt lat="-39.2955808807" lon="-72.4001926091"><ele>234.75</ele><time>2024-08-24T01:18:00Z</time></trkpt><trkpt lat="-39.2955542263" lon="-72.4002888333"><ele>234.53</ele><time>2024-08-24T01:18:01Z</time></trkpt><trkpt lat="-39.2954346165" lon="-72.4014570192"><ele>231.40</ele><time>2024-08-24T01:18:13Z</time></trkpt><trkpt lat="-39.2957149912" lon="-72.4029578827"><ele>234.74</ele><time>2024-08-24T01:18:28Z</time></trkpt><trkpt lat="-39.2958978005" lon="-72.4039550778"><ele>236.36</ele><time>2024-08-24T01:18:39Z</time></trkpt><trkpt lat="-39.2959420569" lon="-72.4043257255"><ele>236.17</ele><time>2024-08-24T01:18:45Z</time></trkpt><trkpt lat="-39.2959234491" lon="-72.4043535534"><ele>236.03</ele><time>2024-08-24T01:18:46Z</time></trkpt><trkpt lat="-39.2958979681" lon="-72.4043724127"><ele>235.71</ele><time>2024-08-24T01:18:47Z</time></trkpt><trkpt lat="-39.2958735768" lon="-72.4043754302"><ele>235.66</ele><time>2024-08-24T01:18:48Z</time></trkpt><trkpt lat="-39.2958520353" lon="-72.4043749273"><ele>235.54</ele><time>2024-08-24T01:18:49Z</time></trkpt><trkpt lat="-39.2957457528" lon="-72.4043591693"><ele>235.39</ele><time>2024-08-24T01:19:04Z</time></trkpt><trkpt lat="-39.2957294919" lon="-72.4043766875"><ele>235.66</ele><time>2024-08-24T01:19:30Z</time></trkpt><trkpt lat="-39.2957289889" lon="-72.4043853208"><ele>235.89</ele><time>2024-08-24T01:20:02Z</time></trkpt><trkpt lat="-39.2957246304" lon="-72.4043712392"><ele>236.27</ele><time>2024-08-24T01:20:29Z</time></trkpt></trkseg></trk></gpx>