<?xml version="1.0" encoding="UTF-8" standalone="no" ?><gpx xmlns="http://www.topografix.com/GPX/1/1" xmlns:gpxx="http://www.garmin.com/xmlschemas/GpxExtensions/v3" xmlns:gpxtrkx="http://www.garmin.com/xmlschemas/TrackStatsExtension/v1" xmlns:wptx1="http://www.garmin.com/xmlschemas/WaypointExtension/v1" xmlns:gpxtpx="http://www.garmin.com/xmlschemas/TrackPointExtension/v1" creator="GPSMAP 64sx" version="1.1" xmlns:xsi="http://www.w3.org/2001/XMLSchema-instance" xsi:schemaLocation="http://www.topografix.com/GPX/1/1 http://www.topografix.com/GPX/1/1/gpx.xsd http://www.garmin.com/xmlschemas/GpxExtensions/v3 http://www8.garmin.com/xmlschemas/GpxExtensionsv3.xsd http://www.garmin.com/xmlschemas/TrackStatsExtension/v1 http://www8.garmin.com/xmlschemas/TrackStatsExtension.xsd http://www.garmin.com/xmlschemas/WaypointExtension/v1 http://www8.garmin.com/xmlschemas/WaypointExtensionv1.xsd http://www.garmin.com/xmlschemas/TrackPointExtension/v1 http://www.garmin.com/xmlschemas/TrackPointExtensionv1.xsd"><metadata><link href="http://www.garmin.com"><text>Garmin International</text></link><time>2024-08-25T04:27:25Z</time></metadata><trk><name>GPS LAPAZ 240824</name><extensions><gpxx:TrackExtension><gpxx:DisplayColor>Cyan</gpxx:DisplayColor></gpxx:TrackExtension><gpxtrkx:TrackStatsExtension><gpxtrkx:Distance>3765.000</gpxtrkx:Distance><gpxtrkx:TotalElapsedTime>755</gpxtrkx:TotalElapsedTime><gpxtrkx:MovingTime>685</gpxtrkx:MovingTime><gpxtrkx:StoppedTime>69</gpxtrkx:StoppedTime><gpxtrkx:MovingSpeed>5.497</gpxtrkx:MovingSpeed><gpxtrkx:MaxSpeed>9.708</gpxtrkx:MaxSpeed><gpxtrkx:MaxElevation>81.808</gpxtrkx:MaxElevation><gpxtrkx:MinElevation>74.203</gpxtrkx:MinElevation><gpxtrkx:Ascent>12.000</gpxtrkx:Ascent><gpxtrkx:Descent>6.890</gpxtrkx:Descent><gpxtrkx:AvgAscentRate>0.028</gpxtrkx:AvgAscentRate><gpxtrkx:MaxAscentRate>0.148</gpxtrkx:MaxAscentRate><gpxtrkx:AvgDescentRate>0.041</gpxtrkx:AvgDescentRate><gpxtrkx:MaxDescentRate>-0.107</gpxtrkx:MaxDescentRate></gpxtrkx:TrackStatsExtension></extensions><trkseg><trkpt lat="-39.4056806993" lon="-72.7027216461"><ele>75.96</ele><time>2024-08-25T04:14:50Z</time></trkpt><trkpt lat="-39.4056804478" lon="-72.7027224004"><ele>75.96</ele><time>2024-08-25T04:14:51Z</time></trkpt><trkpt lat="-39.4057050906" lon="-72.7027457859"><ele>75.81</ele><time>2024-08-25T04:15:04Z</time></trkpt><trkpt lat="-39.4057606626" lon="-72.7028133441"><ele>75.93</ele><time>2024-08-25T04:15:06Z</time></trkpt><trkpt lat="-39.4061699510" lon="-72.7033633646"><ele>76.43</ele><time>2024-08-25T04:15:14Z</time></trkpt><trkpt lat="-39.4070459437" lon="-72.7047198080"><ele>79.32</ele><time>2024-08-25T04:15:30Z</time></trkpt><trkpt lat="-39.4074259792" lon="-72.7060187515"><ele>76.50</ele><time>2024-08-25T04:15:44Z</time></trkpt><trkpt lat="-39.4076056872" lon="-72.7063286304"><ele>76.43</ele><time>2024-08-25T04:15:49Z</time></trkpt><trkpt lat="-39.4076322578" lon="-72.7063902374"><ele>76.48</ele><time>2024-08-25T04:15:50Z</time></trkpt><trkpt lat="-39.4076502789" lon="-72.7064599749"><ele>76.48</ele><time>2024-08-25T04:15:51Z</time></trkpt><trkpt lat="-39.4076627679" lon="-72.7065380104"><ele>76.52</ele><time>2024-08-25T04:15:52Z</time></trkpt><trkpt lat="-39.4076747540" lon="-72.7066206560"><ele>76.57</ele><time>2024-08-25T04:15:53Z</time></trkpt><trkpt lat="-39.4076989777" lon="-72.7067859471"><ele>76.63</ele><time>2024-08-25T04:15:55Z</time></trkpt><trkpt lat="-39.4077240396" lon="-72.7068690956"><ele>76.57</ele><time>2024-08-25T04:15:56Z</time></trkpt><trkpt lat="-39.4077582378" lon="-72.7069480531"><ele>76.61</ele><time>2024-08-25T04:15:57Z</time></trkpt><trkpt lat="-39.4077964593" lon="-72.7070206404"><ele>76.68</ele><time>2024-08-25T04:15:58Z</time></trkpt><trkpt lat="-39.4078318309" lon="-72.7070884500"><ele>76.52</ele><time>2024-08-25T04:15:59Z</time></trkpt><trkpt lat="-39.4078594074" lon="-72.7071587741"><ele>76.58</ele><time>2024-08-25T04:16:00Z</time></trkpt><trkpt lat="-39.4078747462" lon="-72.7072374802"><ele>76.71</ele><time>2024-08-25T04:16:01Z</time></trkpt><trkpt lat="-39.4078843016" lon="-72.7073195390"><ele>76.69</ele><time>2024-08-25T04:16:02Z</time></trkpt><trkpt lat="-39.4078957848" lon="-72.7074046154"><ele>76.64</ele><time>2024-08-25T04:16:03Z</time></trkpt><trkpt lat="-39.4079141412" lon="-72.7074896079"><ele>76.77</ele><time>2024-08-25T04:16:04Z</time></trkpt><trkpt lat="-39.4079403765" lon="-72.7075743489"><ele>76.62</ele><time>2024-08-25T04:16:05Z</time></trkpt><trkpt lat="-39.4079838786" lon="-72.7076528873"><ele>76.64</ele><time>2024-08-25T04:16:06Z</time></trkpt><trkpt lat="-39.4080388639" lon="-72.7077222895"><ele>76.49</ele><time>2024-08-25T04:16:07Z</time></trkpt><trkpt lat="-39.4081006385" lon="-72.7077806275"><ele>76.45</ele><time>2024-08-25T04:16:08Z</time></trkpt><trkpt lat="-39.4081720524" lon="-72.7078224532"><ele>76.39</ele><time>2024-08-25T04:16:09Z</time></trkpt><trkpt lat="-39.4082482439" lon="-72.7078517061"><ele>76.41</ele><time>2024-08-25T04:16:10Z</time></trkpt><trkpt lat="-39.4083344098" lon="-72.7078624349"><ele>76.33</ele><time>2024-08-25T04:16:11Z</time></trkpt><trkpt lat="-39.4084190670" lon="-72.7078652009"><ele>76.33</ele><time>2024-08-25T04:16:12Z</time></trkpt><trkpt lat="-39.4085065741" lon="-72.7078622673"><ele>76.37</ele><time>2024-08-25T04:16:13Z</time></trkpt><trkpt lat="-39.4087591209" lon="-72.7079045959"><ele>76.45</ele><time>2024-08-25T04:16:16Z</time></trkpt><trkpt lat="-39.4088384137" lon="-72.7079409733"><ele>76.62</ele><time>2024-08-25T04:16:17Z</time></trkpt><trkpt lat="-39.4089169521" lon="-72.7079864871"><ele>76.70</ele><time>2024-08-25T04:16:18Z</time></trkpt><trkpt lat="-39.4089922216" lon="-72.7080412209"><ele>76.60</ele><time>2024-08-25T04:16:19Z</time></trkpt><trkpt lat="-39.4090660661" lon="-72.7081003133"><ele>76.54</ele><time>2024-08-25T04:16:20Z</time></trkpt><trkpt lat="-39.4095815532" lon="-72.7086109389"><ele>75.25</ele><time>2024-08-25T04:16:30Z</time></trkpt><trkpt lat="-39.4096032623" lon="-72.7086872142"><ele>75.29</ele><time>2024-08-25T04:16:32Z</time></trkpt><trkpt lat="-39.4095937908" lon="-72.7087326441"><ele>75.44</ele><time>2024-08-25T04:16:33Z</time></trkpt><trkpt lat="-39.4095742609" lon="-72.7087785769"><ele>75.36</ele><time>2024-08-25T04:16:34Z</time></trkpt><trkpt lat="-39.4095472712" lon="-72.7088274434"><ele>75.08</ele><time>2024-08-25T04:16:35Z</time></trkpt><trkpt lat="-39.4095144141" lon="-72.7088774834"><ele>75.04</ele><time>2024-08-25T04:16:36Z</time></trkpt><trkpt lat="-39.4094772823" lon="-72.7089298703"><ele>75.11</ele><time>2024-08-25T04:16:37Z</time></trkpt><trkpt lat="-39.4089902937" lon="-72.7096274123"><ele>74.46</ele><time>2024-08-25T04:16:52Z</time></trkpt><trkpt lat="-39.4088608772" lon="-72.7097475249"><ele>74.52</ele><time>2024-08-25T04:16:57Z</time></trkpt><trkpt lat="-39.4088212308" lon="-72.7097419929"><ele>74.55</ele><time>2024-08-25T04:16:58Z</time></trkpt><trkpt lat="-39.4087792374" lon="-72.7097201999"><ele>74.62</ele><time>2024-08-25T04:16:59Z</time></trkpt><trkpt lat="-39.4087392557" lon="-72.7096877620"><ele>74.78</ele><time>2024-08-25T04:17:00Z</time></trkpt><trkpt lat="-39.4086960051" lon="-72.7096448466"><ele>74.88</ele><time>2024-08-25T04:17:01Z</time></trkpt><trkpt lat="-39.4086540956" lon="-72.7095984947"><ele>74.94</ele><time>2024-08-25T04:17:02Z</time></trkpt><trkpt lat="-39.4080836233" lon="-72.7089601289"><ele>75.22</ele><time>2024-08-25T04:17:16Z</time></trkpt><trkpt lat="-39.4075919408" lon="-72.7083826996"><ele>74.60</ele><time>2024-08-25T04:17:30Z</time></trkpt><trkpt lat="-39.4072284177" lon="-72.7080277260"><ele>74.32</ele><time>2024-08-25T04:17:43Z</time></trkpt><trkpt lat="-39.4070881885" lon="-72.7082937676"><ele>74.22</ele><time>2024-08-25T04:17:50Z</time></trkpt><trkpt lat="-39.4071859214" lon="-72.7092637215"><ele>74.56</ele><time>2024-08-25T04:18:06Z</time></trkpt><trkpt lat="-39.4074134063" lon="-72.7100403048"><ele>74.80</ele><time>2024-08-25T04:18:19Z</time></trkpt><trkpt lat="-39.4074458443" lon="-72.7100835554"><ele>74.93</ele><time>2024-08-25T04:18:20Z</time></trkpt><trkpt lat="-39.4078136422" lon="-72.7104719728"><ele>75.06</ele><time>2024-08-25T04:18:32Z</time></trkpt><trkpt lat="-39.4082733057" lon="-72.7109696064"><ele>75.89</ele><time>2024-08-25T04:18:48Z</time></trkpt><trkpt lat="-39.4088374916" lon="-72.7115924656"><ele>75.98</ele><time>2024-08-25T04:19:08Z</time></trkpt><trkpt lat="-39.4091374800" lon="-72.7116540726"><ele>75.75</ele><time>2024-08-25T04:19:19Z</time></trkpt><trkpt lat="-39.4095389731" lon="-72.7109654155"><ele>76.22</ele><time>2024-08-25T04:19:32Z</time></trkpt><trkpt lat="-39.4099095371" lon="-72.7103747427"><ele>76.13</ele><time>2024-08-25T04:19:47Z</time></trkpt><trkpt lat="-39.4104129542" lon="-72.7095803060"><ele>75.60</ele><time>2024-08-25T04:20:05Z</time></trkpt><trkpt lat="-39.4104311429" lon="-72.7095676493"><ele>75.59</ele><time>2024-08-25T04:20:06Z</time></trkpt><trkpt lat="-39.4104573783" lon="-72.7095614467"><ele>75.57</ele><time>2024-08-25T04:20:07Z</time></trkpt><trkpt lat="-39.4104897324" lon="-72.7095702477"><ele>75.78</ele><time>2024-08-25T04:20:08Z</time></trkpt><trkpt lat="-39.4105209969" lon="-72.7095976565"><ele>75.74</ele><time>2024-08-25T04:20:09Z</time></trkpt><trkpt lat="-39.4105571229" lon="-72.7096382249"><ele>75.75</ele><time>2024-08-25T04:20:10Z</time></trkpt><trkpt lat="-39.4111995958" lon="-72.7103843819"><ele>75.42</ele><time>2024-08-25T04:20:25Z</time></trkpt><trkpt lat="-39.4111206383" lon="-72.7107071690"><ele>74.87</ele><time>2024-08-25T04:20:33Z</time></trkpt><trkpt lat="-39.4106098451" lon="-72.7114708442"><ele>75.56</ele><time>2024-08-25T04:20:51Z</time></trkpt><trkpt lat="-39.4100831263" lon="-72.7123047598"><ele>76.40</ele><time>2024-08-25T04:21:08Z</time></trkpt><trkpt lat="-39.4098510314" lon="-72.7127317339"><ele>76.35</ele><time>2024-08-25T04:21:19Z</time></trkpt><trkpt lat="-39.4098671246" lon="-72.7127753198"><ele>76.20</ele><time>2024-08-25T04:21:20Z</time></trkpt><trkpt lat="-39.4098910131" lon="-72.7128173131"><ele>76.16</ele><time>2024-08-25T04:21:21Z</time></trkpt><trkpt lat="-39.4099238701" lon="-72.7128605638"><ele>76.09</ele><time>2024-08-25T04:21:22Z</time></trkpt><trkpt lat="-39.4099617563" lon="-72.7129040658"><ele>76.08</ele><time>2024-08-25T04:21:23Z</time></trkpt><trkpt lat="-39.4105534349" lon="-72.7135562617"><ele>75.28</ele><time>2024-08-25T04:21:38Z</time></trkpt><trkpt lat="-39.4105920754" lon="-72.7135762945"><ele>75.33</ele><time>2024-08-25T04:21:39Z</time></trkpt><trkpt lat="-39.4106333982" lon="-72.7135824971"><ele>75.36</ele><time>2024-08-25T04:21:40Z</time></trkpt><trkpt lat="-39.4106768165" lon="-72.7135675773"><ele>75.33</ele><time>2024-08-25T04:21:41Z</time></trkpt><trkpt lat="-39.4107166305" lon="-72.7135369834"><ele>75.29</ele><time>2024-08-25T04:21:42Z</time></trkpt><trkpt lat="-39.4107513316" lon="-72.7134923078"><ele>75.34</ele><time>2024-08-25T04:21:43Z</time></trkpt><trkpt lat="-39.4107855298" lon="-72.7134426031"><ele>75.34</ele><time>2024-08-25T04:21:44Z</time></trkpt><trkpt lat="-39.4113993365" lon="-72.7124962863"><ele>75.19</ele><time>2024-08-25T04:22:01Z</time></trkpt><trkpt lat="-39.4120258000" lon="-72.7115650568"><ele>75.28</ele><time>2024-08-25T04:22:19Z</time></trkpt><trkpt lat="-39.4121189229" lon="-72.7114703413"><ele>75.49</ele><time>2024-08-25T04:22:23Z</time></trkpt><trkpt lat="-39.4121522829" lon="-72.7114757895"><ele>75.69</ele><time>2024-08-25T04:22:24Z</time></trkpt><trkpt lat="-39.4121901691" lon="-72.7115006000"><ele>75.57</ele><time>2024-08-25T04:22:25Z</time></trkpt><trkpt lat="-39.4122361019" lon="-72.7115503047"><ele>75.74</ele><time>2024-08-25T04:22:26Z</time></trkpt><trkpt lat="-39.4122868124" lon="-72.7116088942"><ele>75.70</ele><time>2024-08-25T04:22:27Z</time></trkpt><trkpt lat="-39.4128483161" lon="-72.7122678794"><ele>75.36</ele><time>2024-08-25T04:22:38Z</time></trkpt><trkpt lat="-39.4128671754" lon="-72.7123115491"><ele>75.22</ele><time>2024-08-25T04:22:39Z</time></trkpt><trkpt lat="-39.4128764793" lon="-72.7123536263"><ele>75.28</ele><time>2024-08-25T04:22:40Z</time></trkpt><trkpt lat="-39.4128727913" lon="-72.7123946976"><ele>75.18</ele><time>2024-08-25T04:22:41Z</time></trkpt><trkpt lat="-39.4128565304" lon="-72.7124378644"><ele>75.27</ele><time>2024-08-25T04:22:42Z</time></trkpt><trkpt lat="-39.4128304627" lon="-72.7124816179"><ele>75.05</ele><time>2024-08-25T04:22:43Z</time></trkpt><trkpt lat="-39.4127986114" lon="-72.7125287242"><ele>74.79</ele><time>2024-08-25T04:22:44Z</time></trkpt><trkpt lat="-39.4122857228" lon="-72.7132856939"><ele>75.37</ele><time>2024-08-25T04:22:57Z</time></trkpt><trkpt lat="-39.4122195058" lon="-72.7133679204"><ele>75.23</ele><time>2024-08-25T04:22:59Z</time></trkpt><trkpt lat="-39.4121857267" lon="-72.7133913059"><ele>75.30</ele><time>2024-08-25T04:23:00Z</time></trkpt><trkpt lat="-39.4121512771" lon="-72.7134003583"><ele>75.29</ele><time>2024-08-25T04:23:01Z</time></trkpt><trkpt lat="-39.4121159054" lon="-72.7133940719"><ele>75.36</ele><time>2024-08-25T04:23:02Z</time></trkpt><trkpt lat="-39.4120800309" lon="-72.7133733686"><ele>75.57</ele><time>2024-08-25T04:23:03Z</time></trkpt><trkpt lat="-39.4120434858" lon="-72.7133418527"><ele>75.68</ele><time>2024-08-25T04:23:04Z</time></trkpt><trkpt lat="-39.4120056834" lon="-72.7133046370"><ele>75.63</ele><time>2024-08-25T04:23:05Z</time></trkpt><trkpt lat="-39.4119711500" lon="-72.7132614702"><ele>75.81</ele><time>2024-08-25T04:23:06Z</time></trkpt><trkpt lat="-39.4114378095" lon="-72.7126210090"><ele>75.87</ele><time>2024-08-25T04:23:21Z</time></trkpt><trkpt lat="-39.4109593704" lon="-72.7121007442"><ele>76.32</ele><time>2024-08-25T04:23:33Z</time></trkpt><trkpt lat="-39.4105152972" lon="-72.7116089780"><ele>77.09</ele><time>2024-08-25T04:23:46Z</time></trkpt><trkpt lat="-39.4100677036" lon="-72.7111308742"><ele>78.53</ele><time>2024-08-25T04:23:57Z</time></trkpt><trkpt lat="-39.4096069504" lon="-72.7106267028"><ele>78.26</ele><time>2024-08-25T04:24:10Z</time></trkpt><trkpt lat="-39.4090956543" lon="-72.7100812085"><ele>77.97</ele><time>2024-08-25T04:24:22Z</time></trkpt><trkpt lat="-39.4088732824" lon="-72.7097894344"><ele>77.64</ele><time>2024-08-25T04:24:30Z</time></trkpt><trkpt lat="-39.4088735338" lon="-72.7097443398"><ele>77.55</ele><time>2024-08-25T04:24:31Z</time></trkpt><trkpt lat="-39.4088886213" lon="-72.7096943837"><ele>77.64</ele><time>2024-08-25T04:24:32Z</time></trkpt><trkpt lat="-39.4089157786" lon="-72.7096423320"><ele>77.76</ele><time>2024-08-25T04:24:33Z</time></trkpt><trkpt lat="-39.4089534972" lon="-72.7095845807"><ele>77.64</ele><time>2024-08-25T04:24:34Z</time></trkpt><trkpt lat="-39.4094492029" lon="-72.7088782378"><ele>78.19</ele><time>2024-08-25T04:24:47Z</time></trkpt><trkpt lat="-39.4095874205" lon="-72.7086658403"><ele>78.51</ele><time>2024-08-25T04:24:54Z</time></trkpt><trkpt lat="-39.4095935393" lon="-72.7086318936"><ele>78.78</ele><time>2024-08-25T04:24:55Z</time></trkpt><trkpt lat="-39.4095911086" lon="-72.7085898165"><ele>78.88</ele><time>2024-08-25T04:24:56Z</time></trkpt><trkpt lat="-39.4095751829" lon="-72.7085481584"><ele>78.84</ele><time>2024-08-25T04:24:57Z</time></trkpt><trkpt lat="-39.4095455110" lon="-72.7085061651"><ele>78.86</ele><time>2024-08-25T04:24:58Z</time></trkpt><trkpt lat="-39.4095057808" lon="-72.7084596455"><ele>79.17</ele><time>2024-08-25T04:24:59Z</time></trkpt><trkpt lat="-39.4088317081" lon="-72.7078244649"><ele>80.62</ele><time>2024-08-25T04:25:10Z</time></trkpt><trkpt lat="-39.4087523315" lon="-72.7077873331"><ele>80.68</ele><time>2024-08-25T04:25:11Z</time></trkpt><trkpt lat="-39.4086684287" lon="-72.7077595051"><ele>80.69</ele><time>2024-08-25T04:25:12Z</time></trkpt><trkpt lat="-39.4085872080" lon="-72.7077427413"><ele>80.61</ele><time>2024-08-25T04:25:13Z</time></trkpt><trkpt lat="-39.4085067417" lon="-72.7077356167"><ele>80.47</ele><time>2024-08-25T04:25:14Z</time></trkpt><trkpt lat="-39.4084259402" lon="-72.7077338565"><ele>80.35</ele><time>2024-08-25T04:25:15Z</time></trkpt><trkpt lat="-39.4081965275" lon="-72.7077085432"><ele>80.23</ele><time>2024-08-25T04:25:18Z</time></trkpt><trkpt lat="-39.4081225153" lon="-72.7076775301"><ele>80.12</ele><time>2024-08-25T04:25:19Z</time></trkpt><trkpt lat="-39.4080536161" lon="-72.7076317649"><ele>80.19</ele><time>2024-08-25T04:25:20Z</time></trkpt><trkpt lat="-39.4079951942" lon="-72.7075690683"><ele>80.27</ele><time>2024-08-25T04:25:21Z</time></trkpt><trkpt lat="-39.4079516083" lon="-72.7074934635"><ele>80.36</ele><time>2024-08-25T04:25:22Z</time></trkpt><trkpt lat="-39.4079211820" lon="-72.7074121591"><ele>80.36</ele><time>2024-08-25T04:25:23Z</time></trkpt><trkpt lat="-39.4079085253" lon="-72.7073353808"><ele>80.31</ele><time>2024-08-25T04:25:24Z</time></trkpt><trkpt lat="-39.4079164881" lon="-72.7072731033"><ele>80.31</ele><time>2024-08-25T04:25:25Z</time></trkpt><trkpt lat="-39.4079348445" lon="-72.7072274219"><ele>80.39</ele><time>2024-08-25T04:25:26Z</time></trkpt><trkpt lat="-39.4079497643" lon="-72.7072032820"><ele>80.33</ele><time>2024-08-25T04:25:27Z</time></trkpt><trkpt lat="-39.4079599064" lon="-72.7071910445"><ele>80.22</ele><time>2024-08-25T04:25:28Z</time></trkpt><trkpt lat="-39.4080356788" lon="-72.7071381547"><ele>80.25</ele><time>2024-08-25T04:25:31Z</time></trkpt><trkpt lat="-39.4080831204" lon="-72.7071259171"><ele>80.47</ele><time>2024-08-25T04:25:32Z</time></trkpt><trkpt lat="-39.4082934223" lon="-72.7070913836"><ele>80.57</ele><time>2024-08-25T04:25:35Z</time></trkpt><trkpt lat="-39.4083629921" lon="-72.7070653159"><ele>80.64</ele><time>2024-08-25T04:25:36Z</time></trkpt><trkpt lat="-39.4084313884" lon="-72.7070282679"><ele>80.67</ele><time>2024-08-25T04:25:37Z</time></trkpt><trkpt lat="-39.4086465519" lon="-72.7067810856"><ele>80.81</ele><time>2024-08-25T04:25:41Z</time></trkpt><trkpt lat="-39.4086549338" lon="-72.7066774853"><ele>80.77</ele><time>2024-08-25T04:25:42Z</time></trkpt><trkpt lat="-39.4086592924" lon="-72.7065803390"><ele>80.95</ele><time>2024-08-25T04:25:43Z</time></trkpt><trkpt lat="-39.4086547662" lon="-72.7064799238"><ele>80.93</ele><time>2024-08-25T04:25:44Z</time></trkpt><trkpt lat="-39.4086423609" lon="-72.7063803468"><ele>81.02</ele><time>2024-08-25T04:25:45Z</time></trkpt><trkpt lat="-39.4086214900" lon="-72.7062816080"><ele>81.32</ele><time>2024-08-25T04:25:46Z</time></trkpt><trkpt lat="-39.4085976854" lon="-72.7061953582"><ele>81.27</ele><time>2024-08-25T04:25:47Z</time></trkpt><trkpt lat="-39.4085696898" lon="-72.7061131317"><ele>81.19</ele><time>2024-08-25T04:25:48Z</time></trkpt><trkpt lat="-39.4085387606" lon="-72.7060443163"><ele>81.21</ele><time>2024-08-25T04:25:49Z</time></trkpt><trkpt lat="-39.4085074123" lon="-72.7059822064"><ele>81.15</ele><time>2024-08-25T04:25:50Z</time></trkpt><trkpt lat="-39.4083994534" lon="-72.7057957090"><ele>80.96</ele><time>2024-08-25T04:25:58Z</time></trkpt><trkpt lat="-39.4083718769" lon="-72.7057811245"><ele>81.17</ele><time>2024-08-25T04:26:29Z</time></trkpt><trkpt lat="-39.4083888922" lon="-72.7057786938"><ele>81.74</ele><time>2024-08-25T04:27:03Z</time></trkpt></trkseg></trk></gpx>