<?xml version="1.0" encoding="UTF-8" standalone="no" ?><gpx xmlns="http://www.topografix.com/GPX/1/1" xmlns:gpxx="http://www.garmin.com/xmlschemas/GpxExtensions/v3" xmlns:gpxtrkx="http://www.garmin.com/xmlschemas/TrackStatsExtension/v1" xmlns:wptx1="http://www.garmin.com/xmlschemas/WaypointExtension/v1" xmlns:gpxtpx="http://www.garmin.com/xmlschemas/TrackPointExtension/v1" creator="GPSMAP 64sx" version="1.1" xmlns:xsi="http://www.w3.org/2001/XMLSchema-instance" xsi:schemaLocation="http://www.topografix.com/GPX/1/1 http://www.topografix.com/GPX/1/1/gpx.xsd http://www.garmin.com/xmlschemas/GpxExtensions/v3 http://www8.garmin.com/xmlschemas/GpxExtensionsv3.xsd http://www.garmin.com/xmlschemas/TrackStatsExtension/v1 http://www8.garmin.com/xmlschemas/TrackStatsExtension.xsd http://www.garmin.com/xmlschemas/WaypointExtension/v1 http://www8.garmin.com/xmlschemas/WaypointExtensionv1.xsd http://www.garmin.com/xmlschemas/TrackPointExtension/v1 http://www.garmin.com/xmlschemas/TrackPointExtensionv1.xsd"><metadata><link href="http://www.garmin.com"><text>Garmin International</text></link><time>2024-08-14T01:33:46Z</time></metadata><trk><name>240813 HUIS</name><extensions><gpxx:TrackExtension><gpxx:DisplayColor>Cyan</gpxx:DisplayColor></gpxx:TrackExtension><gpxtrkx:TrackStatsExtension><gpxtrkx:Distance>12995.000</gpxtrkx:Distance><gpxtrkx:TotalElapsedTime>1650</gpxtrkx:TotalElapsedTime><gpxtrkx:MovingTime>1587</gpxtrkx:MovingTime><gpxtrkx:StoppedTime>61</gpxtrkx:StoppedTime><gpxtrkx:MovingSpeed>8.189</gpxtrkx:MovingSpeed><gpxtrkx:MaxSpeed>21.079</gpxtrkx:MaxSpeed><gpxtrkx:MaxElevation>243.916</gpxtrkx:MaxElevation><gpxtrkx:MinElevation>168.126</gpxtrkx:MinElevation><gpxtrkx:Ascent>160.000</gpxtrkx:Ascent><gpxtrkx:Descent>134.357</gpxtrkx:Descent><gpxtrkx:AvgAscentRate>0.145</gpxtrkx:AvgAscentRate><gpxtrkx:MaxAscentRate>1.064</gpxtrkx:MaxAscentRate><gpxtrkx:AvgDescentRate>0.124</gpxtrkx:AvgDescentRate><gpxtrkx:MaxDescentRate>-1.449</gpxtrkx:MaxDescentRate></gpxtrkx:TrackStatsExtension></extensions><trkseg><trkpt lat="-39.2733642273" lon="-72.4092628341"><ele>200.48</ele><time>2024-08-14T01:06:16Z</time></trkpt><trkpt lat="-39.2733674124" lon="-72.4092685338"><ele>200.48</ele><time>2024-08-14T01:06:17Z</time></trkpt><trkpt lat="-39.2733966652" lon="-72.4092778377"><ele>199.72</ele><time>2024-08-14T01:06:32Z</time></trkpt><trkpt lat="-39.2735867668" lon="-72.4093324039"><ele>199.86</ele><time>2024-08-14T01:06:39Z</time></trkpt><trkpt lat="-39.2736393213" lon="-72.4093490001"><ele>199.85</ele><time>2024-08-14T01:06:40Z</time></trkpt><trkpt lat="-39.2743862327" lon="-72.4095613975"><ele>200.01</ele><time>2024-08-14T01:06:50Z</time></trkpt><trkpt lat="-39.2755364813" lon="-72.4099285249"><ele>200.33</ele><time>2024-08-14T01:07:02Z</time></trkpt><trkpt lat="-39.2767687049" lon="-72.4101690017"><ele>201.49</ele><time>2024-08-14T01:07:12Z</time></trkpt><trkpt lat="-39.2780620325" lon="-72.4097007047"><ele>201.33</ele><time>2024-08-14T01:07:22Z</time></trkpt><trkpt lat="-39.2784796190" lon="-72.4096722063"><ele>199.12</ele><time>2024-08-14T01:07:25Z</time></trkpt><trkpt lat="-39.2787573952" lon="-72.4097188096"><ele>198.10</ele><time>2024-08-14T01:07:27Z</time></trkpt><trkpt lat="-39.2790334113" lon="-72.4098128546"><ele>195.50</ele><time>2024-08-14T01:07:29Z</time></trkpt><trkpt lat="-39.2791708745" lon="-72.4098890461"><ele>194.23</ele><time>2024-08-14T01:07:30Z</time></trkpt><trkpt lat="-39.2792840302" lon="-72.4100274313"><ele>193.60</ele><time>2024-08-14T01:07:31Z</time></trkpt><trkpt lat="-39.2794001196" lon="-72.4101636373"><ele>192.50</ele><time>2024-08-14T01:07:32Z</time></trkpt><trkpt lat="-39.2795158736" lon="-72.4103280902"><ele>191.46</ele><time>2024-08-14T01:07:33Z</time></trkpt><trkpt lat="-39.2796374112" lon="-72.4104961473"><ele>189.96</ele><time>2024-08-14T01:07:34Z</time></trkpt><trkpt lat="-39.2798866890" lon="-72.4108270649"><ele>186.49</ele><time>2024-08-14T01:07:36Z</time></trkpt><trkpt lat="-39.2801316082" lon="-72.4111457448"><ele>183.39</ele><time>2024-08-14T01:07:38Z</time></trkpt><trkpt lat="-39.2805379629" lon="-72.4115435500"><ele>179.30</ele><time>2024-08-14T01:07:41Z</time></trkpt><trkpt lat="-39.2806906812" lon="-72.4116467312"><ele>177.57</ele><time>2024-08-14T01:07:42Z</time></trkpt><trkpt lat="-39.2808447406" lon="-72.4117259402"><ele>175.89</ele><time>2024-08-14T01:07:43Z</time></trkpt><trkpt lat="-39.2813413683" lon="-72.4119110964"><ele>171.79</ele><time>2024-08-14T01:07:46Z</time></trkpt><trkpt lat="-39.2820188776" lon="-72.4121375754"><ele>169.89</ele><time>2024-08-14T01:07:50Z</time></trkpt><trkpt lat="-39.2837955058" lon="-72.4127223808"><ele>169.33</ele><time>2024-08-14T01:08:00Z</time></trkpt><trkpt lat="-39.2851781845" lon="-72.4131627660"><ele>172.81</ele><time>2024-08-14T01:08:08Z</time></trkpt><trkpt lat="-39.2875113711" lon="-72.4139525089"><ele>175.05</ele><time>2024-08-14T01:08:21Z</time></trkpt><trkpt lat="-39.2890903540" lon="-72.4143317062"><ele>171.68</ele><time>2024-08-14T01:08:30Z</time></trkpt><trkpt lat="-39.2901626509" lon="-72.4140513316"><ele>168.54</ele><time>2024-08-14T01:08:37Z</time></trkpt><trkpt lat="-39.2902911454" lon="-72.4139819294"><ele>168.35</ele><time>2024-08-14T01:08:38Z</time></trkpt><trkpt lat="-39.2909439281" lon="-72.4133972079"><ele>168.60</ele><time>2024-08-14T01:08:45Z</time></trkpt><trkpt lat="-39.2914236244" lon="-72.4125954788"><ele>170.97</ele><time>2024-08-14T01:08:54Z</time></trkpt><trkpt lat="-39.2914586607" lon="-72.4125058763"><ele>171.27</ele><time>2024-08-14T01:08:55Z</time></trkpt><trkpt lat="-39.2917680368" lon="-72.4114997126"><ele>174.75</ele><time>2024-08-14T01:09:05Z</time></trkpt><trkpt lat="-39.2919260357" lon="-72.4109573197"><ele>176.52</ele><time>2024-08-14T01:09:10Z</time></trkpt><trkpt lat="-39.2921295483" lon="-72.4103165232"><ele>178.30</ele><time>2024-08-14T01:09:16Z</time></trkpt><trkpt lat="-39.2923487350" lon="-72.4093892332"><ele>180.26</ele><time>2024-08-14T01:09:28Z</time></trkpt><trkpt lat="-39.2923357431" lon="-72.4093368463"><ele>181.93</ele><time>2024-08-14T01:09:31Z</time></trkpt><trkpt lat="-39.2922334839" lon="-72.4092661869"><ele>180.46</ele><time>2024-08-14T01:09:34Z</time></trkpt><trkpt lat="-39.2920005508" lon="-72.4091569707"><ele>178.99</ele><time>2024-08-14T01:09:38Z</time></trkpt><trkpt lat="-39.2911390588" lon="-72.4087279011"><ele>176.75</ele><time>2024-08-14T01:09:51Z</time></trkpt><trkpt lat="-39.2910827324" lon="-72.4086951278"><ele>176.74</ele><time>2024-08-14T01:09:52Z</time></trkpt><trkpt lat="-39.2909974046" lon="-72.4083420821"><ele>178.10</ele><time>2024-08-14T01:09:58Z</time></trkpt><trkpt lat="-39.2910346203" lon="-72.4082601909"><ele>177.67</ele><time>2024-08-14T01:09:59Z</time></trkpt><trkpt lat="-39.2911759391" lon="-72.4078913871"><ele>177.29</ele><time>2024-08-14T01:10:04Z</time></trkpt><trkpt lat="-39.2914769333" lon="-72.4078401737"><ele>179.79</ele><time>2024-08-14T01:10:11Z</time></trkpt><trkpt lat="-39.2915314995" lon="-72.4078796525"><ele>179.62</ele><time>2024-08-14T01:10:12Z</time></trkpt><trkpt lat="-39.2924260162" lon="-72.4085503723"><ele>182.33</ele><time>2024-08-14T01:10:27Z</time></trkpt><trkpt lat="-39.2925646529" lon="-72.4086870812"><ele>183.52</ele><time>2024-08-14T01:10:34Z</time></trkpt><trkpt lat="-39.2924707755" lon="-72.4090920947"><ele>182.81</ele><time>2024-08-14T01:10:43Z</time></trkpt><trkpt lat="-39.2924157903" lon="-72.4093603995"><ele>182.45</ele><time>2024-08-14T01:10:47Z</time></trkpt><trkpt lat="-39.2924153712" lon="-72.4094087631"><ele>182.10</ele><time>2024-08-14T01:10:48Z</time></trkpt><trkpt lat="-39.2924172152" lon="-72.4094494991"><ele>181.66</ele><time>2024-08-14T01:10:49Z</time></trkpt><trkpt lat="-39.2924275249" lon="-72.4094816856"><ele>181.43</ele><time>2024-08-14T01:10:50Z</time></trkpt><trkpt lat="-39.2924445402" lon="-72.4095044844"><ele>182.07</ele><time>2024-08-14T01:10:51Z</time></trkpt><trkpt lat="-39.2924699374" lon="-72.4095250200"><ele>181.48</ele><time>2024-08-14T01:10:52Z</time></trkpt><trkpt lat="-39.2925056443" lon="-72.4095519260"><ele>181.04</ele><time>2024-08-14T01:10:53Z</time></trkpt><trkpt lat="-39.2931392323" lon="-72.4098857772"><ele>183.10</ele><time>2024-08-14T01:11:02Z</time></trkpt><trkpt lat="-39.2933659628" lon="-72.4100224022"><ele>186.31</ele><time>2024-08-14T01:11:05Z</time></trkpt><trkpt lat="-39.2938652728" lon="-72.4103099015"><ele>190.21</ele><time>2024-08-14T01:11:12Z</time></trkpt><trkpt lat="-39.2939756624" lon="-72.4103708379"><ele>192.68</ele><time>2024-08-14T01:11:14Z</time></trkpt><trkpt lat="-39.2940370180" lon="-72.4103773758"><ele>193.31</ele><time>2024-08-14T01:11:15Z</time></trkpt><trkpt lat="-39.2940971162" lon="-72.4103596900"><ele>194.08</ele><time>2024-08-14T01:11:16Z</time></trkpt><trkpt lat="-39.2941484135" lon="-72.4103275035"><ele>193.34</ele><time>2024-08-14T01:11:17Z</time></trkpt><trkpt lat="-39.2941976152" lon="-72.4102811515"><ele>193.34</ele><time>2024-08-14T01:11:18Z</time></trkpt><trkpt lat="-39.2942496669" lon="-72.4102371465"><ele>193.48</ele><time>2024-08-14T01:11:19Z</time></trkpt><trkpt lat="-39.2943830229" lon="-72.4101113342"><ele>195.00</ele><time>2024-08-14T01:11:22Z</time></trkpt><trkpt lat="-39.2944133654" lon="-72.4098734558"><ele>195.94</ele><time>2024-08-14T01:11:29Z</time></trkpt><trkpt lat="-39.2943873815" lon="-72.4098113459"><ele>195.80</ele><time>2024-08-14T01:11:30Z</time></trkpt><trkpt lat="-39.2943127826" lon="-72.4096712843"><ele>194.07</ele><time>2024-08-14T01:11:32Z</time></trkpt><trkpt lat="-39.2940068431" lon="-72.4090598244"><ele>191.00</ele><time>2024-08-14T01:11:39Z</time></trkpt><trkpt lat="-39.2937786877" lon="-72.4087155797"><ele>189.30</ele><time>2024-08-14T01:11:47Z</time></trkpt><trkpt lat="-39.2932575010" lon="-72.4083813932"><ele>188.41</ele><time>2024-08-14T01:11:55Z</time></trkpt><trkpt lat="-39.2930620350" lon="-72.4082430080"><ele>187.12</ele><time>2024-08-14T01:11:58Z</time></trkpt><trkpt lat="-39.2930199578" lon="-72.4082024395"><ele>186.88</ele><time>2024-08-14T01:11:59Z</time></trkpt><trkpt lat="-39.2929329537" lon="-72.4079668242"><ele>185.71</ele><time>2024-08-14T01:12:07Z</time></trkpt><trkpt lat="-39.2929487955" lon="-72.4079125933"><ele>186.46</ele><time>2024-08-14T01:12:08Z</time></trkpt><trkpt lat="-39.2931939662" lon="-72.4072351679"><ele>189.51</ele><time>2024-08-14T01:12:17Z</time></trkpt><trkpt lat="-39.2934836447" lon="-72.4064529687"><ele>191.64</ele><time>2024-08-14T01:12:26Z</time></trkpt><trkpt lat="-39.2935105506" lon="-72.4064081255"><ele>192.51</ele><time>2024-08-14T01:12:27Z</time></trkpt><trkpt lat="-39.2935398873" lon="-72.4063735083"><ele>194.41</ele><time>2024-08-14T01:12:29Z</time></trkpt><trkpt lat="-39.2935693078" lon="-72.4063574150"><ele>194.34</ele><time>2024-08-14T01:12:31Z</time></trkpt><trkpt lat="-39.2935964651" lon="-72.4063716643"><ele>194.89</ele><time>2024-08-14T01:12:32Z</time></trkpt><trkpt lat="-39.2936277296" lon="-72.4063859973"><ele>195.29</ele><time>2024-08-14T01:12:33Z</time></trkpt><trkpt lat="-39.2937927693" lon="-72.4064720795"><ele>197.05</ele><time>2024-08-14T01:12:37Z</time></trkpt><trkpt lat="-39.2943624035" lon="-72.4068196770"><ele>197.85</ele><time>2024-08-14T01:12:47Z</time></trkpt><trkpt lat="-39.2944825161" lon="-72.4069459084"><ele>196.71</ele><time>2024-08-14T01:12:51Z</time></trkpt><trkpt lat="-39.2944867071" lon="-72.4069888238"><ele>197.08</ele><time>2024-08-14T01:12:52Z</time></trkpt><trkpt lat="-39.2944802530" lon="-72.4070435576"><ele>197.23</ele><time>2024-08-14T01:12:53Z</time></trkpt><trkpt lat="-39.2944622319" lon="-72.4071128760"><ele>197.19</ele><time>2024-08-14T01:12:54Z</time></trkpt><trkpt lat="-39.2944374215" lon="-72.4071926717"><ele>197.27</ele><time>2024-08-14T01:12:55Z</time></trkpt><trkpt lat="-39.2942128703" lon="-72.4078365695"><ele>194.65</ele><time>2024-08-14T01:13:02Z</time></trkpt><trkpt lat="-39.2940345034" lon="-72.4082523119"><ele>192.50</ele><time>2024-08-14T01:13:07Z</time></trkpt><trkpt lat="-39.2938786000" lon="-72.4086246360"><ele>191.01</ele><time>2024-08-14T01:13:12Z</time></trkpt><trkpt lat="-39.2938713077" lon="-72.4086768553"><ele>190.69</ele><time>2024-08-14T01:13:13Z</time></trkpt><trkpt lat="-39.2938768398" lon="-72.4087215308"><ele>190.61</ele><time>2024-08-14T01:13:14Z</time></trkpt><trkpt lat="-39.2938932683" lon="-72.4087509513"><ele>190.63</ele><time>2024-08-14T01:13:15Z</time></trkpt><trkpt lat="-39.2939213477" lon="-72.4087609258"><ele>190.80</ele><time>2024-08-14T01:13:16Z</time></trkpt><trkpt lat="-39.2939611617" lon="-72.4087444972"><ele>191.10</ele><time>2024-08-14T01:13:17Z</time></trkpt><trkpt lat="-39.2940081842" lon="-72.4087117240"><ele>191.62</ele><time>2024-08-14T01:13:18Z</time></trkpt><trkpt lat="-39.2940547876" lon="-72.4086724129"><ele>191.93</ele><time>2024-08-14T01:13:19Z</time></trkpt><trkpt lat="-39.2943033949" lon="-72.4084462691"><ele>195.10</ele><time>2024-08-14T01:13:23Z</time></trkpt><trkpt lat="-39.2945469730" lon="-72.4082159344"><ele>198.41</ele><time>2024-08-14T01:13:27Z</time></trkpt><trkpt lat="-39.2947224900" lon="-72.4080493860"><ele>199.85</ele><time>2024-08-14T01:13:30Z</time></trkpt><trkpt lat="-39.2952579260" lon="-72.4075768981"><ele>203.19</ele><time>2024-08-14T01:13:39Z</time></trkpt><trkpt lat="-39.2953415774" lon="-72.4074730463"><ele>204.29</ele><time>2024-08-14T01:13:42Z</time></trkpt><trkpt lat="-39.2953419127" lon="-72.4074375071"><ele>204.36</ele><time>2024-08-14T01:13:43Z</time></trkpt><trkpt lat="-39.2953273281" lon="-72.4074044824"><ele>204.42</ele><time>2024-08-14T01:13:44Z</time></trkpt><trkpt lat="-39.2952958122" lon="-72.4073697813"><ele>204.41</ele><time>2024-08-14T01:13:45Z</time></trkpt><trkpt lat="-39.2952527292" lon="-72.4073290452"><ele>204.08</ele><time>2024-08-14T01:13:46Z</time></trkpt><trkpt lat="-39.2951979116" lon="-72.4072893150"><ele>203.93</ele><time>2024-08-14T01:13:47Z</time></trkpt><trkpt lat="-39.2946809996" lon="-72.4069612473"><ele>200.39</ele><time>2024-08-14T01:13:55Z</time></trkpt><trkpt lat="-39.2945350707" lon="-72.4068222754"><ele>198.08</ele><time>2024-08-14T01:14:00Z</time></trkpt><trkpt lat="-39.2945390102" lon="-72.4067828804"><ele>198.83</ele><time>2024-08-14T01:14:01Z</time></trkpt><trkpt lat="-39.2945489846" lon="-72.4067405518"><ele>199.19</ele><time>2024-08-14T01:14:02Z</time></trkpt><trkpt lat="-39.2947690096" lon="-72.4060848355"><ele>202.42</ele><time>2024-08-14T01:14:13Z</time></trkpt><trkpt lat="-39.2949943151" lon="-72.4054528400"><ele>204.17</ele><time>2024-08-14T01:14:21Z</time></trkpt><trkpt lat="-39.2950081453" lon="-72.4053645786"><ele>204.11</ele><time>2024-08-14T01:14:22Z</time></trkpt><trkpt lat="-39.2950131744" lon="-72.4052768201"><ele>204.24</ele><time>2024-08-14T01:14:23Z</time></trkpt><trkpt lat="-39.2950088158" lon="-72.4051867146"><ele>204.74</ele><time>2024-08-14T01:14:24Z</time></trkpt><trkpt lat="-39.2949976679" lon="-72.4050951004"><ele>204.76</ele><time>2024-08-14T01:14:25Z</time></trkpt><trkpt lat="-39.2949809879" lon="-72.4050091859"><ele>204.43</ele><time>2024-08-14T01:14:26Z</time></trkpt><trkpt lat="-39.2949673254" lon="-72.4049244449"><ele>204.11</ele><time>2024-08-14T01:14:27Z</time></trkpt><trkpt lat="-39.2949595302" lon="-72.4048476666"><ele>204.74</ele><time>2024-08-14T01:14:28Z</time></trkpt><trkpt lat="-39.2949555907" lon="-72.4047931004"><ele>204.77</ele><time>2024-08-14T01:14:29Z</time></trkpt><trkpt lat="-39.2949568480" lon="-72.4047578964"><ele>204.84</ele><time>2024-08-14T01:14:30Z</time></trkpt><trkpt lat="-39.2949595302" lon="-72.4047350138"><ele>204.72</ele><time>2024-08-14T01:14:31Z</time></trkpt><trkpt lat="-39.2951018550" lon="-72.4045848101"><ele>206.02</ele><time>2024-08-14T01:14:40Z</time></trkpt><trkpt lat="-39.2951508053" lon="-72.4045734107"><ele>206.19</ele><time>2024-08-14T01:14:41Z</time></trkpt><trkpt lat="-39.2958111316" lon="-72.4043745920"><ele>208.13</ele><time>2024-08-14T01:14:50Z</time></trkpt><trkpt lat="-39.2959150672" lon="-72.4043567386"><ele>207.87</ele><time>2024-08-14T01:14:52Z</time></trkpt><trkpt lat="-39.2959524505" lon="-72.4043649528"><ele>207.32</ele><time>2024-08-14T01:14:53Z</time></trkpt><trkpt lat="-39.2959836312" lon="-72.4043917749"><ele>208.12</ele><time>2024-08-14T01:14:54Z</time></trkpt><trkpt lat="-39.2960067652" lon="-72.4044322595"><ele>208.41</ele><time>2024-08-14T01:14:55Z</time></trkpt><trkpt lat="-39.2960246187" lon="-72.4044906814"><ele>208.51</ele><time>2024-08-14T01:14:56Z</time></trkpt><trkpt lat="-39.2960365210" lon="-72.4045640230"><ele>208.60</ele><time>2024-08-14T01:14:57Z</time></trkpt><trkpt lat="-39.2960513569" lon="-72.4046496861"><ele>208.67</ele><time>2024-08-14T01:14:58Z</time></trkpt><trkpt lat="-39.2962178215" lon="-72.4055715278"><ele>208.26</ele><time>2024-08-14T01:15:07Z</time></trkpt><trkpt lat="-39.2962187435" lon="-72.4056387506"><ele>207.92</ele><time>2024-08-14T01:15:08Z</time></trkpt><trkpt lat="-39.2962107807" lon="-72.4056938197"><ele>207.92</ele><time>2024-08-14T01:15:09Z</time></trkpt><trkpt lat="-39.2961862218" lon="-72.4057425186"><ele>207.46</ele><time>2024-08-14T01:15:10Z</time></trkpt><trkpt lat="-39.2961551249" lon="-72.4057805724"><ele>207.84</ele><time>2024-08-14T01:15:11Z</time></trkpt><trkpt lat="-39.2961018998" lon="-72.4058066402"><ele>208.61</ele><time>2024-08-14T01:15:12Z</time></trkpt><trkpt lat="-39.2960464116" lon="-72.4058223143"><ele>208.91</ele><time>2024-08-14T01:15:13Z</time></trkpt><trkpt lat="-39.2959849723" lon="-72.4058374856"><ele>208.90</ele><time>2024-08-14T01:15:14Z</time></trkpt><trkpt lat="-39.2952723429" lon="-72.4060590193"><ele>206.94</ele><time>2024-08-14T01:15:24Z</time></trkpt><trkpt lat="-39.2952420842" lon="-72.4060743582"><ele>206.97</ele><time>2024-08-14T01:15:25Z</time></trkpt><trkpt lat="-39.2952191178" lon="-72.4060969893"><ele>206.82</ele><time>2024-08-14T01:15:26Z</time></trkpt><trkpt lat="-39.2952048685" lon="-72.4061273318"><ele>206.94</ele><time>2024-08-14T01:15:27Z</time></trkpt><trkpt lat="-39.2951973248" lon="-72.4061705824"><ele>206.98</ele><time>2024-08-14T01:15:28Z</time></trkpt><trkpt lat="-39.2951984145" lon="-72.4062259868"><ele>206.74</ele><time>2024-08-14T01:15:29Z</time></trkpt><trkpt lat="-39.2952061258" lon="-72.4062972330"><ele>206.96</ele><time>2024-08-14T01:15:30Z</time></trkpt><trkpt lat="-39.2952188663" lon="-72.4063761905"><ele>207.14</ele><time>2024-08-14T01:15:31Z</time></trkpt><trkpt lat="-39.2953922879" lon="-72.4073390197"><ele>208.11</ele><time>2024-08-14T01:15:42Z</time></trkpt><trkpt lat="-39.2954166792" lon="-72.4073860422"><ele>208.10</ele><time>2024-08-14T01:15:43Z</time></trkpt><trkpt lat="-39.2954460159" lon="-72.4074229226"><ele>208.32</ele><time>2024-08-14T01:15:44Z</time></trkpt><trkpt lat="-39.2954839859" lon="-72.4074388482"><ele>208.08</ele><time>2024-08-14T01:15:45Z</time></trkpt><trkpt lat="-39.2955337744" lon="-72.4074346572"><ele>208.25</ele><time>2024-08-14T01:15:46Z</time></trkpt><trkpt lat="-39.2955968063" lon="-72.4074165523"><ele>208.43</ele><time>2024-08-14T01:15:47Z</time></trkpt><trkpt lat="-39.2956736684" lon="-72.4073874671"><ele>208.62</ele><time>2024-08-14T01:15:48Z</time></trkpt><trkpt lat="-39.2957551405" lon="-72.4073551130"><ele>208.80</ele><time>2024-08-14T01:15:49Z</time></trkpt><trkpt lat="-39.2967249267" lon="-72.4070322420"><ele>208.26</ele><time>2024-08-14T01:16:01Z</time></trkpt><trkpt lat="-39.2968844343" lon="-72.4068169948"><ele>207.76</ele><time>2024-08-14T01:16:08Z</time></trkpt><trkpt lat="-39.2970036250" lon="-72.4066741671"><ele>208.61</ele><time>2024-08-14T01:16:12Z</time></trkpt><trkpt lat="-39.2970322073" lon="-72.4062825646"><ele>209.90</ele><time>2024-08-14T01:16:19Z</time></trkpt><trkpt lat="-39.2969658226" lon="-72.4060782138"><ele>210.28</ele><time>2024-08-14T01:16:22Z</time></trkpt><trkpt lat="-39.2970505636" lon="-72.4056650698"><ele>210.31</ele><time>2024-08-14T01:16:30Z</time></trkpt><trkpt lat="-39.2971772142" lon="-72.4056105874"><ele>210.26</ele><time>2024-08-14T01:16:34Z</time></trkpt><trkpt lat="-39.2972204648" lon="-72.4054628983"><ele>210.12</ele><time>2024-08-14T01:16:40Z</time></trkpt><trkpt lat="-39.2971985880" lon="-72.4053577054"><ele>210.51</ele><time>2024-08-14T01:16:43Z</time></trkpt><trkpt lat="-39.2971665692" lon="-72.4051155522"><ele>211.48</ele><time>2024-08-14T01:16:47Z</time></trkpt><trkpt lat="-39.2971740291" lon="-72.4049072620"><ele>211.25</ele><time>2024-08-14T01:16:50Z</time></trkpt><trkpt lat="-39.2971909605" lon="-72.4048497621"><ele>211.65</ele><time>2024-08-14T01:16:51Z</time></trkpt><trkpt lat="-39.2972115800" lon="-72.4048091937"><ele>211.80</ele><time>2024-08-14T01:16:52Z</time></trkpt><trkpt lat="-39.2972285952" lon="-72.4047793541"><ele>212.40</ele><time>2024-08-14T01:16:53Z</time></trkpt><trkpt lat="-39.2972404975" lon="-72.4047526997"><ele>212.71</ele><time>2024-08-14T01:16:54Z</time></trkpt><trkpt lat="-39.2972497176" lon="-72.4047284760"><ele>212.23</ele><time>2024-08-14T01:16:55Z</time></trkpt><trkpt lat="-39.2972544953" lon="-72.4046656955"><ele>212.79</ele><time>2024-08-14T01:16:57Z</time></trkpt><trkpt lat="-39.2970961612" lon="-72.4038222246"><ele>213.74</ele><time>2024-08-14T01:17:08Z</time></trkpt><trkpt lat="-39.2970943172" lon="-72.4037626293"><ele>212.91</ele><time>2024-08-14T01:17:09Z</time></trkpt><trkpt lat="-39.2971026991" lon="-72.4037146848"><ele>211.98</ele><time>2024-08-14T01:17:10Z</time></trkpt><trkpt lat="-39.2971260007" lon="-72.4036786426"><ele>213.82</ele><time>2024-08-14T01:17:11Z</time></trkpt><trkpt lat="-39.2971674912" lon="-72.4036508985"><ele>214.63</ele><time>2024-08-14T01:17:12Z</time></trkpt><trkpt lat="-39.2972187046" lon="-72.4036300275"><ele>214.68</ele><time>2024-08-14T01:17:13Z</time></trkpt><trkpt lat="-39.2972792219" lon="-72.4036127608"><ele>214.60</ele><time>2024-08-14T01:17:14Z</time></trkpt><trkpt lat="-39.2973464448" lon="-72.4035947397"><ele>214.74</ele><time>2024-08-14T01:17:15Z</time></trkpt><trkpt lat="-39.2978016660" lon="-72.4034942407"><ele>214.66</ele><time>2024-08-14T01:17:22Z</time></trkpt><trkpt lat="-39.2978559807" lon="-72.4035135191"><ele>213.96</ele><time>2024-08-14T01:17:23Z</time></trkpt><trkpt lat="-39.2979040928" lon="-72.4035499804"><ele>214.47</ele><time>2024-08-14T01:17:24Z</time></trkpt><trkpt lat="-39.2979480140" lon="-72.4036013614"><ele>215.37</ele><time>2024-08-14T01:17:25Z</time></trkpt><trkpt lat="-39.2979910970" lon="-72.4036648124"><ele>216.33</ele><time>2024-08-14T01:17:26Z</time></trkpt><trkpt lat="-39.2980347667" lon="-72.4037348852"><ele>215.51</ele><time>2024-08-14T01:17:27Z</time></trkpt><trkpt lat="-39.2985246889" lon="-72.4045560602"><ele>213.81</ele><time>2024-08-14T01:17:37Z</time></trkpt><trkpt lat="-39.2985773273" lon="-72.4046144821"><ele>213.93</ele><time>2024-08-14T01:17:38Z</time></trkpt><trkpt lat="-39.2986440472" lon="-72.4046496861"><ele>213.60</ele><time>2024-08-14T01:17:39Z</time></trkpt><trkpt lat="-39.2987188976" lon="-72.4046549667"><ele>213.13</ele><time>2024-08-14T01:17:40Z</time></trkpt><trkpt lat="-39.2987962626" lon="-72.4046449922"><ele>212.60</ele><time>2024-08-14T01:17:41Z</time></trkpt><trkpt lat="-39.2988753878" lon="-72.4046243727"><ele>212.67</ele><time>2024-08-14T01:17:42Z</time></trkpt><trkpt lat="-39.2989519984" lon="-72.4046040047"><ele>212.66</ele><time>2024-08-14T01:17:43Z</time></trkpt><trkpt lat="-39.2994425911" lon="-72.4044616800"><ele>212.07</ele><time>2024-08-14T01:17:52Z</time></trkpt><trkpt lat="-39.3001051806" lon="-72.4042870849"><ele>212.51</ele><time>2024-08-14T01:18:01Z</time></trkpt><trkpt lat="-39.3003508542" lon="-72.4042193592"><ele>213.49</ele><time>2024-08-14T01:18:04Z</time></trkpt><trkpt lat="-39.3004116230" lon="-72.4041714985"><ele>213.83</ele><time>2024-08-14T01:18:05Z</time></trkpt><trkpt lat="-39.3004497606" lon="-72.4041168485"><ele>214.09</ele><time>2024-08-14T01:18:06Z</time></trkpt><trkpt lat="-39.3004671950" lon="-72.4040506314"><ele>214.06</ele><time>2024-08-14T01:18:07Z</time></trkpt><trkpt lat="-39.3004633393" lon="-72.4039765354"><ele>214.18</ele><time>2024-08-14T01:18:08Z</time></trkpt><trkpt lat="-39.3004479166" lon="-72.4038855080"><ele>215.53</ele><time>2024-08-14T01:18:09Z</time></trkpt><trkpt lat="-39.3004330806" lon="-72.4037895352"><ele>215.50</ele><time>2024-08-14T01:18:10Z</time></trkpt><trkpt lat="-39.3003440648" lon="-72.4033069052"><ele>218.51</ele><time>2024-08-14T01:18:15Z</time></trkpt><trkpt lat="-39.3002884928" lon="-72.4029768258"><ele>221.71</ele><time>2024-08-14T01:18:20Z</time></trkpt><trkpt lat="-39.3002749141" lon="-72.4029300548"><ele>221.85</ele><time>2024-08-14T01:18:21Z</time></trkpt><trkpt lat="-39.3001722358" lon="-72.4028124567"><ele>222.32</ele><time>2024-08-14T01:18:26Z</time></trkpt><trkpt lat="-39.3001358584" lon="-72.4028111156"><ele>222.79</ele><time>2024-08-14T01:18:27Z</time></trkpt><trkpt lat="-39.3000865728" lon="-72.4028198328"><ele>221.94</ele><time>2024-08-14T01:18:28Z</time></trkpt><trkpt lat="-39.3000300787" lon="-72.4028315675"><ele>221.40</ele><time>2024-08-14T01:18:29Z</time></trkpt><trkpt lat="-39.2999620177" lon="-72.4028476607"><ele>220.15</ele><time>2024-08-14T01:18:30Z</time></trkpt><trkpt lat="-39.2996385600" lon="-72.4029287137"><ele>217.01</ele><time>2024-08-14T01:18:34Z</time></trkpt><trkpt lat="-39.2995523941" lon="-72.4029524345"><ele>216.77</ele><time>2024-08-14T01:18:35Z</time></trkpt><trkpt lat="-39.2989191413" lon="-72.4031679332"><ele>216.16</ele><time>2024-08-14T01:18:44Z</time></trkpt><trkpt lat="-39.2981624231" lon="-72.4034038838"><ele>216.58</ele><time>2024-08-14T01:18:54Z</time></trkpt><trkpt lat="-39.2980895005" lon="-72.4033727031"><ele>216.29</ele><time>2024-08-14T01:18:56Z</time></trkpt><trkpt lat="-39.2980619241" lon="-72.4033316318"><ele>217.50</ele><time>2024-08-14T01:18:57Z</time></trkpt><trkpt lat="-39.2980424780" lon="-72.4032732937"><ele>217.56</ele><time>2024-08-14T01:18:58Z</time></trkpt><trkpt lat="-39.2980280612" lon="-72.4032094236"><ele>217.51</ele><time>2024-08-14T01:18:59Z</time></trkpt><trkpt lat="-39.2980138119" lon="-72.4031386804"><ele>217.60</ele><time>2024-08-14T01:19:00Z</time></trkpt><trkpt lat="-39.2979979701" lon="-72.4030632433"><ele>217.62</ele><time>2024-08-14T01:19:01Z</time></trkpt><trkpt lat="-39.2978588305" lon="-72.4021571595"><ele>218.88</ele><time>2024-08-14T01:19:12Z</time></trkpt><trkpt lat="-39.2978702299" lon="-72.4021021742"><ele>218.34</ele><time>2024-08-14T01:19:13Z</time></trkpt><trkpt lat="-39.2978909332" lon="-72.4020590074"><ele>218.58</ele><time>2024-08-14T01:19:14Z</time></trkpt><trkpt lat="-39.2979214434" lon="-72.4020263180"><ele>219.14</ele><time>2024-08-14T01:19:15Z</time></trkpt><trkpt lat="-39.2979635205" lon="-72.4020069558"><ele>219.93</ele><time>2024-08-14T01:19:16Z</time></trkpt><trkpt lat="-39.2980163265" lon="-72.4019904435"><ele>219.84</ele><time>2024-08-14T01:19:17Z</time></trkpt><trkpt lat="-39.2980774306" lon="-72.4019718356"><ele>219.76</ele><time>2024-08-14T01:19:18Z</time></trkpt><trkpt lat="-39.2987902276" lon="-72.4017829075"><ele>221.57</ele><time>2024-08-14T01:19:28Z</time></trkpt><trkpt lat="-39.2993424274" lon="-72.4016233999"><ele>224.65</ele><time>2024-08-14T01:19:37Z</time></trkpt><trkpt lat="-39.2998659611" lon="-72.4014811590"><ele>226.72</ele><time>2024-08-14T01:19:44Z</time></trkpt><trkpt lat="-39.2999006622" lon="-72.4014602043"><ele>226.89</ele><time>2024-08-14T01:19:45Z</time></trkpt><trkpt lat="-39.2999367043" lon="-72.4014212284"><ele>226.95</ele><time>2024-08-14T01:19:46Z</time></trkpt><trkpt lat="-39.2999537196" lon="-72.4013790675"><ele>227.13</ele><time>2024-08-14T01:19:47Z</time></trkpt><trkpt lat="-39.2999605089" lon="-72.4013251718"><ele>226.60</ele><time>2024-08-14T01:19:48Z</time></trkpt><trkpt lat="-39.2999573238" lon="-72.4012469687"><ele>226.58</ele><time>2024-08-14T01:19:49Z</time></trkpt><trkpt lat="-39.2999450862" lon="-72.4011588749"><ele>226.45</ele><time>2024-08-14T01:19:50Z</time></trkpt><trkpt lat="-39.2999308370" lon="-72.4010634888"><ele>225.65</ele><time>2024-08-14T01:19:51Z</time></trkpt><trkpt lat="-39.2997935414" lon="-72.4002179224"><ele>224.62</ele><time>2024-08-14T01:19:59Z</time></trkpt><trkpt lat="-39.2997676414" lon="-72.4001475982"><ele>224.62</ele><time>2024-08-14T01:20:00Z</time></trkpt><trkpt lat="-39.2997353710" lon="-72.4000969715"><ele>224.64</ele><time>2024-08-14T01:20:01Z</time></trkpt><trkpt lat="-39.2996967304" lon="-72.4000798725"><ele>224.22</ele><time>2024-08-14T01:20:02Z</time></trkpt><trkpt lat="-39.2996477801" lon="-72.4000786152"><ele>223.59</ele><time>2024-08-14T01:20:03Z</time></trkpt><trkpt lat="-39.2995842453" lon="-72.4000929482"><ele>223.66</ele><time>2024-08-14T01:20:04Z</time></trkpt><trkpt lat="-39.2995159328" lon="-72.4001103826"><ele>223.73</ele><time>2024-08-14T01:20:05Z</time></trkpt><trkpt lat="-39.2988308799" lon="-72.4002978019"><ele>221.58</ele><time>2024-08-14T01:20:14Z</time></trkpt><trkpt lat="-39.2983696237" lon="-72.4004387856"><ele>221.36</ele><time>2024-08-14T01:20:23Z</time></trkpt><trkpt lat="-39.2973020207" lon="-72.4006974511"><ele>217.42</ele><time>2024-08-14T01:20:36Z</time></trkpt><trkpt lat="-39.2968557682" lon="-72.4007223453"><ele>213.99</ele><time>2024-08-14T01:20:41Z</time></trkpt><trkpt lat="-39.2964691110" lon="-72.4007316492"><ele>213.17</ele><time>2024-08-14T01:20:48Z</time></trkpt><trkpt lat="-39.2964458931" lon="-72.4007032346"><ele>213.22</ele><time>2024-08-14T01:20:49Z</time></trkpt><trkpt lat="-39.2964287940" lon="-72.4006567989"><ele>213.37</ele><time>2024-08-14T01:20:50Z</time></trkpt><trkpt lat="-39.2964121979" lon="-72.4005982094"><ele>213.47</ele><time>2024-08-14T01:20:51Z</time></trkpt><trkpt lat="-39.2963887285" lon="-72.4005235266"><ele>213.44</ele><time>2024-08-14T01:20:52Z</time></trkpt><trkpt lat="-39.2961154785" lon="-72.4000327662"><ele>213.47</ele><time>2024-08-14T01:20:58Z</time></trkpt><trkpt lat="-39.2960481718" lon="-72.3999672197"><ele>214.03</ele><time>2024-08-14T01:20:59Z</time></trkpt><trkpt lat="-39.2959796079" lon="-72.3999142461"><ele>213.60</ele><time>2024-08-14T01:21:00Z</time></trkpt><trkpt lat="-39.2959114630" lon="-72.3998745997"><ele>213.53</ele><time>2024-08-14T01:21:01Z</time></trkpt><trkpt lat="-39.2958513647" lon="-72.3998524714"><ele>213.93</ele><time>2024-08-14T01:21:02Z</time></trkpt><trkpt lat="-39.2958019115" lon="-72.3998429161"><ele>214.31</ele><time>2024-08-14T01:21:03Z</time></trkpt><trkpt lat="-39.2957631033" lon="-72.3998420779"><ele>214.48</ele><time>2024-08-14T01:21:04Z</time></trkpt><trkpt lat="-39.2957311682" lon="-72.3998457659"><ele>214.51</ele><time>2024-08-14T01:21:05Z</time></trkpt><trkpt lat="-39.2957014125" lon="-72.3998399824"><ele>214.78</ele><time>2024-08-14T01:21:06Z</time></trkpt><trkpt lat="-39.2956728302" lon="-72.3998316005"><ele>213.04</ele><time>2024-08-14T01:21:07Z</time></trkpt><trkpt lat="-39.2956507858" lon="-72.3998163454"><ele>213.06</ele><time>2024-08-14T01:21:08Z</time></trkpt><trkpt lat="-39.2956329323" lon="-72.3997916188"><ele>213.74</ele><time>2024-08-14T01:21:09Z</time></trkpt><trkpt lat="-39.2956181802" lon="-72.3997554928"><ele>214.87</ele><time>2024-08-14T01:21:10Z</time></trkpt><trkpt lat="-39.2956055235" lon="-72.3997076321"><ele>214.93</ele><time>2024-08-14T01:21:11Z</time></trkpt><trkpt lat="-39.2955925316" lon="-72.3996445164"><ele>215.14</ele><time>2024-08-14T01:21:12Z</time></trkpt><trkpt lat="-39.2955776118" lon="-72.3995766230"><ele>215.13</ele><time>2024-08-14T01:21:13Z</time></trkpt><trkpt lat="-39.2953621969" lon="-72.3985011410"><ele>216.60</ele><time>2024-08-14T01:21:24Z</time></trkpt><trkpt lat="-39.2950876057" lon="-72.3973563407"><ele>219.74</ele><time>2024-08-14T01:21:34Z</time></trkpt><trkpt lat="-39.2949601170" lon="-72.3965806793"><ele>222.90</ele><time>2024-08-14T01:21:40Z</time></trkpt><trkpt lat="-39.2949736118" lon="-72.3953722604"><ele>225.97</ele><time>2024-08-14T01:21:49Z</time></trkpt><trkpt lat="-39.2950019427" lon="-72.3935741745"><ele>228.82</ele><time>2024-08-14T01:22:03Z</time></trkpt><trkpt lat="-39.2947721109" lon="-72.3920654319"><ele>228.98</ele><time>2024-08-14T01:22:15Z</time></trkpt><trkpt lat="-39.2942610662" lon="-72.3907059710"><ele>229.11</ele><time>2024-08-14T01:22:27Z</time></trkpt><trkpt lat="-39.2935967166" lon="-72.3894741666"><ele>229.36</ele><time>2024-08-14T01:22:40Z</time></trkpt><trkpt lat="-39.2935189325" lon="-72.3892754316"><ele>229.24</ele><time>2024-08-14T01:22:42Z</time></trkpt><trkpt lat="-39.2934929486" lon="-72.3891678080"><ele>229.26</ele><time>2024-08-14T01:22:43Z</time></trkpt><trkpt lat="-39.2934724968" lon="-72.3890614416"><ele>228.81</ele><time>2024-08-14T01:22:44Z</time></trkpt><trkpt lat="-39.2934615165" lon="-72.3889513873"><ele>228.97</ele><time>2024-08-14T01:22:45Z</time></trkpt><trkpt lat="-39.2934631091" lon="-72.3888407461"><ele>229.60</ele><time>2024-08-14T01:22:46Z</time></trkpt><trkpt lat="-39.2934722453" lon="-72.3887374811"><ele>230.04</ele><time>2024-08-14T01:22:47Z</time></trkpt><trkpt lat="-39.2934876680" lon="-72.3886353895"><ele>229.96</ele><time>2024-08-14T01:22:48Z</time></trkpt><trkpt lat="-39.2937821243" lon="-72.3872497771"><ele>230.52</ele><time>2024-08-14T01:23:00Z</time></trkpt><trkpt lat="-39.2941699550" lon="-72.3853516113"><ele>233.82</ele><time>2024-08-14T01:23:16Z</time></trkpt><trkpt lat="-39.2943866272" lon="-72.3843337130"><ele>237.08</ele><time>2024-08-14T01:23:26Z</time></trkpt><trkpt lat="-39.2946303729" lon="-72.3831306584"><ele>240.14</ele><time>2024-08-14T01:23:38Z</time></trkpt><trkpt lat="-39.2949319538" lon="-72.3815013003"><ele>240.67</ele><time>2024-08-14T01:23:53Z</time></trkpt><trkpt lat="-39.2952268291" lon="-72.3799687531"><ele>237.98</ele><time>2024-08-14T01:24:08Z</time></trkpt><trkpt lat="-39.2954386398" lon="-72.3788320832"><ele>234.79</ele><time>2024-08-14T01:24:19Z</time></trkpt><trkpt lat="-39.2957807053" lon="-72.3770973645"><ele>232.45</ele><time>2024-08-14T01:24:34Z</time></trkpt><trkpt lat="-39.2962054163" lon="-72.3750809301"><ele>230.93</ele><time>2024-08-14T01:24:52Z</time></trkpt><trkpt lat="-39.2964801751" lon="-72.3738698289"><ele>229.52</ele><time>2024-08-14T01:25:04Z</time></trkpt><trkpt lat="-39.2965079192" lon="-72.3734957445"><ele>229.11</ele><time>2024-08-14T01:25:12Z</time></trkpt><trkpt lat="-39.2965154629" lon="-72.3735010251"><ele>229.03</ele><time>2024-08-14T01:25:21Z</time></trkpt><trkpt lat="-39.2965085059" lon="-72.3736120854"><ele>229.07</ele><time>2024-08-14T01:25:26Z</time></trkpt><trkpt lat="-39.2965006270" lon="-72.3736601137"><ele>229.37</ele><time>2024-08-14T01:25:27Z</time></trkpt><trkpt lat="-39.2963745631" lon="-72.3743900098"><ele>230.73</ele><time>2024-08-14T01:25:35Z</time></trkpt><trkpt lat="-39.2960748263" lon="-72.3758704215"><ele>232.59</ele><time>2024-08-14T01:25:47Z</time></trkpt><trkpt lat="-39.2956803739" lon="-72.3777984269"><ele>234.35</ele><time>2024-08-14T01:26:02Z</time></trkpt><trkpt lat="-39.2953797150" lon="-72.3792735580"><ele>237.05</ele><time>2024-08-14T01:26:14Z</time></trkpt><trkpt lat="-39.2953234725" lon="-72.3795120232"><ele>238.24</ele><time>2024-08-14T01:26:16Z</time></trkpt><trkpt lat="-39.2952418327" lon="-72.3798654042"><ele>239.72</ele><time>2024-08-14T01:26:19Z</time></trkpt><trkpt lat="-39.2949704267" lon="-72.3813136294"><ele>242.73</ele><time>2024-08-14T01:26:31Z</time></trkpt><trkpt lat="-39.2946300376" lon="-72.3831874877"><ele>243.37</ele><time>2024-08-14T01:26:46Z</time></trkpt><trkpt lat="-39.2943353299" lon="-72.3846595176"><ele>240.05</ele><time>2024-08-14T01:26:58Z</time></trkpt><trkpt lat="-39.2941599805" lon="-72.3855101969"><ele>237.31</ele><time>2024-08-14T01:27:05Z</time></trkpt><trkpt lat="-39.2937983014" lon="-72.3873625975"><ele>234.78</ele><time>2024-08-14T01:27:20Z</time></trkpt><trkpt lat="-39.2934828065" lon="-72.3891378008"><ele>234.39</ele><time>2024-08-14T01:27:35Z</time></trkpt><trkpt lat="-39.2934859917" lon="-72.3892555665"><ele>234.55</ele><time>2024-08-14T01:27:36Z</time></trkpt><trkpt lat="-39.2935087904" lon="-72.3893678002"><ele>234.63</ele><time>2024-08-14T01:27:37Z</time></trkpt><trkpt lat="-39.2935425695" lon="-72.3894646950"><ele>234.59</ele><time>2024-08-14T01:27:38Z</time></trkpt><trkpt lat="-39.2935828026" lon="-72.3895605840"><ele>234.21</ele><time>2024-08-14T01:27:39Z</time></trkpt><trkpt lat="-39.2936269753" lon="-72.3896567244"><ele>234.12</ele><time>2024-08-14T01:27:40Z</time></trkpt><trkpt lat="-39.2943751439" lon="-72.3911542352"><ele>234.88</ele><time>2024-08-14T01:27:55Z</time></trkpt><trkpt lat="-39.2948504817" lon="-72.3924762290"><ele>235.03</ele><time>2024-08-14T01:28:07Z</time></trkpt><trkpt lat="-39.2950144317" lon="-72.3938402161"><ele>235.33</ele><time>2024-08-14T01:28:18Z</time></trkpt><trkpt lat="-39.2949819099" lon="-72.3958413955"><ele>231.99</ele><time>2024-08-14T01:28:34Z</time></trkpt><trkpt lat="-39.2949829996" lon="-72.3966039810"><ele>228.37</ele><time>2024-08-14T01:28:42Z</time></trkpt><trkpt lat="-39.2949679960" lon="-72.3966330662"><ele>229.03</ele><time>2024-08-14T01:28:43Z</time></trkpt><trkpt lat="-39.2949482985" lon="-72.3966494948"><ele>229.82</ele><time>2024-08-14T01:28:44Z</time></trkpt><trkpt lat="-39.2949229851" lon="-72.3966536019"><ele>230.46</ele><time>2024-08-14T01:28:45Z</time></trkpt><trkpt lat="-39.2948774714" lon="-72.3966359999"><ele>230.21</ele><time>2024-08-14T01:28:46Z</time></trkpt><trkpt lat="-39.2948319577" lon="-72.3966108542"><ele>229.87</ele><time>2024-08-14T01:28:47Z</time></trkpt><trkpt lat="-39.2947762180" lon="-72.3965837806"><ele>230.12</ele><time>2024-08-14T01:28:48Z</time></trkpt><trkpt lat="-39.2947226577" lon="-72.3965584673"><ele>230.18</ele><time>2024-08-14T01:28:49Z</time></trkpt><trkpt lat="-39.2938656919" lon="-72.3961319122"><ele>232.74</ele><time>2024-08-14T01:29:02Z</time></trkpt><trkpt lat="-39.2929099035" lon="-72.3957088776"><ele>235.85</ele><time>2024-08-14T01:29:15Z</time></trkpt><trkpt lat="-39.2924526706" lon="-72.3955184408"><ele>238.87</ele><time>2024-08-14T01:29:22Z</time></trkpt><trkpt lat="-39.2921194900" lon="-72.3954001721"><ele>240.19</ele><time>2024-08-14T01:29:33Z</time></trkpt><trkpt lat="-39.2921018042" lon="-72.3954145890"><ele>240.52</ele><time>2024-08-14T01:29:34Z</time></trkpt><trkpt lat="-39.2920944281" lon="-72.3954518884"><ele>240.79</ele><time>2024-08-14T01:29:35Z</time></trkpt><trkpt lat="-39.2920919135" lon="-72.3954848293"><ele>240.29</ele><time>2024-08-14T01:29:36Z</time></trkpt><trkpt lat="-39.2920904048" lon="-72.3955055326"><ele>239.27</ele><time>2024-08-14T01:29:37Z</time></trkpt><trkpt lat="-39.2921665125" lon="-72.3955000844"><ele>239.47</ele><time>2024-08-14T01:29:46Z</time></trkpt><trkpt lat="-39.2921968549" lon="-72.3954970669"><ele>231.65</ele><time>2024-08-14T01:29:47Z</time></trkpt><trkpt lat="-39.2922386806" lon="-72.3955032695"><ele>239.04</ele><time>2024-08-14T01:29:48Z</time></trkpt><trkpt lat="-39.2922784947" lon="-72.3955176026"><ele>237.93</ele><time>2024-08-14T01:29:49Z</time></trkpt><trkpt lat="-39.2923288699" lon="-72.3955408204"><ele>239.36</ele><time>2024-08-14T01:29:50Z</time></trkpt><trkpt lat="-39.2923747189" lon="-72.3955642059"><ele>240.70</ele><time>2024-08-14T01:29:51Z</time></trkpt><trkpt lat="-39.2925538402" lon="-72.3956362903"><ele>238.34</ele><time>2024-08-14T01:29:54Z</time></trkpt><trkpt lat="-39.2933994904" lon="-72.3959852289"><ele>235.58</ele><time>2024-08-14T01:30:05Z</time></trkpt><trkpt lat="-39.2943266127" lon="-72.3963806033"><ele>232.55</ele><time>2024-08-14T01:30:16Z</time></trkpt><trkpt lat="-39.2949622963" lon="-72.3966618162"><ele>230.88</ele><time>2024-08-14T01:30:26Z</time></trkpt><trkpt lat="-39.2950068042" lon="-72.3967730440"><ele>232.39</ele><time>2024-08-14T01:30:29Z</time></trkpt><trkpt lat="-39.2950891145" lon="-72.3972349707"><ele>229.64</ele><time>2024-08-14T01:30:34Z</time></trkpt><trkpt lat="-39.2952652182" lon="-72.3979637772"><ele>226.62</ele><time>2024-08-14T01:30:40Z</time></trkpt><trkpt lat="-39.2952969857" lon="-72.3980956245"><ele>226.39</ele><time>2024-08-14T01:30:41Z</time></trkpt><trkpt lat="-39.2955289129" lon="-72.3994682450"><ele>224.36</ele><time>2024-08-14T01:30:52Z</time></trkpt><trkpt lat="-39.2955901008" lon="-72.3999387212"><ele>222.68</ele><time>2024-08-14T01:30:57Z</time></trkpt><trkpt lat="-39.2955825571" lon="-72.4000269827"><ele>220.90</ele><time>2024-08-14T01:30:58Z</time></trkpt><trkpt lat="-39.2955676373" lon="-72.4001171719"><ele>224.59</ele><time>2024-08-14T01:30:59Z</time></trkpt><trkpt lat="-39.2955426592" lon="-72.4002113845"><ele>226.10</ele><time>2024-08-14T01:31:00Z</time></trkpt><trkpt lat="-39.2955139093" lon="-72.4003101233"><ele>224.37</ele><time>2024-08-14T01:31:01Z</time></trkpt><trkpt lat="-39.2954032682" lon="-72.4008573778"><ele>221.83</ele><time>2024-08-14T01:31:06Z</time></trkpt><trkpt lat="-39.2953922041" lon="-72.4012134410"><ele>221.01</ele><time>2024-08-14T01:31:09Z</time></trkpt><trkpt lat="-39.2956393864" lon="-72.4026502669"><ele>222.68</ele><time>2024-08-14T01:31:21Z</time></trkpt><trkpt lat="-39.2956614308" lon="-72.4027677812"><ele>222.76</ele><time>2024-08-14T01:31:22Z</time></trkpt><trkpt lat="-39.2958055995" lon="-72.4036431871"><ele>225.77</ele><time>2024-08-14T01:31:30Z</time></trkpt><trkpt lat="-39.2959174979" lon="-72.4043761846"><ele>222.10</ele><time>2024-08-14T01:31:40Z</time></trkpt><trkpt lat="-39.2958823778" lon="-72.4044325948"><ele>226.80</ele><time>2024-08-14T01:31:42Z</time></trkpt><trkpt lat="-39.2958559748" lon="-72.4044413120"><ele>221.97</ele><time>2024-08-14T01:31:43Z</time></trkpt><trkpt lat="-39.2958335951" lon="-72.4044426531"><ele>225.51</ele><time>2024-08-14T01:31:44Z</time></trkpt><trkpt lat="-39.2957801186" lon="-72.4044434913"><ele>226.34</ele><time>2024-08-14T01:31:46Z</time></trkpt><trkpt lat="-39.2957421485" lon="-72.4044412281"><ele>225.24</ele><time>2024-08-14T01:31:48Z</time></trkpt><trkpt lat="-39.2957332637" lon="-72.4044325948"><ele>226.04</ele><time>2024-08-14T01:31:57Z</time></trkpt><trkpt lat="-39.2957575712" lon="-72.4043996539"><ele>226.64</ele><time>2024-08-14T01:32:05Z</time></trkpt><trkpt lat="-39.2957864050" lon="-72.4043598399"><ele>226.06</ele><time>2024-08-14T01:32:35Z</time></trkpt><trkpt lat="-39.2957776040" lon="-72.4043663777"><ele>226.53</ele><time>2024-08-14T01:32:55Z</time></trkpt><trkpt lat="-39.2957643606" lon="-72.4043668807"><ele>226.29</ele><time>2024-08-14T01:33:19Z</time></trkpt></trkseg></trk></gpx>