<?xml version="1.0" encoding="UTF-8" standalone="no" ?><gpx xmlns="http://www.topografix.com/GPX/1/1" xmlns:gpxx="http://www.garmin.com/xmlschemas/GpxExtensions/v3" xmlns:gpxtrkx="http://www.garmin.com/xmlschemas/TrackStatsExtension/v1" xmlns:wptx1="http://www.garmin.com/xmlschemas/WaypointExtension/v1" xmlns:gpxtpx="http://www.garmin.com/xmlschemas/TrackPointExtension/v1" creator="GPSMAP 64sx" version="1.1" xmlns:xsi="http://www.w3.org/2001/XMLSchema-instance" xsi:schemaLocation="http://www.topografix.com/GPX/1/1 http://www.topografix.com/GPX/1/1/gpx.xsd http://www.garmin.com/xmlschemas/GpxExtensions/v3 http://www8.garmin.com/xmlschemas/GpxExtensionsv3.xsd http://www.garmin.com/xmlschemas/TrackStatsExtension/v1 http://www8.garmin.com/xmlschemas/TrackStatsExtension.xsd http://www.garmin.com/xmlschemas/WaypointExtension/v1 http://www8.garmin.com/xmlschemas/WaypointExtensionv1.xsd http://www.garmin.com/xmlschemas/TrackPointExtension/v1 http://www.garmin.com/xmlschemas/TrackPointExtensionv1.xsd"><metadata><link href="http://www.garmin.com"><text>Garmin International</text></link><time>2024-07-30T04:17:11Z</time></metadata><trk><name>IP24-07-30 00:16:59</name><extensions><gpxx:TrackExtension><gpxx:DisplayColor>Cyan</gpxx:DisplayColor></gpxx:TrackExtension><gpxtrkx:TrackStatsExtension><gpxtrkx:Distance>3568.000</gpxtrkx:Distance><gpxtrkx:TotalElapsedTime>645</gpxtrkx:TotalElapsedTime><gpxtrkx:MovingTime>611</gpxtrkx:MovingTime><gpxtrkx:StoppedTime>34</gpxtrkx:StoppedTime><gpxtrkx:MovingSpeed>5.841</gpxtrkx:MovingSpeed><gpxtrkx:MaxSpeed>11.262</gpxtrkx:MaxSpeed><gpxtrkx:MaxElevation>100.618</gpxtrkx:MaxElevation><gpxtrkx:MinElevation>91.116</gpxtrkx:MinElevation><gpxtrkx:Ascent>5.000</gpxtrkx:Ascent><gpxtrkx:Descent>9.067</gpxtrkx:Descent><gpxtrkx:AvgAscentRate>0.037</gpxtrkx:AvgAscentRate><gpxtrkx:MaxAscentRate>0.035</gpxtrkx:MaxAscentRate><gpxtrkx:AvgDescentRate>0.054</gpxtrkx:AvgDescentRate><gpxtrkx:MaxDescentRate>-0.274</gpxtrkx:MaxDescentRate></gpxtrkx:TrackStatsExtension></extensions><trkseg><trkpt lat="-39.4070446026" lon="-72.7047094982"><ele>100.61</ele><time>2024-07-30T04:06:26Z</time></trkpt><trkpt lat="-39.4070428424" lon="-72.7047042176"><ele>100.61</ele><time>2024-07-30T04:06:27Z</time></trkpt><trkpt lat="-39.4069882762" lon="-72.7046292834"><ele>99.02</ele><time>2024-07-30T04:06:48Z</time></trkpt><trkpt lat="-39.4069685787" lon="-72.7046139445"><ele>99.33</ele><time>2024-07-30T04:07:14Z</time></trkpt><trkpt lat="-39.4069892820" lon="-72.7046437003"><ele>99.61</ele><time>2024-07-30T04:07:19Z</time></trkpt><trkpt lat="-39.4070285931" lon="-72.7047473006"><ele>99.34</ele><time>2024-07-30T04:07:22Z</time></trkpt><trkpt lat="-39.4070456084" lon="-72.7048127633"><ele>99.52</ele><time>2024-07-30T04:07:23Z</time></trkpt><trkpt lat="-39.4073020108" lon="-72.7057413105"><ele>98.15</ele><time>2024-07-30T04:07:32Z</time></trkpt><trkpt lat="-39.4076201878" lon="-72.7063760720"><ele>96.63</ele><time>2024-07-30T04:07:39Z</time></trkpt><trkpt lat="-39.4076454174" lon="-72.7064505871"><ele>96.54</ele><time>2024-07-30T04:07:40Z</time></trkpt><trkpt lat="-39.4076652825" lon="-72.7065340709"><ele>96.54</ele><time>2024-07-30T04:07:41Z</time></trkpt><trkpt lat="-39.4078547135" lon="-72.7071482129"><ele>96.97</ele><time>2024-07-30T04:07:48Z</time></trkpt><trkpt lat="-39.4078765064" lon="-72.7072413359"><ele>97.04</ele><time>2024-07-30T04:07:49Z</time></trkpt><trkpt lat="-39.4079495128" lon="-72.7075300086"><ele>96.75</ele><time>2024-07-30T04:07:52Z</time></trkpt><trkpt lat="-39.4079998042" lon="-72.7076170128"><ele>96.59</ele><time>2024-07-30T04:07:53Z</time></trkpt><trkpt lat="-39.4080647640" lon="-72.7076952998"><ele>96.67</ele><time>2024-07-30T04:07:54Z</time></trkpt><trkpt lat="-39.4081410393" lon="-72.7077584993"><ele>96.60</ele><time>2024-07-30T04:07:55Z</time></trkpt><trkpt lat="-39.4082207512" lon="-72.7078040130"><ele>96.44</ele><time>2024-07-30T04:07:56Z</time></trkpt><trkpt lat="-39.4083034806" lon="-72.7078309190"><ele>96.55</ele><time>2024-07-30T04:07:57Z</time></trkpt><trkpt lat="-39.4083920773" lon="-72.7078484371"><ele>96.48</ele><time>2024-07-30T04:07:58Z</time></trkpt><trkpt lat="-39.4084826019" lon="-72.7078584954"><ele>96.44</ele><time>2024-07-30T04:07:59Z</time></trkpt><trkpt lat="-39.4085715339" lon="-72.7078680508"><ele>96.46</ele><time>2024-07-30T04:08:00Z</time></trkpt><trkpt lat="-39.4087457098" lon="-72.7079017460"><ele>96.68</ele><time>2024-07-30T04:08:02Z</time></trkpt><trkpt lat="-39.4088283554" lon="-72.7079292387"><ele>96.76</ele><time>2024-07-30T04:08:03Z</time></trkpt><trkpt lat="-39.4089079835" lon="-72.7079720702"><ele>96.78</ele><time>2024-07-30T04:08:04Z</time></trkpt><trkpt lat="-39.4089809898" lon="-72.7080247924"><ele>96.73</ele><time>2024-07-30T04:08:05Z</time></trkpt><trkpt lat="-39.4090526551" lon="-72.7080838848"><ele>96.66</ele><time>2024-07-30T04:08:06Z</time></trkpt><trkpt lat="-39.4095963053" lon="-72.7086237632"><ele>95.20</ele><time>2024-07-30T04:08:15Z</time></trkpt><trkpt lat="-39.4096108899" lon="-72.7086753957"><ele>95.14</ele><time>2024-07-30T04:08:16Z</time></trkpt><trkpt lat="-39.4096044358" lon="-72.7087280340"><ele>95.07</ele><time>2024-07-30T04:08:17Z</time></trkpt><trkpt lat="-39.4095782004" lon="-72.7087831032"><ele>94.85</ele><time>2024-07-30T04:08:18Z</time></trkpt><trkpt lat="-39.4095433317" lon="-72.7088323887"><ele>94.69</ele><time>2024-07-30T04:08:19Z</time></trkpt><trkpt lat="-39.4095043559" lon="-72.7088819258"><ele>94.68</ele><time>2024-07-30T04:08:20Z</time></trkpt><trkpt lat="-39.4091621228" lon="-72.7093520667"><ele>94.15</ele><time>2024-07-30T04:08:31Z</time></trkpt><trkpt lat="-39.4089084864" lon="-72.7096923720"><ele>94.04</ele><time>2024-07-30T04:08:39Z</time></trkpt><trkpt lat="-39.4088701811" lon="-72.7097107284"><ele>94.07</ele><time>2024-07-30T04:08:40Z</time></trkpt><trkpt lat="-39.4088288583" lon="-72.7097170148"><ele>94.16</ele><time>2024-07-30T04:08:41Z</time></trkpt><trkpt lat="-39.4087900501" lon="-72.7096979041"><ele>94.24</ele><time>2024-07-30T04:08:42Z</time></trkpt><trkpt lat="-39.4087504875" lon="-72.7096637897"><ele>94.37</ele><time>2024-07-30T04:08:43Z</time></trkpt><trkpt lat="-39.4087079074" lon="-72.7096213773"><ele>94.38</ele><time>2024-07-30T04:08:44Z</time></trkpt><trkpt lat="-39.4080081861" lon="-72.7088708617"><ele>94.79</ele><time>2024-07-30T04:08:59Z</time></trkpt><trkpt lat="-39.4079365209" lon="-72.7088033035"><ele>94.63</ele><time>2024-07-30T04:09:01Z</time></trkpt><trkpt lat="-39.4075413141" lon="-72.7083347552"><ele>94.08</ele><time>2024-07-30T04:09:11Z</time></trkpt><trkpt lat="-39.4074180163" lon="-72.7082244493"><ele>93.93</ele><time>2024-07-30T04:09:14Z</time></trkpt><trkpt lat="-39.4071237277" lon="-72.7081325836"><ele>93.49</ele><time>2024-07-30T04:09:23Z</time></trkpt><trkpt lat="-39.4070954807" lon="-72.7082806919"><ele>93.43</ele><time>2024-07-30T04:09:26Z</time></trkpt><trkpt lat="-39.4071910344" lon="-72.7092485502"><ele>93.70</ele><time>2024-07-30T04:09:44Z</time></trkpt><trkpt lat="-39.4073232170" lon="-72.7098750137"><ele>93.64</ele><time>2024-07-30T04:09:57Z</time></trkpt><trkpt lat="-39.4077218603" lon="-72.7103565540"><ele>93.74</ele><time>2024-07-30T04:10:12Z</time></trkpt><trkpt lat="-39.4081722200" lon="-72.7108378429"><ele>93.86</ele><time>2024-07-30T04:10:30Z</time></trkpt><trkpt lat="-39.4085541833" lon="-72.7112624701"><ele>94.24</ele><time>2024-07-30T04:10:45Z</time></trkpt><trkpt lat="-39.4089846779" lon="-72.7117286716"><ele>94.05</ele><time>2024-07-30T04:11:00Z</time></trkpt><trkpt lat="-39.4091080595" lon="-72.7117254864"><ele>93.87</ele><time>2024-07-30T04:11:04Z</time></trkpt><trkpt lat="-39.4091336243" lon="-72.7116938867"><ele>93.76</ele><time>2024-07-30T04:11:05Z</time></trkpt><trkpt lat="-39.4095125701" lon="-72.7110426966"><ele>94.36</ele><time>2024-07-30T04:11:20Z</time></trkpt><trkpt lat="-39.4095393922" lon="-72.7109885495"><ele>94.82</ele><time>2024-07-30T04:11:21Z</time></trkpt><trkpt lat="-39.4097423181" lon="-72.7106344141"><ele>94.19</ele><time>2024-07-30T04:11:28Z</time></trkpt><trkpt lat="-39.4097961299" lon="-72.7105325740"><ele>94.18</ele><time>2024-07-30T04:11:30Z</time></trkpt><trkpt lat="-39.4102708809" lon="-72.7098327689"><ele>93.41</ele><time>2024-07-30T04:11:41Z</time></trkpt><trkpt lat="-39.4105245173" lon="-72.7095944714"><ele>93.40</ele><time>2024-07-30T04:11:49Z</time></trkpt><trkpt lat="-39.4105662592" lon="-72.7096338663"><ele>93.51</ele><time>2024-07-30T04:11:50Z</time></trkpt><trkpt lat="-39.4111581054" lon="-72.7103236131"><ele>93.14</ele><time>2024-07-30T04:12:01Z</time></trkpt><trkpt lat="-39.4112239871" lon="-72.7104226872"><ele>93.04</ele><time>2024-07-30T04:12:03Z</time></trkpt><trkpt lat="-39.4112305250" lon="-72.7104727272"><ele>93.07</ele><time>2024-07-30T04:12:04Z</time></trkpt><trkpt lat="-39.4112232327" lon="-72.7105223481"><ele>92.95</ele><time>2024-07-30T04:12:05Z</time></trkpt><trkpt lat="-39.4111995958" lon="-72.7105731424"><ele>92.80</ele><time>2024-07-30T04:12:06Z</time></trkpt><trkpt lat="-39.4111685827" lon="-72.7106236015"><ele>92.66</ele><time>2024-07-30T04:12:07Z</time></trkpt><trkpt lat="-39.4111343008" lon="-72.7106746472"><ele>92.56</ele><time>2024-07-30T04:12:08Z</time></trkpt><trkpt lat="-39.4106701948" lon="-72.7114228997"><ele>93.04</ele><time>2024-07-30T04:12:21Z</time></trkpt><trkpt lat="-39.4100594893" lon="-72.7123468369"><ele>93.71</ele><time>2024-07-30T04:12:36Z</time></trkpt><trkpt lat="-39.4098827988" lon="-72.7128117811"><ele>93.25</ele><time>2024-07-30T04:12:46Z</time></trkpt><trkpt lat="-39.4099207688" lon="-72.7128592227"><ele>93.34</ele><time>2024-07-30T04:12:47Z</time></trkpt><trkpt lat="-39.4105357490" lon="-72.7135379054"><ele>92.45</ele><time>2024-07-30T04:12:59Z</time></trkpt><trkpt lat="-39.4105888065" lon="-72.7135724388"><ele>92.36</ele><time>2024-07-30T04:13:00Z</time></trkpt><trkpt lat="-39.4106411934" lon="-72.7135834191"><ele>92.31</ele><time>2024-07-30T04:13:01Z</time></trkpt><trkpt lat="-39.4106975198" lon="-72.7135715168"><ele>92.24</ele><time>2024-07-30T04:13:02Z</time></trkpt><trkpt lat="-39.4107467216" lon="-72.7135288529"><ele>92.32</ele><time>2024-07-30T04:13:03Z</time></trkpt><trkpt lat="-39.4107975997" lon="-72.7134643961"><ele>92.42</ele><time>2024-07-30T04:13:04Z</time></trkpt><trkpt lat="-39.4108499866" lon="-72.7133918088"><ele>92.39</ele><time>2024-07-30T04:13:05Z</time></trkpt><trkpt lat="-39.4114763662" lon="-72.7124372777"><ele>92.11</ele><time>2024-07-30T04:13:18Z</time></trkpt><trkpt lat="-39.4121109601" lon="-72.7114833333"><ele>91.94</ele><time>2024-07-30T04:13:32Z</time></trkpt><trkpt lat="-39.4121439848" lon="-72.7114590257"><ele>91.95</ele><time>2024-07-30T04:13:33Z</time></trkpt><trkpt lat="-39.4121828768" lon="-72.7114539966"><ele>92.06</ele><time>2024-07-30T04:13:34Z</time></trkpt><trkpt lat="-39.4122244511" lon="-72.7114730235"><ele>92.02</ele><time>2024-07-30T04:13:35Z</time></trkpt><trkpt lat="-39.4122680370" lon="-72.7115186211"><ele>92.19</ele><time>2024-07-30T04:13:36Z</time></trkpt><trkpt lat="-39.4123159815" lon="-72.7115800604"><ele>92.24</ele><time>2024-07-30T04:13:37Z</time></trkpt><trkpt lat="-39.4123704638" lon="-72.7116544079"><ele>92.34</ele><time>2024-07-30T04:13:38Z</time></trkpt><trkpt lat="-39.4128569495" lon="-72.7122491878"><ele>91.91</ele><time>2024-07-30T04:13:46Z</time></trkpt><trkpt lat="-39.4128947519" lon="-72.7123097889"><ele>91.68</ele><time>2024-07-30T04:13:47Z</time></trkpt><trkpt lat="-39.4129167125" lon="-72.7123685461"><ele>91.53</ele><time>2024-07-30T04:13:48Z</time></trkpt><trkpt lat="-39.4129209034" lon="-72.7124166582"><ele>91.53</ele><time>2024-07-30T04:13:49Z</time></trkpt><trkpt lat="-39.4129118510" lon="-72.7124459948"><ele>91.44</ele><time>2024-07-30T04:13:50Z</time></trkpt><trkpt lat="-39.4128937460" lon="-72.7124772593"><ele>91.14</ele><time>2024-07-30T04:13:51Z</time></trkpt><trkpt lat="-39.4128686003" lon="-72.7125076018"><ele>91.12</ele><time>2024-07-30T04:13:52Z</time></trkpt><trkpt lat="-39.4124564622" lon="-72.7130934130"><ele>91.53</ele><time>2024-07-30T04:14:01Z</time></trkpt><trkpt lat="-39.4122817833" lon="-72.7133552637"><ele>91.53</ele><time>2024-07-30T04:14:05Z</time></trkpt><trkpt lat="-39.4122387003" lon="-72.7133996878"><ele>91.58</ele><time>2024-07-30T04:14:06Z</time></trkpt><trkpt lat="-39.4121920131" lon="-72.7134272642"><ele>91.59</ele><time>2024-07-30T04:14:07Z</time></trkpt><trkpt lat="-39.4121420570" lon="-72.7134374902"><ele>91.73</ele><time>2024-07-30T04:14:08Z</time></trkpt><trkpt lat="-39.4120954536" lon="-72.7134202234"><ele>91.83</ele><time>2024-07-30T04:14:09Z</time></trkpt><trkpt lat="-39.4120491855" lon="-72.7133851033"><ele>91.98</ele><time>2024-07-30T04:14:10Z</time></trkpt><trkpt lat="-39.4120014925" lon="-72.7133384999"><ele>92.07</ele><time>2024-07-30T04:14:11Z</time></trkpt><trkpt lat="-39.4119526260" lon="-72.7132870350"><ele>92.25</ele><time>2024-07-30T04:14:12Z</time></trkpt><trkpt lat="-39.4113558345" lon="-72.7126100287"><ele>91.80</ele><time>2024-07-30T04:14:23Z</time></trkpt><trkpt lat="-39.4107048959" lon="-72.7118481975"><ele>92.85</ele><time>2024-07-30T04:14:35Z</time></trkpt><trkpt lat="-39.4104797579" lon="-72.7115647215"><ele>92.97</ele><time>2024-07-30T04:14:43Z</time></trkpt><trkpt lat="-39.4101178274" lon="-72.7111846022"><ele>94.07</ele><time>2024-07-30T04:14:54Z</time></trkpt><trkpt lat="-39.4096610136" lon="-72.7106806822"><ele>94.04</ele><time>2024-07-30T04:15:10Z</time></trkpt><trkpt lat="-39.4092876837" lon="-72.7102684602"><ele>93.82</ele><time>2024-07-30T04:15:20Z</time></trkpt><trkpt lat="-39.4088850170" lon="-72.7097449265"><ele>92.93</ele><time>2024-07-30T04:15:31Z</time></trkpt><trkpt lat="-39.4088905491" lon="-72.7096945513"><ele>92.96</ele><time>2024-07-30T04:15:32Z</time></trkpt><trkpt lat="-39.4089110848" lon="-72.7096412424"><ele>93.01</ele><time>2024-07-30T04:15:33Z</time></trkpt><trkpt lat="-39.4089463726" lon="-72.7095829044"><ele>93.20</ele><time>2024-07-30T04:15:34Z</time></trkpt><trkpt lat="-39.4089879468" lon="-72.7095207945"><ele>93.09</ele><time>2024-07-30T04:15:35Z</time></trkpt><trkpt lat="-39.4095352013" lon="-72.7086911537"><ele>93.42</ele><time>2024-07-30T04:15:47Z</time></trkpt><trkpt lat="-39.4095678907" lon="-72.7085525170"><ele>94.03</ele><time>2024-07-30T04:15:50Z</time></trkpt><trkpt lat="-39.4095441699" lon="-72.7084944304"><ele>94.18</ele><time>2024-07-30T04:15:51Z</time></trkpt><trkpt lat="-39.4095036015" lon="-72.7084410377"><ele>94.12</ele><time>2024-07-30T04:15:52Z</time></trkpt><trkpt lat="-39.4094553217" lon="-72.7083861362"><ele>94.36</ele><time>2024-07-30T04:15:53Z</time></trkpt><trkpt lat="-39.4094000012" lon="-72.7083227690"><ele>94.45</ele><time>2024-07-30T04:15:54Z</time></trkpt><trkpt lat="-39.4088193867" lon="-72.7078137361"><ele>96.13</ele><time>2024-07-30T04:16:02Z</time></trkpt><trkpt lat="-39.4087302033" lon="-72.7077781968"><ele>96.07</ele><time>2024-07-30T04:16:03Z</time></trkpt><trkpt lat="-39.4086368289" lon="-72.7077507041"><ele>96.04</ele><time>2024-07-30T04:16:04Z</time></trkpt><trkpt lat="-39.4085385092" lon="-72.7077379636"><ele>95.92</ele><time>2024-07-30T04:16:05Z</time></trkpt><trkpt lat="-39.4084422011" lon="-72.7077312581"><ele>95.85</ele><time>2024-07-30T04:16:06Z</time></trkpt><trkpt lat="-39.4081799313" lon="-72.7076849062"><ele>95.31</ele><time>2024-07-30T04:16:09Z</time></trkpt><trkpt lat="-39.4081032369" lon="-72.7076403983"><ele>95.29</ele><time>2024-07-30T04:16:10Z</time></trkpt><trkpt lat="-39.4080382772" lon="-72.7075770311"><ele>95.15</ele><time>2024-07-30T04:16:11Z</time></trkpt><trkpt lat="-39.4079851359" lon="-72.7075025160"><ele>95.20</ele><time>2024-07-30T04:16:12Z</time></trkpt><trkpt lat="-39.4079475012" lon="-72.7074186970"><ele>95.19</ele><time>2024-07-30T04:16:13Z</time></trkpt><trkpt lat="-39.4079252891" lon="-72.7073332854"><ele>95.26</ele><time>2024-07-30T04:16:14Z</time></trkpt><trkpt lat="-39.4079224393" lon="-72.7072567586"><ele>95.12</ele><time>2024-07-30T04:16:15Z</time></trkpt><trkpt lat="-39.4079353474" lon="-72.7071969118"><ele>95.03</ele><time>2024-07-30T04:16:16Z</time></trkpt><trkpt lat="-39.4079676177" lon="-72.7071437705"><ele>95.36</ele><time>2024-07-30T04:16:17Z</time></trkpt><trkpt lat="-39.4080169871" lon="-72.7070982568"><ele>95.40</ele><time>2024-07-30T04:16:18Z</time></trkpt><trkpt lat="-39.4080886524" lon="-72.7070702612"><ele>95.31</ele><time>2024-07-30T04:16:19Z</time></trkpt><trkpt lat="-39.4081709627" lon="-72.7070537489"><ele>95.31</ele><time>2024-07-30T04:16:20Z</time></trkpt><trkpt lat="-39.4082584698" lon="-72.7070338838"><ele>95.44</ele><time>2024-07-30T04:16:21Z</time></trkpt><trkpt lat="-39.4083437975" lon="-72.7070066426"><ele>95.45</ele><time>2024-07-30T04:16:22Z</time></trkpt><trkpt lat="-39.4084214978" lon="-72.7069715224"><ele>95.49</ele><time>2024-07-30T04:16:23Z</time></trkpt><trkpt lat="-39.4084993657" lon="-72.7069264278"><ele>95.55</ele><time>2024-07-30T04:16:24Z</time></trkpt><trkpt lat="-39.4085630681" lon="-72.7068540081"><ele>95.54</ele><time>2024-07-30T04:16:25Z</time></trkpt><trkpt lat="-39.4086159579" lon="-72.7067784872"><ele>95.59</ele><time>2024-07-30T04:16:26Z</time></trkpt><trkpt lat="-39.4086446241" lon="-72.7066799160"><ele>95.62</ele><time>2024-07-30T04:16:27Z</time></trkpt><trkpt lat="-39.4086633157" lon="-72.7065769024"><ele>95.56</ele><time>2024-07-30T04:16:28Z</time></trkpt><trkpt lat="-39.4086758886" lon="-72.7064745594"><ele>95.78</ele><time>2024-07-30T04:16:29Z</time></trkpt><trkpt lat="-39.4086721167" lon="-72.7063676063"><ele>95.53</ele><time>2024-07-30T04:16:30Z</time></trkpt><trkpt lat="-39.4086562749" lon="-72.7062602341"><ele>96.55</ele><time>2024-07-30T04:16:31Z</time></trkpt><trkpt lat="-39.4086193107" lon="-72.7061555441"><ele>96.45</ele><time>2024-07-30T04:16:32Z</time></trkpt><trkpt lat="-39.4085728750" lon="-72.7060526982"><ele>96.45</ele><time>2024-07-30T04:16:33Z</time></trkpt><trkpt lat="-39.4085216615" lon="-72.7059590723"><ele>96.30</ele><time>2024-07-30T04:16:34Z</time></trkpt><trkpt lat="-39.4084684364" lon="-72.7058694698"><ele>96.45</ele><time>2024-07-30T04:16:35Z</time></trkpt><trkpt lat="-39.4082722161" lon="-72.7055916097"><ele>95.76</ele><time>2024-07-30T04:16:42Z</time></trkpt></trkseg></trk></gpx>