<?xml version="1.0" encoding="UTF-8" standalone="no" ?><gpx xmlns="http://www.topografix.com/GPX/1/1" xmlns:gpxx="http://www.garmin.com/xmlschemas/GpxExtensions/v3" xmlns:gpxtrkx="http://www.garmin.com/xmlschemas/TrackStatsExtension/v1" xmlns:wptx1="http://www.garmin.com/xmlschemas/WaypointExtension/v1" xmlns:gpxtpx="http://www.garmin.com/xmlschemas/TrackPointExtension/v1" creator="GPSMAP 64sx" version="1.1" xmlns:xsi="http://www.w3.org/2001/XMLSchema-instance" xsi:schemaLocation="http://www.topografix.com/GPX/1/1 http://www.topografix.com/GPX/1/1/gpx.xsd http://www.garmin.com/xmlschemas/GpxExtensions/v3 http://www8.garmin.com/xmlschemas/GpxExtensionsv3.xsd http://www.garmin.com/xmlschemas/TrackStatsExtension/v1 http://www8.garmin.com/xmlschemas/TrackStatsExtension.xsd http://www.garmin.com/xmlschemas/WaypointExtension/v1 http://www8.garmin.com/xmlschemas/WaypointExtensionv1.xsd http://www.garmin.com/xmlschemas/TrackPointExtension/v1 http://www.garmin.com/xmlschemas/TrackPointExtensionv1.xsd"><metadata><link href="http://www.garmin.com"><text>Garmin International</text></link><time>2024-09-15T00:24:27Z</time></metadata><trk><name>GPS HUIS 240914</name><extensions><gpxx:TrackExtension><gpxx:DisplayColor>Cyan</gpxx:DisplayColor></gpxx:TrackExtension><gpxtrkx:TrackStatsExtension><gpxtrkx:Distance>12888.000</gpxtrkx:Distance><gpxtrkx:TotalElapsedTime>1793</gpxtrkx:TotalElapsedTime><gpxtrkx:MovingTime>1742</gpxtrkx:MovingTime><gpxtrkx:StoppedTime>50</gpxtrkx:StoppedTime><gpxtrkx:MovingSpeed>7.398</gpxtrkx:MovingSpeed><gpxtrkx:MaxSpeed>15.106</gpxtrkx:MaxSpeed><gpxtrkx:MaxElevation>275.704</gpxtrkx:MaxElevation><gpxtrkx:MinElevation>220.791</gpxtrkx:MinElevation><gpxtrkx:Ascent>142.000</gpxtrkx:Ascent><gpxtrkx:Descent>145.363</gpxtrkx:Descent><gpxtrkx:AvgAscentRate>0.108</gpxtrkx:AvgAscentRate><gpxtrkx:MaxAscentRate>0.772</gpxtrkx:MaxAscentRate><gpxtrkx:AvgDescentRate>0.133</gpxtrkx:AvgDescentRate><gpxtrkx:MaxDescentRate>-1.122</gpxtrkx:MaxDescentRate></gpxtrkx:TrackStatsExtension></extensions><trkseg><trkpt lat="-39.2730969284" lon="-72.4093510117"><ele>254.18</ele><time>2024-09-14T23:54:34Z</time></trkpt><trkpt lat="-39.2730955873" lon="-72.4093523528"><ele>254.18</ele><time>2024-09-14T23:54:35Z</time></trkpt><trkpt lat="-39.2730924021" lon="-72.4093500059"><ele>252.83</ele><time>2024-09-14T23:54:40Z</time></trkpt><trkpt lat="-39.2731227446" lon="-72.4093577173"><ele>252.93</ele><time>2024-09-14T23:54:47Z</time></trkpt><trkpt lat="-39.2731681745" lon="-72.4093572982"><ele>252.83</ele><time>2024-09-14T23:54:49Z</time></trkpt><trkpt lat="-39.2732006125" lon="-72.4093639199"><ele>253.23</ele><time>2024-09-14T23:54:50Z</time></trkpt><trkpt lat="-39.2737043649" lon="-72.4095082562"><ele>253.75</ele><time>2024-09-14T23:54:57Z</time></trkpt><trkpt lat="-39.2748418730" lon="-72.4098833464"><ele>255.03</ele><time>2024-09-14T23:55:07Z</time></trkpt><trkpt lat="-39.2763480172" lon="-72.4102411699"><ele>255.91</ele><time>2024-09-14T23:55:19Z</time></trkpt><trkpt lat="-39.2774045561" lon="-72.4098731205"><ele>255.52</ele><time>2024-09-14T23:55:28Z</time></trkpt><trkpt lat="-39.2783561535" lon="-72.4097392615"><ele>252.98</ele><time>2024-09-14T23:55:36Z</time></trkpt><trkpt lat="-39.2787190061" lon="-72.4098641519"><ele>250.83</ele><time>2024-09-14T23:55:39Z</time></trkpt><trkpt lat="-39.2788315751" lon="-72.4099392537"><ele>249.97</ele><time>2024-09-14T23:55:40Z</time></trkpt><trkpt lat="-39.2789411265" lon="-72.4100234918"><ele>248.77</ele><time>2024-09-14T23:55:41Z</time></trkpt><trkpt lat="-39.2790481634" lon="-72.4101229012"><ele>247.68</ele><time>2024-09-14T23:55:42Z</time></trkpt><trkpt lat="-39.2791510094" lon="-72.4102327041"><ele>246.54</ele><time>2024-09-14T23:55:43Z</time></trkpt><trkpt lat="-39.2792497482" lon="-72.4103518110"><ele>245.19</ele><time>2024-09-14T23:55:44Z</time></trkpt><trkpt lat="-39.2793454695" lon="-72.4104777910"><ele>244.18</ele><time>2024-09-14T23:55:45Z</time></trkpt><trkpt lat="-39.2796185520" lon="-72.4108552281"><ele>240.02</ele><time>2024-09-14T23:55:48Z</time></trkpt><trkpt lat="-39.2798930593" lon="-72.4112169072"><ele>236.54</ele><time>2024-09-14T23:55:51Z</time></trkpt><trkpt lat="-39.2801658902" lon="-72.4115380179"><ele>232.99</ele><time>2024-09-14T23:55:54Z</time></trkpt><trkpt lat="-39.2802749388" lon="-72.4116282072"><ele>232.00</ele><time>2024-09-14T23:55:55Z</time></trkpt><trkpt lat="-39.2803888489" lon="-72.4117056560"><ele>230.81</ele><time>2024-09-14T23:55:56Z</time></trkpt><trkpt lat="-39.2805066984" lon="-72.4117700290"><ele>229.53</ele><time>2024-09-14T23:55:57Z</time></trkpt><trkpt lat="-39.2806250509" lon="-72.4118245952"><ele>228.53</ele><time>2024-09-14T23:55:58Z</time></trkpt><trkpt lat="-39.2807424814" lon="-72.4118742999"><ele>227.59</ele><time>2024-09-14T23:55:59Z</time></trkpt><trkpt lat="-39.2813043203" lon="-72.4120690115"><ele>224.02</ele><time>2024-09-14T23:56:04Z</time></trkpt><trkpt lat="-39.2814137880" lon="-72.4121045507"><ele>223.79</ele><time>2024-09-14T23:56:05Z</time></trkpt><trkpt lat="-39.2823047843" lon="-72.4123920500"><ele>222.38</ele><time>2024-09-14T23:56:15Z</time></trkpt><trkpt lat="-39.2834579665" lon="-72.4127595127"><ele>221.35</ele><time>2024-09-14T23:56:29Z</time></trkpt><trkpt lat="-39.2845136672" lon="-72.4131259695"><ele>223.89</ele><time>2024-09-14T23:56:42Z</time></trkpt><trkpt lat="-39.2857816815" lon="-72.4135517702"><ele>226.90</ele><time>2024-09-14T23:56:57Z</time></trkpt><trkpt lat="-39.2870299984" lon="-72.4139985256"><ele>226.87</ele><time>2024-09-14T23:57:12Z</time></trkpt><trkpt lat="-39.2885400821" lon="-72.4144103285"><ele>224.74</ele><time>2024-09-14T23:57:30Z</time></trkpt><trkpt lat="-39.2895673681" lon="-72.4142026249"><ele>222.17</ele><time>2024-09-14T23:57:42Z</time></trkpt><trkpt lat="-39.2906192131" lon="-72.4134460744"><ele>220.85</ele><time>2024-09-14T23:57:56Z</time></trkpt><trkpt lat="-39.2913051881" lon="-72.4123503082"><ele>223.91</ele><time>2024-09-14T23:58:09Z</time></trkpt><trkpt lat="-39.2916594911" lon="-72.4113216810"><ele>227.63</ele><time>2024-09-14T23:58:19Z</time></trkpt><trkpt lat="-39.2916949466" lon="-72.4112183321"><ele>227.70</ele><time>2024-09-14T23:58:20Z</time></trkpt><trkpt lat="-39.2920810170" lon="-72.4101043772"><ele>231.29</ele><time>2024-09-14T23:58:31Z</time></trkpt><trkpt lat="-39.2923274450" lon="-72.4094189052"><ele>232.43</ele><time>2024-09-14T23:58:40Z</time></trkpt><trkpt lat="-39.2922755610" lon="-72.4092188291"><ele>232.32</ele><time>2024-09-14T23:58:48Z</time></trkpt><trkpt lat="-39.2922031414" lon="-72.4091784284"><ele>231.97</ele><time>2024-09-14T23:58:50Z</time></trkpt><trkpt lat="-39.2914998997" lon="-72.4088134803"><ele>229.10</ele><time>2024-09-14T23:59:01Z</time></trkpt><trkpt lat="-39.2910608556" lon="-72.4085471034"><ele>228.50</ele><time>2024-09-14T23:59:08Z</time></trkpt><trkpt lat="-39.2909950577" lon="-72.4082613643"><ele>228.47</ele><time>2024-09-14T23:59:13Z</time></trkpt><trkpt lat="-39.2911884282" lon="-72.4077545106"><ele>229.01</ele><time>2024-09-14T23:59:20Z</time></trkpt><trkpt lat="-39.2914220318" lon="-72.4076832645"><ele>229.58</ele><time>2024-09-14T23:59:26Z</time></trkpt><trkpt lat="-39.2921748105" lon="-72.4082748592"><ele>232.51</ele><time>2024-09-14T23:59:42Z</time></trkpt><trkpt lat="-39.2925642338" lon="-72.4085921142"><ele>234.31</ele><time>2024-09-14T23:59:53Z</time></trkpt><trkpt lat="-39.2925583664" lon="-72.4087450840"><ele>234.35</ele><time>2024-09-14T23:59:58Z</time></trkpt><trkpt lat="-39.2923836038" lon="-72.4092509318"><ele>233.22</ele><time>2024-09-15T00:00:05Z</time></trkpt><trkpt lat="-39.2923831008" lon="-72.4093011394"><ele>233.13</ele><time>2024-09-15T00:00:06Z</time></trkpt><trkpt lat="-39.2923900578" lon="-72.4093372654"><ele>233.02</ele><time>2024-09-15T00:00:07Z</time></trkpt><trkpt lat="-39.2923988588" lon="-72.4093617406"><ele>232.93</ele><time>2024-09-15T00:00:08Z</time></trkpt><trkpt lat="-39.2924104258" lon="-72.4093825277"><ele>232.74</ele><time>2024-09-15T00:00:09Z</time></trkpt><trkpt lat="-39.2924281117" lon="-72.4094031472"><ele>232.76</ele><time>2024-09-15T00:00:10Z</time></trkpt><trkpt lat="-39.2924529221" lon="-72.4094282091"><ele>232.96</ele><time>2024-09-15T00:00:11Z</time></trkpt><trkpt lat="-39.2924907245" lon="-72.4094573781"><ele>233.13</ele><time>2024-09-15T00:00:12Z</time></trkpt><trkpt lat="-39.2925499007" lon="-72.4094939232"><ele>233.31</ele><time>2024-09-15T00:00:13Z</time></trkpt><trkpt lat="-39.2932724208" lon="-72.4099178798"><ele>236.62</ele><time>2024-09-15T00:00:22Z</time></trkpt><trkpt lat="-39.2937382869" lon="-72.4101658165"><ele>240.59</ele><time>2024-09-15T00:00:28Z</time></trkpt><trkpt lat="-39.2939408775" lon="-72.4102788884"><ele>243.76</ele><time>2024-09-15T00:00:32Z</time></trkpt><trkpt lat="-39.2939951085" lon="-72.4102801457"><ele>244.16</ele><time>2024-09-15T00:00:33Z</time></trkpt><trkpt lat="-39.2940568831" lon="-72.4102545809"><ele>244.65</ele><time>2024-09-15T00:00:34Z</time></trkpt><trkpt lat="-39.2941157240" lon="-72.4102157727"><ele>245.11</ele><time>2024-09-15T00:00:35Z</time></trkpt><trkpt lat="-39.2941706255" lon="-72.4101683311"><ele>245.38</ele><time>2024-09-15T00:00:36Z</time></trkpt><trkpt lat="-39.2942197435" lon="-72.4101200514"><ele>245.58</ele><time>2024-09-15T00:00:37Z</time></trkpt><trkpt lat="-39.2943852860" lon="-72.4099602923"><ele>246.37</ele><time>2024-09-15T00:00:41Z</time></trkpt><trkpt lat="-39.2944058217" lon="-72.4099183828"><ele>246.65</ele><time>2024-09-15T00:00:42Z</time></trkpt><trkpt lat="-39.2944127787" lon="-72.4098722823"><ele>246.90</ele><time>2024-09-15T00:00:43Z</time></trkpt><trkpt lat="-39.2944002058" lon="-72.4098164588"><ele>247.07</ele><time>2024-09-15T00:00:44Z</time></trkpt><trkpt lat="-39.2943761498" lon="-72.4097588751"><ele>247.06</ele><time>2024-09-15T00:00:45Z</time></trkpt><trkpt lat="-39.2943411134" lon="-72.4096898083"><ele>246.99</ele><time>2024-09-15T00:00:46Z</time></trkpt><trkpt lat="-39.2940222658" lon="-72.4090904184"><ele>243.67</ele><time>2024-09-15T00:00:53Z</time></trkpt><trkpt lat="-39.2938583158" lon="-72.4087779410"><ele>240.35</ele><time>2024-09-15T00:00:58Z</time></trkpt><trkpt lat="-39.2938290630" lon="-72.4087344389"><ele>240.13</ele><time>2024-09-15T00:00:59Z</time></trkpt><trkpt lat="-39.2937946972" lon="-72.4086893443"><ele>239.90</ele><time>2024-09-15T00:01:00Z</time></trkpt><trkpt lat="-39.2937557213" lon="-72.4086453393"><ele>240.18</ele><time>2024-09-15T00:01:01Z</time></trkpt><trkpt lat="-39.2937075254" lon="-72.4086024240"><ele>239.79</ele><time>2024-09-15T00:01:02Z</time></trkpt><trkpt lat="-39.2936459184" lon="-72.4085548148"><ele>239.85</ele><time>2024-09-15T00:01:03Z</time></trkpt><trkpt lat="-39.2929816525" lon="-72.4081445206"><ele>237.87</ele><time>2024-09-15T00:01:12Z</time></trkpt><trkpt lat="-39.2928542476" lon="-72.4080353044"><ele>236.16</ele><time>2024-09-15T00:01:19Z</time></trkpt><trkpt lat="-39.2929674033" lon="-72.4076139461"><ele>237.78</ele><time>2024-09-15T00:01:27Z</time></trkpt><trkpt lat="-39.2931350414" lon="-72.4071475770"><ele>239.89</ele><time>2024-09-15T00:01:32Z</time></trkpt><trkpt lat="-39.2934125662" lon="-72.4064068682"><ele>242.98</ele><time>2024-09-15T00:01:40Z</time></trkpt><trkpt lat="-39.2934978940" lon="-72.4063048605"><ele>243.87</ele><time>2024-09-15T00:01:45Z</time></trkpt><trkpt lat="-39.2935273144" lon="-72.4063056149"><ele>244.13</ele><time>2024-09-15T00:01:46Z</time></trkpt><trkpt lat="-39.2935615964" lon="-72.4063151702"><ele>244.65</ele><time>2024-09-15T00:01:47Z</time></trkpt><trkpt lat="-39.2936018296" lon="-72.4063341971"><ele>245.19</ele><time>2024-09-15T00:01:48Z</time></trkpt><trkpt lat="-39.2936468404" lon="-72.4063595943"><ele>245.77</ele><time>2024-09-15T00:01:49Z</time></trkpt><trkpt lat="-39.2940507643" lon="-72.4065988977"><ele>248.82</ele><time>2024-09-15T00:01:56Z</time></trkpt><trkpt lat="-39.2944379244" lon="-72.4069551285"><ele>247.16</ele><time>2024-09-15T00:02:06Z</time></trkpt><trkpt lat="-39.2944268603" lon="-72.4070249498"><ele>247.06</ele><time>2024-09-15T00:02:07Z</time></trkpt><trkpt lat="-39.2944060732" lon="-72.4071004707"><ele>246.88</ele><time>2024-09-15T00:02:08Z</time></trkpt><trkpt lat="-39.2943776585" lon="-72.4071801826"><ele>246.64</ele><time>2024-09-15T00:02:09Z</time></trkpt><trkpt lat="-39.2943438794" lon="-72.4072652590"><ele>246.32</ele><time>2024-09-15T00:02:10Z</time></trkpt><trkpt lat="-39.2940518539" lon="-72.4080148526"><ele>242.96</ele><time>2024-09-15T00:02:18Z</time></trkpt><trkpt lat="-39.2939600721" lon="-72.4082316924"><ele>239.37</ele><time>2024-09-15T00:02:21Z</time></trkpt><trkpt lat="-39.2939045839" lon="-72.4083679821"><ele>238.01</ele><time>2024-09-15T00:02:23Z</time></trkpt><trkpt lat="-39.2938200105" lon="-72.4086196907"><ele>236.94</ele><time>2024-09-15T00:02:28Z</time></trkpt><trkpt lat="-39.2938368581" lon="-72.4086553138"><ele>236.88</ele><time>2024-09-15T00:02:29Z</time></trkpt><trkpt lat="-39.2938678712" lon="-72.4086777773"><ele>236.81</ele><time>2024-09-15T00:02:30Z</time></trkpt><trkpt lat="-39.2939102836" lon="-72.4086802080"><ele>236.93</ele><time>2024-09-15T00:02:31Z</time></trkpt><trkpt lat="-39.2939552106" lon="-72.4086636957"><ele>237.20</ele><time>2024-09-15T00:02:32Z</time></trkpt><trkpt lat="-39.2940046638" lon="-72.4086323474"><ele>237.60</ele><time>2024-09-15T00:02:33Z</time></trkpt><trkpt lat="-39.2940593138" lon="-72.4085906055"><ele>238.27</ele><time>2024-09-15T00:02:34Z</time></trkpt><trkpt lat="-39.2943387665" lon="-72.4083535653"><ele>241.84</ele><time>2024-09-15T00:02:38Z</time></trkpt><trkpt lat="-39.2946176324" lon="-72.4081092328"><ele>245.31</ele><time>2024-09-15T00:02:42Z</time></trkpt><trkpt lat="-39.2951421719" lon="-72.4076563586"><ele>248.44</ele><time>2024-09-15T00:02:50Z</time></trkpt><trkpt lat="-39.2953212094" lon="-72.4074665084"><ele>249.75</ele><time>2024-09-15T00:02:55Z</time></trkpt><trkpt lat="-39.2953155097" lon="-72.4074209109"><ele>249.80</ele><time>2024-09-15T00:02:56Z</time></trkpt><trkpt lat="-39.2952925432" lon="-72.4073751457"><ele>249.96</ele><time>2024-09-15T00:02:57Z</time></trkpt><trkpt lat="-39.2952511366" lon="-72.4073341582"><ele>249.73</ele><time>2024-09-15T00:02:58Z</time></trkpt><trkpt lat="-39.2951952294" lon="-72.4072927516"><ele>249.33</ele><time>2024-09-15T00:02:59Z</time></trkpt><trkpt lat="-39.2951274198" lon="-72.4072473217"><ele>249.06</ele><time>2024-09-15T00:03:00Z</time></trkpt><trkpt lat="-39.2946313787" lon="-72.4069350958"><ele>246.01</ele><time>2024-09-15T00:03:07Z</time></trkpt><trkpt lat="-39.2945188936" lon="-72.4068226106"><ele>244.12</ele><time>2024-09-15T00:03:11Z</time></trkpt><trkpt lat="-39.2945183069" lon="-72.4067776836"><ele>243.96</ele><time>2024-09-15T00:03:12Z</time></trkpt><trkpt lat="-39.2945281137" lon="-72.4067244586"><ele>243.98</ele><time>2024-09-15T00:03:13Z</time></trkpt><trkpt lat="-39.2945466377" lon="-72.4066599179"><ele>244.17</ele><time>2024-09-15T00:03:14Z</time></trkpt><trkpt lat="-39.2945710290" lon="-72.4065877497"><ele>244.88</ele><time>2024-09-15T00:03:15Z</time></trkpt><trkpt lat="-39.2946023773" lon="-72.4065097980"><ele>245.24</ele><time>2024-09-15T00:03:16Z</time></trkpt><trkpt lat="-39.2948966660" lon="-72.4057457037"><ele>248.48</ele><time>2024-09-15T00:03:24Z</time></trkpt><trkpt lat="-39.2950073909" lon="-72.4054348189"><ele>248.88</ele><time>2024-09-15T00:03:28Z</time></trkpt><trkpt lat="-39.2950208019" lon="-72.4053601362"><ele>248.94</ele><time>2024-09-15T00:03:29Z</time></trkpt><trkpt lat="-39.2950244900" lon="-72.4052850343"><ele>248.86</ele><time>2024-09-15T00:03:30Z</time></trkpt><trkpt lat="-39.2950170301" lon="-72.4052085076"><ele>248.88</ele><time>2024-09-15T00:03:31Z</time></trkpt><trkpt lat="-39.2950020265" lon="-72.4051306397"><ele>249.05</ele><time>2024-09-15T00:03:32Z</time></trkpt><trkpt lat="-39.2949851789" lon="-72.4050537776"><ele>249.24</ele><time>2024-09-15T00:03:33Z</time></trkpt><trkpt lat="-39.2949519865" lon="-72.4047167413"><ele>249.38</ele><time>2024-09-15T00:03:41Z</time></trkpt><trkpt lat="-39.2952543218" lon="-72.4045668729"><ele>250.61</ele><time>2024-09-15T00:03:49Z</time></trkpt><trkpt lat="-39.2959034164" lon="-72.4043870810"><ele>252.07</ele><time>2024-09-15T00:03:59Z</time></trkpt><trkpt lat="-39.2959407158" lon="-72.4043885898"><ele>251.80</ele><time>2024-09-15T00:04:01Z</time></trkpt><trkpt lat="-39.2959666997" lon="-72.4044034258"><ele>251.94</ele><time>2024-09-15T00:04:02Z</time></trkpt><trkpt lat="-39.2959910072" lon="-72.4044313375"><ele>251.95</ele><time>2024-09-15T00:04:03Z</time></trkpt><trkpt lat="-39.2960113753" lon="-72.4044778571"><ele>251.94</ele><time>2024-09-15T00:04:04Z</time></trkpt><trkpt lat="-39.2960273847" lon="-72.4045399670"><ele>252.05</ele><time>2024-09-15T00:04:05Z</time></trkpt><trkpt lat="-39.2960427236" lon="-72.4046170805"><ele>252.05</ele><time>2024-09-15T00:04:06Z</time></trkpt><trkpt lat="-39.2962108646" lon="-72.4055891298"><ele>252.14</ele><time>2024-09-15T00:04:15Z</time></trkpt><trkpt lat="-39.2962288857" lon="-72.4057135172"><ele>251.53</ele><time>2024-09-15T00:04:20Z</time></trkpt><trkpt lat="-39.2962133791" lon="-72.4056474678"><ele>251.43</ele><time>2024-09-15T00:04:23Z</time></trkpt><trkpt lat="-39.2962033208" lon="-72.4056634773"><ele>251.34</ele><time>2024-09-15T00:04:26Z</time></trkpt><trkpt lat="-39.2961899936" lon="-72.4056816660"><ele>251.48</ele><time>2024-09-15T00:04:27Z</time></trkpt><trkpt lat="-39.2961690389" lon="-72.4057031237"><ele>251.44</ele><time>2024-09-15T00:04:28Z</time></trkpt><trkpt lat="-39.2961381935" lon="-72.4057217315"><ele>251.43</ele><time>2024-09-15T00:04:29Z</time></trkpt><trkpt lat="-39.2960963678" lon="-72.4057365675"><ele>251.52</ele><time>2024-09-15T00:04:30Z</time></trkpt><trkpt lat="-39.2960441485" lon="-72.4057505652"><ele>251.53</ele><time>2024-09-15T00:04:31Z</time></trkpt><trkpt lat="-39.2953975685" lon="-72.4059357215"><ele>250.97</ele><time>2024-09-15T00:04:39Z</time></trkpt><trkpt lat="-39.2951910384" lon="-72.4060534034"><ele>249.56</ele><time>2024-09-15T00:04:45Z</time></trkpt><trkpt lat="-39.2951843329" lon="-72.4061030243"><ele>249.54</ele><time>2024-09-15T00:04:46Z</time></trkpt><trkpt lat="-39.2951849196" lon="-72.4061612785"><ele>249.59</ele><time>2024-09-15T00:04:47Z</time></trkpt><trkpt lat="-39.2951939721" lon="-72.4062328599"><ele>249.63</ele><time>2024-09-15T00:04:48Z</time></trkpt><trkpt lat="-39.2952087242" lon="-72.4063149188"><ele>249.80</ele><time>2024-09-15T00:04:49Z</time></trkpt><trkpt lat="-39.2953762785" lon="-72.4072819389"><ele>250.59</ele><time>2024-09-15T00:05:00Z</time></trkpt><trkpt lat="-39.2954194453" lon="-72.4073582143"><ele>250.26</ele><time>2024-09-15T00:05:02Z</time></trkpt><trkpt lat="-39.2954585049" lon="-72.4073810130"><ele>250.19</ele><time>2024-09-15T00:05:03Z</time></trkpt><trkpt lat="-39.2955073714" lon="-72.4073882215"><ele>250.31</ele><time>2024-09-15T00:05:04Z</time></trkpt><trkpt lat="-39.2955638655" lon="-72.4073785823"><ele>250.40</ele><time>2024-09-15T00:05:05Z</time></trkpt><trkpt lat="-39.2956274841" lon="-72.4073594715"><ele>250.58</ele><time>2024-09-15T00:05:06Z</time></trkpt><trkpt lat="-39.2964535207" lon="-72.4070935138"><ele>250.98</ele><time>2024-09-15T00:05:17Z</time></trkpt><trkpt lat="-39.2968244199" lon="-72.4069588166"><ele>249.87</ele><time>2024-09-15T00:05:26Z</time></trkpt><trkpt lat="-39.2968825903" lon="-72.4067983031"><ele>250.00</ele><time>2024-09-15T00:05:32Z</time></trkpt><trkpt lat="-39.2969026230" lon="-72.4067775160"><ele>250.10</ele><time>2024-09-15T00:05:33Z</time></trkpt><trkpt lat="-39.2969251703" lon="-72.4067593273"><ele>250.17</ele><time>2024-09-15T00:05:34Z</time></trkpt><trkpt lat="-39.2969482206" lon="-72.4067365285"><ele>250.30</ele><time>2024-09-15T00:05:35Z</time></trkpt><trkpt lat="-39.2969946563" lon="-72.4066680484"><ele>250.58</ele><time>2024-09-15T00:05:37Z</time></trkpt><trkpt lat="-39.2970225681" lon="-72.4062435888"><ele>251.87</ele><time>2024-09-15T00:05:48Z</time></trkpt><trkpt lat="-39.2969486397" lon="-72.4057487212"><ele>251.98</ele><time>2024-09-15T00:06:00Z</time></trkpt><trkpt lat="-39.2971762922" lon="-72.4056198075"><ele>251.81</ele><time>2024-09-15T00:06:08Z</time></trkpt><trkpt lat="-39.2972089816" lon="-72.4053832702"><ele>252.11</ele><time>2024-09-15T00:06:14Z</time></trkpt><trkpt lat="-39.2972312775" lon="-72.4048425537"><ele>253.45</ele><time>2024-09-15T00:06:27Z</time></trkpt><trkpt lat="-39.2972274218" lon="-72.4044117238"><ele>254.30</ele><time>2024-09-15T00:06:36Z</time></trkpt><trkpt lat="-39.2971113324" lon="-72.4038039520"><ele>254.79</ele><time>2024-09-15T00:06:45Z</time></trkpt><trkpt lat="-39.2971157748" lon="-72.4037486315"><ele>254.79</ele><time>2024-09-15T00:06:47Z</time></trkpt><trkpt lat="-39.2971353047" lon="-72.4037244916"><ele>254.86</ele><time>2024-09-15T00:06:48Z</time></trkpt><trkpt lat="-39.2971662339" lon="-72.4037063867"><ele>255.06</ele><time>2024-09-15T00:06:49Z</time></trkpt><trkpt lat="-39.2972111609" lon="-72.4036902934"><ele>255.04</ele><time>2024-09-15T00:06:50Z</time></trkpt><trkpt lat="-39.2972673196" lon="-72.4036741164"><ele>255.14</ele><time>2024-09-15T00:06:51Z</time></trkpt><trkpt lat="-39.2978051864" lon="-72.4035421852"><ele>256.39</ele><time>2024-09-15T00:06:59Z</time></trkpt><trkpt lat="-39.2978465091" lon="-72.4035407603"><ele>256.43</ele><time>2024-09-15T00:07:00Z</time></trkpt><trkpt lat="-39.2978854012" lon="-72.4035523273"><ele>256.29</ele><time>2024-09-15T00:07:01Z</time></trkpt><trkpt lat="-39.2979249638" lon="-72.4035819992"><ele>256.29</ele><time>2024-09-15T00:07:02Z</time></trkpt><trkpt lat="-39.2979641911" lon="-72.4036307819"><ele>256.31</ele><time>2024-09-15T00:07:03Z</time></trkpt><trkpt lat="-39.2980054300" lon="-72.4036933109"><ele>256.23</ele><time>2024-09-15T00:07:04Z</time></trkpt><trkpt lat="-39.2980477586" lon="-72.4037664849"><ele>256.13</ele><time>2024-09-15T00:07:05Z</time></trkpt><trkpt lat="-39.2985623237" lon="-72.4046514463"><ele>253.96</ele><time>2024-09-15T00:07:17Z</time></trkpt><trkpt lat="-39.2985986173" lon="-72.4046831299"><ele>253.69</ele><time>2024-09-15T00:07:18Z</time></trkpt><trkpt lat="-39.2986396886" lon="-72.4046975467"><ele>253.38</ele><time>2024-09-15T00:07:19Z</time></trkpt><trkpt lat="-39.2986894771" lon="-72.4046982173"><ele>253.28</ele><time>2024-09-15T00:07:20Z</time></trkpt><trkpt lat="-39.2987455521" lon="-72.4046877399"><ele>253.24</ele><time>2024-09-15T00:07:21Z</time></trkpt><trkpt lat="-39.2988090869" lon="-72.4046714790"><ele>253.33</ele><time>2024-09-15T00:07:22Z</time></trkpt><trkpt lat="-39.2993458640" lon="-72.4045166653"><ele>252.41</ele><time>2024-09-15T00:07:32Z</time></trkpt><trkpt lat="-39.2994221393" lon="-72.4044915196"><ele>252.35</ele><time>2024-09-15T00:07:34Z</time></trkpt><trkpt lat="-39.3000397179" lon="-72.4043305870"><ele>252.67</ele><time>2024-09-15T00:07:43Z</time></trkpt><trkpt lat="-39.3003586493" lon="-72.4042445887"><ele>253.20</ele><time>2024-09-15T00:07:48Z</time></trkpt><trkpt lat="-39.3004034925" lon="-72.4042177666"><ele>253.39</ele><time>2024-09-15T00:07:49Z</time></trkpt><trkpt lat="-39.3004356790" lon="-72.4041756056"><ele>253.75</ele><time>2024-09-15T00:07:50Z</time></trkpt><trkpt lat="-39.3004516046" lon="-72.4041204527"><ele>254.01</ele><time>2024-09-15T00:07:51Z</time></trkpt><trkpt lat="-39.3004526943" lon="-72.4040481169"><ele>254.26</ele><time>2024-09-15T00:07:52Z</time></trkpt><trkpt lat="-39.3004410435" lon="-72.4039627891"><ele>254.58</ele><time>2024-09-15T00:07:53Z</time></trkpt><trkpt lat="-39.3004240282" lon="-72.4038639665"><ele>255.08</ele><time>2024-09-15T00:07:54Z</time></trkpt><trkpt lat="-39.3003370240" lon="-72.4033721164"><ele>258.20</ele><time>2024-09-15T00:07:59Z</time></trkpt><trkpt lat="-39.3002780993" lon="-72.4030459765"><ele>261.54</ele><time>2024-09-15T00:08:03Z</time></trkpt><trkpt lat="-39.3001045100" lon="-72.4028313160"><ele>262.39</ele><time>2024-09-15T00:08:10Z</time></trkpt><trkpt lat="-39.3000494409" lon="-72.4028360099"><ele>262.10</ele><time>2024-09-15T00:08:11Z</time></trkpt><trkpt lat="-39.2999835592" lon="-72.4028505106"><ele>261.65</ele><time>2024-09-15T00:08:12Z</time></trkpt><trkpt lat="-39.2997570802" lon="-72.4029113632"><ele>258.31</ele><time>2024-09-15T00:08:15Z</time></trkpt><trkpt lat="-39.2991776392" lon="-72.4030764028"><ele>255.42</ele><time>2024-09-15T00:08:24Z</time></trkpt><trkpt lat="-39.2985652573" lon="-72.4032606371"><ele>255.84</ele><time>2024-09-15T00:08:33Z</time></trkpt><trkpt lat="-39.2981548794" lon="-72.4033826776"><ele>255.81</ele><time>2024-09-15T00:08:42Z</time></trkpt><trkpt lat="-39.2981306557" lon="-72.4033780675"><ele>255.98</ele><time>2024-09-15T00:08:43Z</time></trkpt><trkpt lat="-39.2981081922" lon="-72.4033588730"><ele>256.18</ele><time>2024-09-15T00:08:44Z</time></trkpt><trkpt lat="-39.2980923504" lon="-72.4033266027"><ele>256.16</ele><time>2024-09-15T00:08:45Z</time></trkpt><trkpt lat="-39.2980806157" lon="-72.4032786582"><ele>256.21</ele><time>2024-09-15T00:08:46Z</time></trkpt><trkpt lat="-39.2980694678" lon="-72.4032160453"><ele>256.34</ele><time>2024-09-15T00:08:47Z</time></trkpt><trkpt lat="-39.2979099602" lon="-72.4022242147"><ele>258.38</ele><time>2024-09-15T00:08:59Z</time></trkpt><trkpt lat="-39.2979199346" lon="-72.4020991568"><ele>258.63</ele><time>2024-09-15T00:09:02Z</time></trkpt><trkpt lat="-39.2979435716" lon="-72.4020691495"><ele>258.67</ele><time>2024-09-15T00:09:03Z</time></trkpt><trkpt lat="-39.2979798652" lon="-72.4020444229"><ele>258.75</ele><time>2024-09-15T00:09:04Z</time></trkpt><trkpt lat="-39.2980298214" lon="-72.4020266533"><ele>258.63</ele><time>2024-09-15T00:09:05Z</time></trkpt><trkpt lat="-39.2980879080" lon="-72.4020119011"><ele>258.75</ele><time>2024-09-15T00:09:06Z</time></trkpt><trkpt lat="-39.2981514428" lon="-72.4019948859"><ele>258.95</ele><time>2024-09-15T00:09:07Z</time></trkpt><trkpt lat="-39.2988623120" lon="-72.4018074665"><ele>260.32</ele><time>2024-09-15T00:09:18Z</time></trkpt><trkpt lat="-39.2993500549" lon="-72.4016644713"><ele>263.53</ele><time>2024-09-15T00:09:25Z</time></trkpt><trkpt lat="-39.2994315270" lon="-72.4016419239"><ele>263.84</ele><time>2024-09-15T00:09:26Z</time></trkpt><trkpt lat="-39.2999502830" lon="-72.4014874455"><ele>265.33</ele><time>2024-09-15T00:09:36Z</time></trkpt><trkpt lat="-39.2999825533" lon="-72.4013643991"><ele>265.38</ele><time>2024-09-15T00:09:39Z</time></trkpt><trkpt lat="-39.2999745905" lon="-72.4012969248"><ele>265.30</ele><time>2024-09-15T00:09:40Z</time></trkpt><trkpt lat="-39.2999637779" lon="-72.4012160394"><ele>265.26</ele><time>2024-09-15T00:09:41Z</time></trkpt><trkpt lat="-39.2997960560" lon="-72.4002055172"><ele>263.18</ele><time>2024-09-15T00:09:52Z</time></trkpt><trkpt lat="-39.2997662164" lon="-72.4001595844"><ele>263.13</ele><time>2024-09-15T00:09:53Z</time></trkpt><trkpt lat="-39.2997258995" lon="-72.4001278169"><ele>262.88</ele><time>2024-09-15T00:09:54Z</time></trkpt><trkpt lat="-39.2996753566" lon="-72.4001147412"><ele>262.88</ele><time>2024-09-15T00:09:55Z</time></trkpt><trkpt lat="-39.2996174376" lon="-72.4001209438"><ele>262.81</ele><time>2024-09-15T00:09:56Z</time></trkpt><trkpt lat="-39.2995539028" lon="-72.4001344386"><ele>262.56</ele><time>2024-09-15T00:09:57Z</time></trkpt><trkpt lat="-39.2988062371" lon="-72.4003361911"><ele>259.71</ele><time>2024-09-15T00:10:09Z</time></trkpt><trkpt lat="-39.2983826995" lon="-72.4004507717"><ele>259.39</ele><time>2024-09-15T00:10:17Z</time></trkpt><trkpt lat="-39.2975116521" lon="-72.4006777536"><ele>257.38</ele><time>2024-09-15T00:10:30Z</time></trkpt><trkpt lat="-39.2972161062" lon="-72.4006785080"><ele>253.98</ele><time>2024-09-15T00:10:34Z</time></trkpt><trkpt lat="-39.2965402734" lon="-72.4007031508"><ele>250.91</ele><time>2024-09-15T00:10:45Z</time></trkpt><trkpt lat="-39.2964512575" lon="-72.4006496742"><ele>250.63</ele><time>2024-09-15T00:10:48Z</time></trkpt><trkpt lat="-39.2964313924" lon="-72.4005952757"><ele>250.64</ele><time>2024-09-15T00:10:49Z</time></trkpt><trkpt lat="-39.2961693741" lon="-72.4000449199"><ele>250.73</ele><time>2024-09-15T00:10:56Z</time></trkpt><trkpt lat="-39.2961127963" lon="-72.3999832291"><ele>250.69</ele><time>2024-09-15T00:10:57Z</time></trkpt><trkpt lat="-39.2960531171" lon="-72.3999325186"><ele>250.62</ele><time>2024-09-15T00:10:58Z</time></trkpt><trkpt lat="-39.2959905881" lon="-72.3998901900"><ele>250.81</ele><time>2024-09-15T00:10:59Z</time></trkpt><trkpt lat="-39.2959280591" lon="-72.3998585064"><ele>250.82</ele><time>2024-09-15T00:11:00Z</time></trkpt><trkpt lat="-39.2958679609" lon="-72.3998361267"><ele>251.06</ele><time>2024-09-15T00:11:01Z</time></trkpt><trkpt lat="-39.2958178371" lon="-72.3998222128"><ele>251.44</ele><time>2024-09-15T00:11:02Z</time></trkpt><trkpt lat="-39.2957812920" lon="-72.3998170998"><ele>251.73</ele><time>2024-09-15T00:11:03Z</time></trkpt><trkpt lat="-39.2957522068" lon="-72.3998138309"><ele>251.95</ele><time>2024-09-15T00:11:04Z</time></trkpt><trkpt lat="-39.2956037633" lon="-72.3996381462"><ele>251.83</ele><time>2024-09-15T00:11:13Z</time></trkpt><trkpt lat="-39.2954447586" lon="-72.3987958487"><ele>253.29</ele><time>2024-09-15T00:11:22Z</time></trkpt><trkpt lat="-39.2951159365" lon="-72.3973222263"><ele>256.32</ele><time>2024-09-15T00:11:36Z</time></trkpt><trkpt lat="-39.2949960753" lon="-72.3966797534"><ele>259.36</ele><time>2024-09-15T00:11:42Z</time></trkpt><trkpt lat="-39.2949814070" lon="-72.3965712078"><ele>259.87</ele><time>2024-09-15T00:11:43Z</time></trkpt><trkpt lat="-39.2949643917" lon="-72.3963477463"><ele>260.61</ele><time>2024-09-15T00:11:45Z</time></trkpt><trkpt lat="-39.2949725222" lon="-72.3949178774"><ele>263.59</ele><time>2024-09-15T00:11:58Z</time></trkpt><trkpt lat="-39.2949491367" lon="-72.3932405747"><ele>265.53</ele><time>2024-09-15T00:12:13Z</time></trkpt><trkpt lat="-39.2946444545" lon="-72.3918407131"><ele>265.20</ele><time>2024-09-15T00:12:26Z</time></trkpt><trkpt lat="-39.2940100282" lon="-72.3903507460"><ele>265.21</ele><time>2024-09-15T00:12:41Z</time></trkpt><trkpt lat="-39.2934690602" lon="-72.3892379645"><ele>265.21</ele><time>2024-09-15T00:12:53Z</time></trkpt><trkpt lat="-39.2934497818" lon="-72.3891347833"><ele>265.33</ele><time>2024-09-15T00:12:54Z</time></trkpt><trkpt lat="-39.2934455071" lon="-72.3890305124"><ele>265.26</ele><time>2024-09-15T00:12:55Z</time></trkpt><trkpt lat="-39.2934525479" lon="-72.3889271636"><ele>265.25</ele><time>2024-09-15T00:12:56Z</time></trkpt><trkpt lat="-39.2934679706" lon="-72.3888216354"><ele>265.40</ele><time>2024-09-15T00:12:57Z</time></trkpt><trkpt lat="-39.2934850696" lon="-72.3887172807"><ele>265.38</ele><time>2024-09-15T00:12:58Z</time></trkpt><trkpt lat="-39.2937960383" lon="-72.3871074524"><ele>265.98</ele><time>2024-09-15T00:13:13Z</time></trkpt><trkpt lat="-39.2940614093" lon="-72.3857253604"><ele>268.19</ele><time>2024-09-15T00:13:26Z</time></trkpt><trkpt lat="-39.2942788359" lon="-72.3845652211"><ele>271.49</ele><time>2024-09-15T00:13:37Z</time></trkpt><trkpt lat="-39.2945120204" lon="-72.3834009748"><ele>274.36</ele><time>2024-09-15T00:13:48Z</time></trkpt><trkpt lat="-39.2947812472" lon="-72.3819863610"><ele>275.49</ele><time>2024-09-15T00:14:01Z</time></trkpt><trkpt lat="-39.2950411700" lon="-72.3806678038"><ele>273.99</ele><time>2024-09-15T00:14:13Z</time></trkpt><trkpt lat="-39.2952907830" lon="-72.3795119394"><ele>271.25</ele><time>2024-09-15T00:14:24Z</time></trkpt><trkpt lat="-39.2954857461" lon="-72.3785315081"><ele>268.22</ele><time>2024-09-15T00:14:33Z</time></trkpt><trkpt lat="-39.2958730739" lon="-72.3766582366"><ele>266.75</ele><time>2024-09-15T00:14:50Z</time></trkpt><trkpt lat="-39.2961845454" lon="-72.3752494063"><ele>265.30</ele><time>2024-09-15T00:15:03Z</time></trkpt><trkpt lat="-39.2964889761" lon="-72.3739497084"><ele>262.98</ele><time>2024-09-15T00:15:16Z</time></trkpt><trkpt lat="-39.2965224199" lon="-72.3736114148"><ele>262.35</ele><time>2024-09-15T00:15:24Z</time></trkpt><trkpt lat="-39.2965029739" lon="-72.3735792283"><ele>262.30</ele><time>2024-09-15T00:15:27Z</time></trkpt><trkpt lat="-39.2964922450" lon="-72.3735715169"><ele>262.31</ele><time>2024-09-15T00:15:28Z</time></trkpt><trkpt lat="-39.2965114396" lon="-72.3735688347"><ele>262.19</ele><time>2024-09-15T00:15:42Z</time></trkpt><trkpt lat="-39.2965082545" lon="-72.3735948186"><ele>262.16</ele><time>2024-09-15T00:15:49Z</time></trkpt><trkpt lat="-39.2964734696" lon="-72.3737141769"><ele>262.50</ele><time>2024-09-15T00:15:52Z</time></trkpt><trkpt lat="-39.2963163927" lon="-72.3744287342"><ele>263.67</ele><time>2024-09-15T00:16:01Z</time></trkpt><trkpt lat="-39.2959915940" lon="-72.3759473674"><ele>265.81</ele><time>2024-09-15T00:16:16Z</time></trkpt><trkpt lat="-39.2956305016" lon="-72.3776687589"><ele>266.69</ele><time>2024-09-15T00:16:33Z</time></trkpt><trkpt lat="-39.2953374702" lon="-72.3791740648"><ele>269.70</ele><time>2024-09-15T00:16:48Z</time></trkpt><trkpt lat="-39.2951166071" lon="-72.3802938033"><ele>272.88</ele><time>2024-09-15T00:16:59Z</time></trkpt><trkpt lat="-39.2948721908" lon="-72.3815314751"><ele>274.98</ele><time>2024-09-15T00:17:11Z</time></trkpt><trkpt lat="-39.2945777345" lon="-72.3830666207"><ele>275.32</ele><time>2024-09-15T00:17:26Z</time></trkpt><trkpt lat="-39.2943335697" lon="-72.3842891213"><ele>272.75</ele><time>2024-09-15T00:17:38Z</time></trkpt><trkpt lat="-39.2941120360" lon="-72.3854270484"><ele>269.66</ele><time>2024-09-15T00:17:49Z</time></trkpt><trkpt lat="-39.2938422225" lon="-72.3868467752"><ele>266.61</ele><time>2024-09-15T00:18:03Z</time></trkpt><trkpt lat="-39.2934342753" lon="-72.3888803087"><ele>265.61</ele><time>2024-09-15T00:18:23Z</time></trkpt><trkpt lat="-39.2934097163" lon="-72.3890875932"><ele>265.45</ele><time>2024-09-15T00:18:25Z</time></trkpt><trkpt lat="-39.2934130691" lon="-72.3891911935"><ele>265.49</ele><time>2024-09-15T00:18:26Z</time></trkpt><trkpt lat="-39.2934294138" lon="-72.3892942909"><ele>265.40</ele><time>2024-09-15T00:18:27Z</time></trkpt><trkpt lat="-39.2934559844" lon="-72.3893927783"><ele>265.44</ele><time>2024-09-15T00:18:28Z</time></trkpt><trkpt lat="-39.2934897635" lon="-72.3894853145"><ele>265.39</ele><time>2024-09-15T00:18:29Z</time></trkpt><trkpt lat="-39.2935295776" lon="-72.3895750009"><ele>265.27</ele><time>2024-09-15T00:18:30Z</time></trkpt><trkpt lat="-39.2935728282" lon="-72.3896610830"><ele>265.39</ele><time>2024-09-15T00:18:31Z</time></trkpt><trkpt lat="-39.2943457235" lon="-72.3911397345"><ele>265.23</ele><time>2024-09-15T00:18:48Z</time></trkpt><trkpt lat="-39.2948949896" lon="-72.3928653169"><ele>265.46</ele><time>2024-09-15T00:19:06Z</time></trkpt><trkpt lat="-39.2949763779" lon="-72.3944337387"><ele>264.30</ele><time>2024-09-15T00:19:21Z</time></trkpt><trkpt lat="-39.2949466221" lon="-72.3960208520"><ele>261.18</ele><time>2024-09-15T00:19:36Z</time></trkpt><trkpt lat="-39.2949314509" lon="-72.3965412006"><ele>259.28</ele><time>2024-09-15T00:19:45Z</time></trkpt><trkpt lat="-39.2949119210" lon="-72.3965661786"><ele>259.04</ele><time>2024-09-15T00:19:49Z</time></trkpt><trkpt lat="-39.2948981747" lon="-72.3965733033"><ele>259.14</ele><time>2024-09-15T00:19:50Z</time></trkpt><trkpt lat="-39.2948756274" lon="-72.3965754826"><ele>259.12</ele><time>2024-09-15T00:19:51Z</time></trkpt><trkpt lat="-39.2948489729" lon="-72.3965694476"><ele>259.05</ele><time>2024-09-15T00:19:52Z</time></trkpt><trkpt lat="-39.2948188819" lon="-72.3965553660"><ele>259.04</ele><time>2024-09-15T00:19:53Z</time></trkpt><trkpt lat="-39.2947845161" lon="-72.3965335730"><ele>259.12</ele><time>2024-09-15T00:19:54Z</time></trkpt><trkpt lat="-39.2947455402" lon="-72.3965108581"><ele>259.18</ele><time>2024-09-15T00:19:55Z</time></trkpt><trkpt lat="-39.2941126227" lon="-72.3962210957"><ele>260.45</ele><time>2024-09-15T00:20:05Z</time></trkpt><trkpt lat="-39.2933102231" lon="-72.3958977219"><ele>263.48</ele><time>2024-09-15T00:20:18Z</time></trkpt><trkpt lat="-39.2924885452" lon="-72.3955347855"><ele>266.20</ele><time>2024-09-15T00:20:35Z</time></trkpt><trkpt lat="-39.2924439535" lon="-72.3955538962"><ele>266.33</ele><time>2024-09-15T00:20:38Z</time></trkpt><trkpt lat="-39.2924338952" lon="-72.3955704924"><ele>266.20</ele><time>2024-09-15T00:20:39Z</time></trkpt><trkpt lat="-39.2924367450" lon="-72.3955189437"><ele>266.16</ele><time>2024-09-15T00:20:49Z</time></trkpt><trkpt lat="-39.2924601305" lon="-72.3955688160"><ele>266.17</ele><time>2024-09-15T00:20:52Z</time></trkpt><trkpt lat="-39.2924946640" lon="-72.3955980688"><ele>266.00</ele><time>2024-09-15T00:20:54Z</time></trkpt><trkpt lat="-39.2925233301" lon="-72.3956136592"><ele>266.00</ele><time>2024-09-15T00:20:55Z</time></trkpt><trkpt lat="-39.2925592884" lon="-72.3956300877"><ele>265.87</ele><time>2024-09-15T00:20:56Z</time></trkpt><trkpt lat="-39.2931513023" lon="-72.3958678823"><ele>263.84</ele><time>2024-09-15T00:21:07Z</time></trkpt><trkpt lat="-39.2940290552" lon="-72.3962288070"><ele>261.10</ele><time>2024-09-15T00:21:21Z</time></trkpt><trkpt lat="-39.2948940676" lon="-72.3965727165"><ele>258.86</ele><time>2024-09-15T00:21:35Z</time></trkpt><trkpt lat="-39.2950191256" lon="-72.3968210723"><ele>257.79</ele><time>2024-09-15T00:21:43Z</time></trkpt><trkpt lat="-39.2951829080" lon="-72.3976915330"><ele>254.76</ele><time>2024-09-15T00:21:52Z</time></trkpt><trkpt lat="-39.2954976484" lon="-72.3991673347"><ele>251.70</ele><time>2024-09-15T00:22:06Z</time></trkpt><trkpt lat="-39.2956077028" lon="-72.3997839075"><ele>250.78</ele><time>2024-09-15T00:22:13Z</time></trkpt><trkpt lat="-39.2956055235" lon="-72.3998601828"><ele>250.52</ele><time>2024-09-15T00:22:14Z</time></trkpt><trkpt lat="-39.2955951300" lon="-72.3999392241"><ele>250.22</ele><time>2024-09-15T00:22:15Z</time></trkpt><trkpt lat="-39.2955770250" lon="-72.4000273179"><ele>250.06</ele><time>2024-09-15T00:22:16Z</time></trkpt><trkpt lat="-39.2955531366" lon="-72.4001185969"><ele>249.90</ele><time>2024-09-15T00:22:17Z</time></trkpt><trkpt lat="-39.2955269013" lon="-72.4002096243"><ele>249.71</ele><time>2024-09-15T00:22:18Z</time></trkpt><trkpt lat="-39.2953613587" lon="-72.4010856170"><ele>247.07</ele><time>2024-09-15T00:22:27Z</time></trkpt><trkpt lat="-39.2953662202" lon="-72.4011966772"><ele>246.80</ele><time>2024-09-15T00:22:28Z</time></trkpt><trkpt lat="-39.2953791283" lon="-72.4013105035"><ele>246.57</ele><time>2024-09-15T00:22:29Z</time></trkpt><trkpt lat="-39.2956283223" lon="-72.4026979599"><ele>248.34</ele><time>2024-09-15T00:22:42Z</time></trkpt><trkpt lat="-39.2958937772" lon="-72.4040488712"><ele>250.94</ele><time>2024-09-15T00:22:58Z</time></trkpt><trkpt lat="-39.2959157377" lon="-72.4043043517"><ele>250.68</ele><time>2024-09-15T00:23:04Z</time></trkpt><trkpt lat="-39.2958979681" lon="-72.4043284915"><ele>250.74</ele><time>2024-09-15T00:23:05Z</time></trkpt><trkpt lat="-39.2958750855" lon="-72.4043445010"><ele>250.68</ele><time>2024-09-15T00:23:06Z</time></trkpt><trkpt lat="-39.2958529573" lon="-72.4043512903"><ele>250.56</ele><time>2024-09-15T00:23:07Z</time></trkpt><trkpt lat="-39.2958325893" lon="-72.4043522123"><ele>250.47</ele><time>2024-09-15T00:23:08Z</time></trkpt><trkpt lat="-39.2958138976" lon="-72.4043504521"><ele>250.54</ele><time>2024-09-15T00:23:09Z</time></trkpt><trkpt lat="-39.2958002351" lon="-72.4043473508"><ele>249.93</ele><time>2024-09-15T00:23:10Z</time></trkpt><trkpt lat="-39.2957524583" lon="-72.4043473508"><ele>250.65</ele><time>2024-09-15T00:23:15Z</time></trkpt><trkpt lat="-39.2957418133" lon="-72.4043305870"><ele>250.21</ele><time>2024-09-15T00:23:34Z</time></trkpt><trkpt lat="-39.2957127281" lon="-72.4043131527"><ele>250.60</ele><time>2024-09-15T00:24:00Z</time></trkpt><trkpt lat="-39.2957120575" lon="-72.4043087102"><ele>250.60</ele><time>2024-09-15T00:24:26Z</time></trkpt></trkseg></trk></gpx>