<?xml version="1.0" encoding="UTF-8" standalone="no" ?><gpx xmlns="http://www.topografix.com/GPX/1/1" xmlns:gpxx="http://www.garmin.com/xmlschemas/GpxExtensions/v3" xmlns:gpxtrkx="http://www.garmin.com/xmlschemas/TrackStatsExtension/v1" xmlns:wptx1="http://www.garmin.com/xmlschemas/WaypointExtension/v1" xmlns:gpxtpx="http://www.garmin.com/xmlschemas/TrackPointExtension/v1" creator="GPSMAP 64sx" version="1.1" xmlns:xsi="http://www.w3.org/2001/XMLSchema-instance" xsi:schemaLocation="http://www.topografix.com/GPX/1/1 http://www.topografix.com/GPX/1/1/gpx.xsd http://www.garmin.com/xmlschemas/GpxExtensions/v3 http://www8.garmin.com/xmlschemas/GpxExtensionsv3.xsd http://www.garmin.com/xmlschemas/TrackStatsExtension/v1 http://www8.garmin.com/xmlschemas/TrackStatsExtension.xsd http://www.garmin.com/xmlschemas/WaypointExtension/v1 http://www8.garmin.com/xmlschemas/WaypointExtensionv1.xsd http://www.garmin.com/xmlschemas/TrackPointExtension/v1 http://www.garmin.com/xmlschemas/TrackPointExtensionv1.xsd"><metadata><link href="http://www.garmin.com"><text>Garmin International</text></link><time>2024-09-16T00:07:22Z</time></metadata><trk><name>GPS HUIS 240915</name><extensions><gpxx:TrackExtension><gpxx:DisplayColor>Cyan</gpxx:DisplayColor></gpxx:TrackExtension><gpxtrkx:TrackStatsExtension><gpxtrkx:Distance>12905.000</gpxtrkx:Distance><gpxtrkx:TotalElapsedTime>1633</gpxtrkx:TotalElapsedTime><gpxtrkx:MovingTime>1555</gpxtrkx:MovingTime><gpxtrkx:StoppedTime>78</gpxtrkx:StoppedTime><gpxtrkx:MovingSpeed>8.299</gpxtrkx:MovingSpeed><gpxtrkx:MaxSpeed>20.676</gpxtrkx:MaxSpeed><gpxtrkx:MaxElevation>285.940</gpxtrkx:MaxElevation><gpxtrkx:MinElevation>230.920</gpxtrkx:MinElevation><gpxtrkx:Ascent>141.000</gpxtrkx:Ascent><gpxtrkx:Descent>143.722</gpxtrkx:Descent><gpxtrkx:AvgAscentRate>0.168</gpxtrkx:AvgAscentRate><gpxtrkx:MaxAscentRate>0.770</gpxtrkx:MaxAscentRate><gpxtrkx:AvgDescentRate>0.119</gpxtrkx:AvgDescentRate><gpxtrkx:MaxDescentRate>-1.552</gpxtrkx:MaxDescentRate></gpxtrkx:TrackStatsExtension></extensions><trkseg><trkpt lat="-39.2733569350" lon="-72.4093389418"><ele>265.26</ele><time>2024-09-15T23:40:09Z</time></trkpt><trkpt lat="-39.2733567674" lon="-72.4093385227"><ele>265.26</ele><time>2024-09-15T23:40:10Z</time></trkpt><trkpt lat="-39.2733736988" lon="-72.4093075097"><ele>263.32</ele><time>2024-09-15T23:40:22Z</time></trkpt><trkpt lat="-39.2734068073" lon="-72.4093018100"><ele>263.19</ele><time>2024-09-15T23:40:24Z</time></trkpt><trkpt lat="-39.2734356411" lon="-72.4093094375"><ele>263.14</ele><time>2024-09-15T23:40:25Z</time></trkpt><trkpt lat="-39.2734746169" lon="-72.4093208369"><ele>263.22</ele><time>2024-09-15T23:40:26Z</time></trkpt><trkpt lat="-39.2735280097" lon="-72.4093363434"><ele>262.64</ele><time>2024-09-15T23:40:27Z</time></trkpt><trkpt lat="-39.2735960707" lon="-72.4093587231"><ele>264.08</ele><time>2024-09-15T23:40:28Z</time></trkpt><trkpt lat="-39.2743884958" lon="-72.4096344877"><ele>264.20</ele><time>2024-09-15T23:40:35Z</time></trkpt><trkpt lat="-39.2758709192" lon="-72.4101502262"><ele>264.91</ele><time>2024-09-15T23:40:44Z</time></trkpt><trkpt lat="-39.2763874121" lon="-72.4102233164"><ele>265.33</ele><time>2024-09-15T23:40:47Z</time></trkpt><trkpt lat="-39.2765608337" lon="-72.4102010205"><ele>265.52</ele><time>2024-09-15T23:40:48Z</time></trkpt><trkpt lat="-39.2767335009" lon="-72.4101563450"><ele>265.70</ele><time>2024-09-15T23:40:49Z</time></trkpt><trkpt lat="-39.2780910339" lon="-72.4097017944"><ele>264.89</ele><time>2024-09-15T23:40:57Z</time></trkpt><trkpt lat="-39.2782676406" lon="-72.4096996989"><ele>264.41</ele><time>2024-09-15T23:40:58Z</time></trkpt><trkpt lat="-39.2784413137" lon="-72.4097270239"><ele>263.70</ele><time>2024-09-15T23:40:59Z</time></trkpt><trkpt lat="-39.2786094546" lon="-72.4097794108"><ele>262.65</ele><time>2024-09-15T23:41:00Z</time></trkpt><trkpt lat="-39.2787744105" lon="-72.4098547641"><ele>261.95</ele><time>2024-09-15T23:41:01Z</time></trkpt><trkpt lat="-39.2789394502" lon="-72.4099467136"><ele>260.38</ele><time>2024-09-15T23:41:02Z</time></trkpt><trkpt lat="-39.2790935934" lon="-72.4100606237"><ele>259.23</ele><time>2024-09-15T23:41:03Z</time></trkpt><trkpt lat="-39.2792386003" lon="-72.4101973325"><ele>257.63</ele><time>2024-09-15T23:41:04Z</time></trkpt><trkpt lat="-39.2793764826" lon="-72.4103544932"><ele>256.11</ele><time>2024-09-15T23:41:05Z</time></trkpt><trkpt lat="-39.2795076594" lon="-72.4105206225"><ele>253.08</ele><time>2024-09-15T23:41:06Z</time></trkpt><trkpt lat="-39.2797664087" lon="-72.4108501151"><ele>249.73</ele><time>2024-09-15T23:41:08Z</time></trkpt><trkpt lat="-39.2800187878" lon="-72.4111800268"><ele>246.64</ele><time>2024-09-15T23:41:10Z</time></trkpt><trkpt lat="-39.2802871764" lon="-72.4114804342"><ele>243.54</ele><time>2024-09-15T23:41:12Z</time></trkpt><trkpt lat="-39.2804396432" lon="-72.4116065819"><ele>241.93</ele><time>2024-09-15T23:41:13Z</time></trkpt><trkpt lat="-39.2806029227" lon="-72.4117147084"><ele>240.68</ele><time>2024-09-15T23:41:14Z</time></trkpt><trkpt lat="-39.2807769310" lon="-72.4118067417"><ele>238.83</ele><time>2024-09-15T23:41:15Z</time></trkpt><trkpt lat="-39.2809532862" lon="-72.4118851963"><ele>237.00</ele><time>2024-09-15T23:41:16Z</time></trkpt><trkpt lat="-39.2811277136" lon="-72.4119520001"><ele>236.18</ele><time>2024-09-15T23:41:17Z</time></trkpt><trkpt lat="-39.2817595415" lon="-72.4121886212"><ele>232.73</ele><time>2024-09-15T23:41:21Z</time></trkpt><trkpt lat="-39.2819054704" lon="-72.4122409243"><ele>232.60</ele><time>2024-09-15T23:41:22Z</time></trkpt><trkpt lat="-39.2831694614" lon="-72.4126560800"><ele>231.77</ele><time>2024-09-15T23:41:30Z</time></trkpt><trkpt lat="-39.2848491948" lon="-72.4132709764"><ele>235.03</ele><time>2024-09-15T23:41:40Z</time></trkpt><trkpt lat="-39.2856954318" lon="-72.4135609902"><ele>237.29</ele><time>2024-09-15T23:41:45Z</time></trkpt><trkpt lat="-39.2875121254" lon="-72.4141944107"><ele>237.21</ele><time>2024-09-15T23:41:57Z</time></trkpt><trkpt lat="-39.2880820110" lon="-72.4143669941"><ele>235.81</ele><time>2024-09-15T23:42:04Z</time></trkpt><trkpt lat="-39.2889758572" lon="-72.4144311994"><ele>233.73</ele><time>2024-09-15T23:42:16Z</time></trkpt><trkpt lat="-39.2898061685" lon="-72.4141769763"><ele>232.06</ele><time>2024-09-15T23:42:24Z</time></trkpt><trkpt lat="-39.2907247413" lon="-72.4134078529"><ele>230.98</ele><time>2024-09-15T23:42:35Z</time></trkpt><trkpt lat="-39.2913072836" lon="-72.4124149326"><ele>234.11</ele><time>2024-09-15T23:42:46Z</time></trkpt><trkpt lat="-39.2916390393" lon="-72.4114242755"><ele>237.21</ele><time>2024-09-15T23:42:56Z</time></trkpt><trkpt lat="-39.2919845413" lon="-72.4104438443"><ele>240.24</ele><time>2024-09-15T23:43:06Z</time></trkpt><trkpt lat="-39.2923299596" lon="-72.4095057417"><ele>243.10</ele><time>2024-09-15T23:43:16Z</time></trkpt><trkpt lat="-39.2923370842" lon="-72.4094464816"><ele>243.20</ele><time>2024-09-15T23:43:17Z</time></trkpt><trkpt lat="-39.2923371680" lon="-72.4093982019"><ele>243.28</ele><time>2024-09-15T23:43:18Z</time></trkpt><trkpt lat="-39.2923333962" lon="-72.4093560409"><ele>243.17</ele><time>2024-09-15T23:43:19Z</time></trkpt><trkpt lat="-39.2923255172" lon="-72.4093173165"><ele>243.13</ele><time>2024-09-15T23:43:20Z</time></trkpt><trkpt lat="-39.2923088372" lon="-72.4092812743"><ele>242.88</ele><time>2024-09-15T23:43:21Z</time></trkpt><trkpt lat="-39.2922007944" lon="-72.4092051666"><ele>242.38</ele><time>2024-09-15T23:43:24Z</time></trkpt><trkpt lat="-39.2913595028" lon="-72.4087360315"><ele>238.94</ele><time>2024-09-15T23:43:40Z</time></trkpt><trkpt lat="-39.2910210416" lon="-72.4084740970"><ele>238.88</ele><time>2024-09-15T23:43:49Z</time></trkpt><trkpt lat="-39.2912078742" lon="-72.4078307860"><ele>239.63</ele><time>2024-09-15T23:44:00Z</time></trkpt><trkpt lat="-39.2912559025" lon="-72.4077213183"><ele>239.79</ele><time>2024-09-15T23:44:02Z</time></trkpt><trkpt lat="-39.2915340140" lon="-72.4077233300"><ele>240.26</ele><time>2024-09-15T23:44:09Z</time></trkpt><trkpt lat="-39.2924093362" lon="-72.4083979893"><ele>242.83</ele><time>2024-09-15T23:44:26Z</time></trkpt><trkpt lat="-39.2926215660" lon="-72.4085901864"><ele>244.28</ele><time>2024-09-15T23:44:35Z</time></trkpt><trkpt lat="-39.2926235776" lon="-72.4086417351"><ele>244.22</ele><time>2024-09-15T23:44:37Z</time></trkpt><trkpt lat="-39.2926110048" lon="-72.4086760171"><ele>244.14</ele><time>2024-09-15T23:44:38Z</time></trkpt><trkpt lat="-39.2925934866" lon="-72.4087206088"><ele>244.06</ele><time>2024-09-15T23:44:39Z</time></trkpt><trkpt lat="-39.2924306262" lon="-72.4091835413"><ele>242.91</ele><time>2024-09-15T23:44:46Z</time></trkpt><trkpt lat="-39.2924219090" lon="-72.4092402868"><ele>242.79</ele><time>2024-09-15T23:44:47Z</time></trkpt><trkpt lat="-39.2924204841" lon="-72.4092816934"><ele>242.70</ele><time>2024-09-15T23:44:48Z</time></trkpt><trkpt lat="-39.2924251780" lon="-72.4093110301"><ele>242.46</ele><time>2024-09-15T23:44:49Z</time></trkpt><trkpt lat="-39.2924344819" lon="-72.4093358405"><ele>242.33</ele><time>2024-09-15T23:44:50Z</time></trkpt><trkpt lat="-39.2924463004" lon="-72.4093572143"><ele>242.30</ele><time>2024-09-15T23:44:51Z</time></trkpt><trkpt lat="-39.2924592923" lon="-72.4093720503"><ele>242.15</ele><time>2024-09-15T23:44:52Z</time></trkpt><trkpt lat="-39.2924776487" lon="-72.4093860481"><ele>242.14</ele><time>2024-09-15T23:44:53Z</time></trkpt><trkpt lat="-39.2925028782" lon="-72.4094043206"><ele>242.28</ele><time>2024-09-15T23:44:54Z</time></trkpt><trkpt lat="-39.2930050381" lon="-72.4096957594"><ele>243.81</ele><time>2024-09-15T23:45:03Z</time></trkpt><trkpt lat="-39.2934476864" lon="-72.4099426065"><ele>246.58</ele><time>2024-09-15T23:45:10Z</time></trkpt><trkpt lat="-39.2937543802" lon="-72.4101204704"><ele>249.74</ele><time>2024-09-15T23:45:15Z</time></trkpt><trkpt lat="-39.2939708009" lon="-72.4102437682"><ele>252.41</ele><time>2024-09-15T23:45:19Z</time></trkpt><trkpt lat="-39.2940263730" lon="-72.4102436006"><ele>252.94</ele><time>2024-09-15T23:45:20Z</time></trkpt><trkpt lat="-39.2940806039" lon="-72.4102215562"><ele>253.42</ele><time>2024-09-15T23:45:21Z</time></trkpt><trkpt lat="-39.2941335775" lon="-72.4101806525"><ele>253.75</ele><time>2024-09-15T23:45:22Z</time></trkpt><trkpt lat="-39.2941868864" lon="-72.4101348873"><ele>254.27</ele><time>2024-09-15T23:45:23Z</time></trkpt><trkpt lat="-39.2944157124" lon="-72.4099202268"><ele>256.11</ele><time>2024-09-15T23:45:28Z</time></trkpt><trkpt lat="-39.2944325600" lon="-72.4098703545"><ele>256.02</ele><time>2024-09-15T23:45:29Z</time></trkpt><trkpt lat="-39.2944209930" lon="-72.4098126031"><ele>256.35</ele><time>2024-09-15T23:45:30Z</time></trkpt><trkpt lat="-39.2943916563" lon="-72.4097492360"><ele>256.48</ele><time>2024-09-15T23:45:31Z</time></trkpt><trkpt lat="-39.2943541892" lon="-72.4096803367"><ele>256.32</ele><time>2024-09-15T23:45:32Z</time></trkpt><trkpt lat="-39.2940762453" lon="-72.4091975391"><ele>252.63</ele><time>2024-09-15T23:45:38Z</time></trkpt><trkpt lat="-39.2940304801" lon="-72.4091145582"><ele>252.71</ele><time>2024-09-15T23:45:39Z</time></trkpt><trkpt lat="-39.2939530313" lon="-72.4089610856"><ele>250.84</ele><time>2024-09-15T23:45:41Z</time></trkpt><trkpt lat="-39.2938327510" lon="-72.4087159988"><ele>249.01</ele><time>2024-09-15T23:45:46Z</time></trkpt><trkpt lat="-39.2938015703" lon="-72.4086804595"><ele>248.87</ele><time>2024-09-15T23:45:47Z</time></trkpt><trkpt lat="-39.2937621754" lon="-72.4086460099"><ele>248.91</ele><time>2024-09-15T23:45:48Z</time></trkpt><trkpt lat="-39.2937165778" lon="-72.4086095486"><ele>248.87</ele><time>2024-09-15T23:45:49Z</time></trkpt><trkpt lat="-39.2936632689" lon="-72.4085713271"><ele>248.96</ele><time>2024-09-15T23:45:50Z</time></trkpt><trkpt lat="-39.2929855082" lon="-72.4081384018"><ele>247.04</ele><time>2024-09-15T23:46:00Z</time></trkpt><trkpt lat="-39.2928990070" lon="-72.4079614598"><ele>245.87</ele><time>2024-09-15T23:46:07Z</time></trkpt><trkpt lat="-39.2929138429" lon="-72.4079083186"><ele>246.08</ele><time>2024-09-15T23:46:08Z</time></trkpt><trkpt lat="-39.2929325346" lon="-72.4078477174"><ele>246.44</ele><time>2024-09-15T23:46:09Z</time></trkpt><trkpt lat="-39.2932634521" lon="-72.4069387838"><ele>249.80</ele><time>2024-09-15T23:46:21Z</time></trkpt><trkpt lat="-39.2935254704" lon="-72.4063403159"><ele>252.01</ele><time>2024-09-15T23:46:30Z</time></trkpt><trkpt lat="-39.2935449164" lon="-72.4063364603"><ele>252.55</ele><time>2024-09-15T23:46:31Z</time></trkpt><trkpt lat="-39.2935646977" lon="-72.4063383043"><ele>252.84</ele><time>2024-09-15T23:46:32Z</time></trkpt><trkpt lat="-39.2937770952" lon="-72.4064242188"><ele>255.94</ele><time>2024-09-15T23:46:38Z</time></trkpt><trkpt lat="-39.2943179794" lon="-72.4067343492"><ele>256.32</ele><time>2024-09-15T23:46:48Z</time></trkpt><trkpt lat="-39.2944453005" lon="-72.4068560544"><ele>255.68</ele><time>2024-09-15T23:46:52Z</time></trkpt><trkpt lat="-39.2944530956" lon="-72.4068984669"><ele>255.61</ele><time>2024-09-15T23:46:53Z</time></trkpt><trkpt lat="-39.2944501620" lon="-72.4069512729"><ele>255.55</ele><time>2024-09-15T23:46:54Z</time></trkpt><trkpt lat="-39.2944364157" lon="-72.4070145562"><ele>255.57</ele><time>2024-09-15T23:46:55Z</time></trkpt><trkpt lat="-39.2944147903" lon="-72.4070847966"><ele>255.36</ele><time>2024-09-15T23:46:56Z</time></trkpt><trkpt lat="-39.2943869624" lon="-72.4071555398"><ele>255.20</ele><time>2024-09-15T23:46:57Z</time></trkpt><trkpt lat="-39.2943564523" lon="-72.4072280433"><ele>254.89</ele><time>2024-09-15T23:46:58Z</time></trkpt><trkpt lat="-39.2941256147" lon="-72.4078456219"><ele>252.24</ele><time>2024-09-15T23:47:05Z</time></trkpt><trkpt lat="-39.2938621715" lon="-72.4084780365"><ele>249.00</ele><time>2024-09-15T23:47:12Z</time></trkpt><trkpt lat="-39.2938304041" lon="-72.4086441658"><ele>248.20</ele><time>2024-09-15T23:47:15Z</time></trkpt><trkpt lat="-39.2938554659" lon="-72.4086798728"><ele>247.93</ele><time>2024-09-15T23:47:16Z</time></trkpt><trkpt lat="-39.2938972078" lon="-72.4086858239"><ele>248.24</ele><time>2024-09-15T23:47:17Z</time></trkpt><trkpt lat="-39.2939475831" lon="-72.4086687248"><ele>248.45</ele><time>2024-09-15T23:47:18Z</time></trkpt><trkpt lat="-39.2940010596" lon="-72.4086333532"><ele>248.83</ele><time>2024-09-15T23:47:19Z</time></trkpt><trkpt lat="-39.2940579727" lon="-72.4085869174"><ele>249.52</ele><time>2024-09-15T23:47:20Z</time></trkpt><trkpt lat="-39.2941138800" lon="-72.4085392244"><ele>249.96</ele><time>2024-09-15T23:47:21Z</time></trkpt><trkpt lat="-39.2943535186" lon="-72.4083442613"><ele>253.20</ele><time>2024-09-15T23:47:25Z</time></trkpt><trkpt lat="-39.2946079932" lon="-72.4081361387"><ele>256.70</ele><time>2024-09-15T23:47:29Z</time></trkpt><trkpt lat="-39.2951388191" lon="-72.4076821748"><ele>260.03</ele><time>2024-09-15T23:47:37Z</time></trkpt><trkpt lat="-39.2953057028" lon="-72.4075219128"><ele>260.94</ele><time>2024-09-15T23:47:40Z</time></trkpt><trkpt lat="-39.2953326087" lon="-72.4074770696"><ele>261.16</ele><time>2024-09-15T23:47:41Z</time></trkpt><trkpt lat="-39.2953332793" lon="-72.4074302148"><ele>261.31</ele><time>2024-09-15T23:47:42Z</time></trkpt><trkpt lat="-39.2953098938" lon="-72.4073858745"><ele>261.50</ele><time>2024-09-15T23:47:43Z</time></trkpt><trkpt lat="-39.2952648830" lon="-72.4073475692"><ele>261.47</ele><time>2024-09-15T23:47:44Z</time></trkpt><trkpt lat="-39.2952038627" lon="-72.4073091801"><ele>261.27</ele><time>2024-09-15T23:47:45Z</time></trkpt><trkpt lat="-39.2947177961" lon="-72.4069816992"><ele>258.22</ele><time>2024-09-15T23:47:52Z</time></trkpt><trkpt lat="-39.2945731245" lon="-72.4068688788"><ele>255.61</ele><time>2024-09-15T23:47:56Z</time></trkpt><trkpt lat="-39.2945647426" lon="-72.4068347644"><ele>255.32</ele><time>2024-09-15T23:47:57Z</time></trkpt><trkpt lat="-39.2945660837" lon="-72.4067926034"><ele>255.78</ele><time>2024-09-15T23:47:58Z</time></trkpt><trkpt lat="-39.2945767287" lon="-72.4067439884"><ele>255.94</ele><time>2024-09-15T23:47:59Z</time></trkpt><trkpt lat="-39.2945977673" lon="-72.4066869076"><ele>256.17</ele><time>2024-09-15T23:48:00Z</time></trkpt><trkpt lat="-39.2946229968" lon="-72.4066253006"><ele>256.32</ele><time>2024-09-15T23:48:01Z</time></trkpt><trkpt lat="-39.2949157767" lon="-72.4058602005"><ele>259.52</ele><time>2024-09-15T23:48:11Z</time></trkpt><trkpt lat="-39.2950470373" lon="-72.4054879602"><ele>260.46</ele><time>2024-09-15T23:48:15Z</time></trkpt><trkpt lat="-39.2950641364" lon="-72.4053860363"><ele>260.50</ele><time>2024-09-15T23:48:16Z</time></trkpt><trkpt lat="-39.2950668186" lon="-72.4052792508"><ele>260.54</ele><time>2024-09-15T23:48:17Z</time></trkpt><trkpt lat="-39.2950486299" lon="-72.4051764049"><ele>260.58</ele><time>2024-09-15T23:48:18Z</time></trkpt><trkpt lat="-39.2950249091" lon="-72.4050774146"><ele>260.68</ele><time>2024-09-15T23:48:19Z</time></trkpt><trkpt lat="-39.2949951533" lon="-72.4048946891"><ele>261.08</ele><time>2024-09-15T23:48:21Z</time></trkpt><trkpt lat="-39.2950057983" lon="-72.4047049228"><ele>260.92</ele><time>2024-09-15T23:48:27Z</time></trkpt><trkpt lat="-39.2950269207" lon="-72.4046833813"><ele>261.18</ele><time>2024-09-15T23:48:28Z</time></trkpt><trkpt lat="-39.2950606160" lon="-72.4046624266"><ele>261.45</ele><time>2024-09-15T23:48:29Z</time></trkpt><trkpt lat="-39.2951044533" lon="-72.4046450760"><ele>261.60</ele><time>2024-09-15T23:48:30Z</time></trkpt><trkpt lat="-39.2951626237" lon="-72.4046267197"><ele>261.73</ele><time>2024-09-15T23:48:31Z</time></trkpt><trkpt lat="-39.2959017400" lon="-72.4044009112"><ele>263.70</ele><time>2024-09-15T23:48:41Z</time></trkpt><trkpt lat="-39.2959770095" lon="-72.4044303317"><ele>263.74</ele><time>2024-09-15T23:48:44Z</time></trkpt><trkpt lat="-39.2960024066" lon="-72.4044753425"><ele>263.88</ele><time>2024-09-15T23:48:45Z</time></trkpt><trkpt lat="-39.2960248701" lon="-72.4045430683"><ele>263.93</ele><time>2024-09-15T23:48:46Z</time></trkpt><trkpt lat="-39.2962379381" lon="-72.4056362361"><ele>263.54</ele><time>2024-09-15T23:48:58Z</time></trkpt><trkpt lat="-39.2962246109" lon="-72.4056945741"><ele>263.43</ele><time>2024-09-15T23:48:59Z</time></trkpt><trkpt lat="-39.2961946875" lon="-72.4057380762"><ele>263.62</ele><time>2024-09-15T23:49:00Z</time></trkpt><trkpt lat="-39.2961502634" lon="-72.4057617132"><ele>263.70</ele><time>2024-09-15T23:49:01Z</time></trkpt><trkpt lat="-39.2961015645" lon="-72.4057774711"><ele>263.67</ele><time>2024-09-15T23:49:02Z</time></trkpt><trkpt lat="-39.2960469984" lon="-72.4057910498"><ele>263.68</ele><time>2024-09-15T23:49:03Z</time></trkpt><trkpt lat="-39.2953100614" lon="-72.4060233124"><ele>261.69</ele><time>2024-09-15T23:49:14Z</time></trkpt><trkpt lat="-39.2952203751" lon="-72.4060957320"><ele>261.00</ele><time>2024-09-15T23:49:17Z</time></trkpt><trkpt lat="-39.2952082213" lon="-72.4061513040"><ele>261.19</ele><time>2024-09-15T23:49:18Z</time></trkpt><trkpt lat="-39.2952079698" lon="-72.4062234722"><ele>261.41</ele><time>2024-09-15T23:49:19Z</time></trkpt><trkpt lat="-39.2952166032" lon="-72.4063067883"><ele>261.67</ele><time>2024-09-15T23:49:20Z</time></trkpt><trkpt lat="-39.2952321097" lon="-72.4063968100"><ele>261.65</ele><time>2024-09-15T23:49:21Z</time></trkpt><trkpt lat="-39.2953925394" lon="-72.4072974455"><ele>262.16</ele><time>2024-09-15T23:49:31Z</time></trkpt><trkpt lat="-39.2954139132" lon="-72.4073439650"><ele>262.02</ele><time>2024-09-15T23:49:32Z</time></trkpt><trkpt lat="-39.2954490334" lon="-72.4073810130"><ele>262.03</ele><time>2024-09-15T23:49:33Z</time></trkpt><trkpt lat="-39.2954962235" lon="-72.4074021354"><ele>262.04</ele><time>2024-09-15T23:49:34Z</time></trkpt><trkpt lat="-39.2955547292" lon="-72.4074023031"><ele>262.28</ele><time>2024-09-15T23:49:35Z</time></trkpt><trkpt lat="-39.2956217006" lon="-72.4073878862"><ele>262.36</ele><time>2024-09-15T23:49:36Z</time></trkpt><trkpt lat="-39.2956964672" lon="-72.4073634110"><ele>262.80</ele><time>2024-09-15T23:49:37Z</time></trkpt><trkpt lat="-39.2967473902" lon="-72.4070131313"><ele>261.95</ele><time>2024-09-15T23:49:50Z</time></trkpt><trkpt lat="-39.2968836799" lon="-72.4068506062"><ele>261.33</ele><time>2024-09-15T23:49:57Z</time></trkpt><trkpt lat="-39.2969458736" lon="-72.4067410547"><ele>261.74</ele><time>2024-09-15T23:50:00Z</time></trkpt><trkpt lat="-39.2969807424" lon="-72.4067093711"><ele>262.01</ele><time>2024-09-15T23:50:01Z</time></trkpt><trkpt lat="-39.2970136832" lon="-72.4066761788"><ele>262.09</ele><time>2024-09-15T23:50:02Z</time></trkpt><trkpt lat="-39.2970671598" lon="-72.4063125718"><ele>263.63</ele><time>2024-09-15T23:50:09Z</time></trkpt><trkpt lat="-39.2969940696" lon="-72.4061551597"><ele>263.98</ele><time>2024-09-15T23:50:12Z</time></trkpt><trkpt lat="-39.2970655672" lon="-72.4056517426"><ele>263.89</ele><time>2024-09-15T23:50:22Z</time></trkpt><trkpt lat="-39.2971348017" lon="-72.4056294467"><ele>263.66</ele><time>2024-09-15T23:50:24Z</time></trkpt><trkpt lat="-39.2972286791" lon="-72.4056042172"><ele>263.43</ele><time>2024-09-15T23:50:27Z</time></trkpt><trkpt lat="-39.2972415872" lon="-72.4054214079"><ele>263.73</ele><time>2024-09-15T23:50:31Z</time></trkpt><trkpt lat="-39.2972254101" lon="-72.4048644304"><ele>264.68</ele><time>2024-09-15T23:50:43Z</time></trkpt><trkpt lat="-39.2972894479" lon="-72.4047670327"><ele>265.29</ele><time>2024-09-15T23:50:47Z</time></trkpt><trkpt lat="-39.2972803116" lon="-72.4046143144"><ele>265.68</ele><time>2024-09-15T23:50:50Z</time></trkpt><trkpt lat="-39.2971254140" lon="-72.4037672393"><ele>266.49</ele><time>2024-09-15T23:51:02Z</time></trkpt><trkpt lat="-39.2971384060" lon="-72.4037380703"><ele>266.57</ele><time>2024-09-15T23:51:03Z</time></trkpt><trkpt lat="-39.2971698381" lon="-72.4037138466"><ele>266.69</ele><time>2024-09-15T23:51:04Z</time></trkpt><trkpt lat="-39.2972124182" lon="-72.4036994297"><ele>266.75</ele><time>2024-09-15T23:51:05Z</time></trkpt><trkpt lat="-39.2978187650" lon="-72.4035357311"><ele>268.01</ele><time>2024-09-15T23:51:15Z</time></trkpt><trkpt lat="-39.2978662904" lon="-72.4035381619"><ele>267.86</ele><time>2024-09-15T23:51:16Z</time></trkpt><trkpt lat="-39.2979116365" lon="-72.4035557639"><ele>268.02</ele><time>2024-09-15T23:51:17Z</time></trkpt><trkpt lat="-39.2979532108" lon="-72.4035908002"><ele>267.96</ele><time>2024-09-15T23:51:18Z</time></trkpt><trkpt lat="-39.2979900073" lon="-72.4036447797"><ele>267.96</ele><time>2024-09-15T23:51:19Z</time></trkpt><trkpt lat="-39.2980267201" lon="-72.4037078116"><ele>267.80</ele><time>2024-09-15T23:51:20Z</time></trkpt><trkpt lat="-39.2985574622" lon="-72.4045838881"><ele>265.54</ele><time>2024-09-15T23:51:32Z</time></trkpt><trkpt lat="-39.2986097652" lon="-72.4046412203"><ele>265.26</ele><time>2024-09-15T23:51:33Z</time></trkpt><trkpt lat="-39.2986711208" lon="-72.4046734907"><ele>265.15</ele><time>2024-09-15T23:51:34Z</time></trkpt><trkpt lat="-39.2987361643" lon="-72.4046836328"><ele>264.89</ele><time>2024-09-15T23:51:35Z</time></trkpt><trkpt lat="-39.2988012917" lon="-72.4046739098"><ele>264.82</ele><time>2024-09-15T23:51:36Z</time></trkpt><trkpt lat="-39.2988681793" lon="-72.4046558887"><ele>264.80</ele><time>2024-09-15T23:51:37Z</time></trkpt><trkpt lat="-39.2994714249" lon="-72.4044862390"><ele>263.68</ele><time>2024-09-15T23:51:48Z</time></trkpt><trkpt lat="-39.3001780193" lon="-72.4043001607"><ele>263.92</ele><time>2024-09-15T23:51:59Z</time></trkpt><trkpt lat="-39.3003724795" lon="-72.4042385537"><ele>264.37</ele><time>2024-09-15T23:52:02Z</time></trkpt><trkpt lat="-39.3004239444" lon="-72.4042021763"><ele>264.53</ele><time>2024-09-15T23:52:03Z</time></trkpt><trkpt lat="-39.3004593998" lon="-72.4041481968"><ele>264.76</ele><time>2024-09-15T23:52:04Z</time></trkpt><trkpt lat="-39.3004739005" lon="-72.4040828180"><ele>265.11</ele><time>2024-09-15T23:52:05Z</time></trkpt><trkpt lat="-39.3004728109" lon="-72.4040133320"><ele>265.56</ele><time>2024-09-15T23:52:06Z</time></trkpt><trkpt lat="-39.3004627526" lon="-72.4039405771"><ele>265.79</ele><time>2024-09-15T23:52:07Z</time></trkpt><trkpt lat="-39.3004499283" lon="-72.4038645532"><ele>266.24</ele><time>2024-09-15T23:52:08Z</time></trkpt><trkpt lat="-39.3003642652" lon="-72.4033951666"><ele>269.38</ele><time>2024-09-15T23:52:14Z</time></trkpt><trkpt lat="-39.3002920970" lon="-72.4030109402"><ele>272.53</ele><time>2024-09-15T23:52:19Z</time></trkpt><trkpt lat="-39.3002738245" lon="-72.4029479921"><ele>272.99</ele><time>2024-09-15T23:52:20Z</time></trkpt><trkpt lat="-39.3002522830" lon="-72.4029010534"><ele>273.28</ele><time>2024-09-15T23:52:21Z</time></trkpt><trkpt lat="-39.3002277240" lon="-72.4028689507"><ele>273.29</ele><time>2024-09-15T23:52:22Z</time></trkpt><trkpt lat="-39.3001962081" lon="-72.4028494209"><ele>273.56</ele><time>2024-09-15T23:52:23Z</time></trkpt><trkpt lat="-39.3001555558" lon="-72.4028438888"><ele>273.51</ele><time>2024-09-15T23:52:24Z</time></trkpt><trkpt lat="-39.3001055997" lon="-72.4028513487"><ele>273.19</ele><time>2024-09-15T23:52:25Z</time></trkpt><trkpt lat="-39.3000498600" lon="-72.4028641731"><ele>272.64</ele><time>2024-09-15T23:52:26Z</time></trkpt><trkpt lat="-39.2996680643" lon="-72.4029751495"><ele>268.99</ele><time>2024-09-15T23:52:31Z</time></trkpt><trkpt lat="-39.2992460355" lon="-72.4030909874"><ele>266.34</ele><time>2024-09-15T23:52:38Z</time></trkpt><trkpt lat="-39.2987309676" lon="-72.4032444600"><ele>266.63</ele><time>2024-09-15T23:52:47Z</time></trkpt><trkpt lat="-39.2981330026" lon="-72.4033602141"><ele>266.97</ele><time>2024-09-15T23:52:57Z</time></trkpt><trkpt lat="-39.2981105391" lon="-72.4033222441"><ele>267.19</ele><time>2024-09-15T23:52:58Z</time></trkpt><trkpt lat="-39.2980952840" lon="-72.4032648280"><ele>267.48</ele><time>2024-09-15T23:52:59Z</time></trkpt><trkpt lat="-39.2980819568" lon="-72.4031937495"><ele>267.57</ele><time>2024-09-15T23:53:00Z</time></trkpt><trkpt lat="-39.2980665341" lon="-72.4031126127"><ele>267.90</ele><time>2024-09-15T23:53:01Z</time></trkpt><trkpt lat="-39.2979102116" lon="-72.4020929541"><ele>269.36</ele><time>2024-09-15T23:53:14Z</time></trkpt><trkpt lat="-39.2979314178" lon="-72.4020584207"><ele>269.45</ele><time>2024-09-15T23:53:15Z</time></trkpt><trkpt lat="-39.2979639396" lon="-72.4020326883"><ele>269.59</ele><time>2024-09-15T23:53:16Z</time></trkpt><trkpt lat="-39.2980033346" lon="-72.4020138290"><ele>269.61</ele><time>2024-09-15T23:53:17Z</time></trkpt><trkpt lat="-39.2980506923" lon="-72.4019981548"><ele>269.74</ele><time>2024-09-15T23:53:18Z</time></trkpt><trkpt lat="-39.2981050909" lon="-72.4019777868"><ele>269.62</ele><time>2024-09-15T23:53:19Z</time></trkpt><trkpt lat="-39.2981659435" lon="-72.4019565806"><ele>269.72</ele><time>2024-09-15T23:53:20Z</time></trkpt><trkpt lat="-39.2982330825" lon="-72.4019378889"><ele>269.77</ele><time>2024-09-15T23:53:21Z</time></trkpt><trkpt lat="-39.2989464663" lon="-72.4017472006"><ele>271.73</ele><time>2024-09-15T23:53:33Z</time></trkpt><trkpt lat="-39.2996051162" lon="-72.4015824962"><ele>274.86</ele><time>2024-09-15T23:53:43Z</time></trkpt><trkpt lat="-39.2999548931" lon="-72.4014687538"><ele>275.81</ele><time>2024-09-15T23:53:50Z</time></trkpt><trkpt lat="-39.2999646999" lon="-72.4014311191"><ele>275.95</ele><time>2024-09-15T23:53:51Z</time></trkpt><trkpt lat="-39.2999667116" lon="-72.4013761338"><ele>275.95</ele><time>2024-09-15T23:53:52Z</time></trkpt><trkpt lat="-39.2999645323" lon="-72.4013032950"><ele>275.98</ele><time>2024-09-15T23:53:53Z</time></trkpt><trkpt lat="-39.2999558989" lon="-72.4012163747"><ele>275.89</ele><time>2024-09-15T23:53:54Z</time></trkpt><trkpt lat="-39.2999452539" lon="-72.4011204857"><ele>275.73</ele><time>2024-09-15T23:53:55Z</time></trkpt><trkpt lat="-39.2998118978" lon="-72.4002102949"><ele>273.43</ele><time>2024-09-15T23:54:04Z</time></trkpt><trkpt lat="-39.2997736763" lon="-72.4001538847"><ele>273.08</ele><time>2024-09-15T23:54:05Z</time></trkpt><trkpt lat="-39.2997202836" lon="-72.4001198541"><ele>273.13</ele><time>2024-09-15T23:54:06Z</time></trkpt><trkpt lat="-39.2996588442" lon="-72.4001103826"><ele>272.97</ele><time>2024-09-15T23:54:07Z</time></trkpt><trkpt lat="-39.2995953094" lon="-72.4001175072"><ele>272.87</ele><time>2024-09-15T23:54:08Z</time></trkpt><trkpt lat="-39.2995314393" lon="-72.4001324270"><ele>272.73</ele><time>2024-09-15T23:54:09Z</time></trkpt><trkpt lat="-39.2987407744" lon="-72.4003637675"><ele>269.89</ele><time>2024-09-15T23:54:23Z</time></trkpt><trkpt lat="-39.2982772551" lon="-72.4004988838"><ele>269.81</ele><time>2024-09-15T23:54:31Z</time></trkpt><trkpt lat="-39.2975116521" lon="-72.4006737303"><ele>268.18</ele><time>2024-09-15T23:54:43Z</time></trkpt><trkpt lat="-39.2971486319" lon="-72.4006999657"><ele>264.31</ele><time>2024-09-15T23:54:47Z</time></trkpt><trkpt lat="-39.2967919819" lon="-72.4007310625"><ele>261.97</ele><time>2024-09-15T23:54:51Z</time></trkpt><trkpt lat="-39.2964838631" lon="-72.4006945174"><ele>261.11</ele><time>2024-09-15T23:54:58Z</time></trkpt><trkpt lat="-39.2964577116" lon="-72.4006490037"><ele>261.15</ele><time>2024-09-15T23:54:59Z</time></trkpt><trkpt lat="-39.2964349128" lon="-72.4005855527"><ele>261.30</ele><time>2024-09-15T23:55:00Z</time></trkpt><trkpt lat="-39.2964140419" lon="-72.4005089421"><ele>261.21</ele><time>2024-09-15T23:55:01Z</time></trkpt><trkpt lat="-39.2963887285" lon="-72.4004269671"><ele>261.13</ele><time>2024-09-15T23:55:02Z</time></trkpt><trkpt lat="-39.2963575479" lon="-72.4003418908"><ele>260.94</ele><time>2024-09-15T23:55:03Z</time></trkpt><trkpt lat="-39.2963170633" lon="-72.4002603348"><ele>260.98</ele><time>2024-09-15T23:55:04Z</time></trkpt><trkpt lat="-39.2962712981" lon="-72.4001831375"><ele>261.00</ele><time>2024-09-15T23:55:05Z</time></trkpt><trkpt lat="-39.2962171510" lon="-72.4001108855"><ele>260.98</ele><time>2024-09-15T23:55:06Z</time></trkpt><trkpt lat="-39.2961564660" lon="-72.4000452552"><ele>261.14</ele><time>2024-09-15T23:55:07Z</time></trkpt><trkpt lat="-39.2960892431" lon="-72.3999866657"><ele>261.01</ele><time>2024-09-15T23:55:08Z</time></trkpt><trkpt lat="-39.2960169073" lon="-72.3999404814"><ele>261.14</ele><time>2024-09-15T23:55:09Z</time></trkpt><trkpt lat="-39.2959449906" lon="-72.3999029305"><ele>261.23</ele><time>2024-09-15T23:55:10Z</time></trkpt><trkpt lat="-39.2956881691" lon="-72.3998386413"><ele>262.26</ele><time>2024-09-15T23:55:17Z</time></trkpt><trkpt lat="-39.2956730817" lon="-72.3998278286"><ele>262.13</ele><time>2024-09-15T23:55:18Z</time></trkpt><trkpt lat="-39.2956574913" lon="-72.3998021800"><ele>262.12</ele><time>2024-09-15T23:55:19Z</time></trkpt><trkpt lat="-39.2956476007" lon="-72.3997595161"><ele>262.19</ele><time>2024-09-15T23:55:20Z</time></trkpt><trkpt lat="-39.2956397217" lon="-72.3996994179"><ele>262.24</ele><time>2024-09-15T23:55:21Z</time></trkpt><trkpt lat="-39.2956284899" lon="-72.3996167723"><ele>262.59</ele><time>2024-09-15T23:55:22Z</time></trkpt><trkpt lat="-39.2953554075" lon="-72.3982085288"><ele>264.61</ele><time>2024-09-15T23:55:35Z</time></trkpt><trkpt lat="-39.2951038666" lon="-72.3971016984"><ele>267.93</ele><time>2024-09-15T23:55:45Z</time></trkpt><trkpt lat="-39.2950156890" lon="-72.3964976985"><ele>270.77</ele><time>2024-09-15T23:55:50Z</time></trkpt><trkpt lat="-39.2950265016" lon="-72.3950022832"><ele>273.82</ele><time>2024-09-15T23:56:02Z</time></trkpt><trkpt lat="-39.2950122524" lon="-72.3936941195"><ele>275.97</ele><time>2024-09-15T23:56:13Z</time></trkpt><trkpt lat="-39.2948210612" lon="-72.3923365865"><ele>276.02</ele><time>2024-09-15T23:56:24Z</time></trkpt><trkpt lat="-39.2942648381" lon="-72.3908423446"><ele>275.68</ele><time>2024-09-15T23:56:37Z</time></trkpt><trkpt lat="-39.2935170047" lon="-72.3893553112"><ele>275.82</ele><time>2024-09-15T23:56:51Z</time></trkpt><trkpt lat="-39.2934793700" lon="-72.3892414849"><ele>275.87</ele><time>2024-09-15T23:56:52Z</time></trkpt><trkpt lat="-39.2934587505" lon="-72.3891216237"><ele>275.94</ele><time>2024-09-15T23:56:53Z</time></trkpt><trkpt lat="-39.2934602592" lon="-72.3889962304"><ele>276.08</ele><time>2024-09-15T23:56:54Z</time></trkpt><trkpt lat="-39.2934755981" lon="-72.3888718430"><ele>275.99</ele><time>2024-09-15T23:56:55Z</time></trkpt><trkpt lat="-39.2934983969" lon="-72.3887498025"><ele>275.86</ele><time>2024-09-15T23:56:56Z</time></trkpt><trkpt lat="-39.2935232911" lon="-72.3886271752"><ele>275.94</ele><time>2024-09-15T23:56:57Z</time></trkpt><trkpt lat="-39.2940175720" lon="-72.3862066492"><ele>277.56</ele><time>2024-09-15T23:57:17Z</time></trkpt><trkpt lat="-39.2942667659" lon="-72.3849300854"><ele>280.85</ele><time>2024-09-15T23:57:28Z</time></trkpt><trkpt lat="-39.2945093382" lon="-72.3837738018"><ele>284.17</ele><time>2024-09-15T23:57:38Z</time></trkpt><trkpt lat="-39.2948409263" lon="-72.3820928112"><ele>285.63</ele><time>2024-09-15T23:57:52Z</time></trkpt><trkpt lat="-39.2952124961" lon="-72.3802512232"><ele>283.20</ele><time>2024-09-15T23:58:07Z</time></trkpt><trkpt lat="-39.2954431660" lon="-72.3791093566"><ele>279.98</ele><time>2024-09-15T23:58:16Z</time></trkpt><trkpt lat="-39.2957008258" lon="-72.3777275998"><ele>276.95</ele><time>2024-09-15T23:58:27Z</time></trkpt><trkpt lat="-39.2960982956" lon="-72.3757720180"><ele>275.78</ele><time>2024-09-15T23:58:43Z</time></trkpt><trkpt lat="-39.2964411993" lon="-72.3741862457"><ele>273.46</ele><time>2024-09-15T23:58:56Z</time></trkpt><trkpt lat="-39.2965506669" lon="-72.3736860976"><ele>272.46</ele><time>2024-09-15T23:59:02Z</time></trkpt><trkpt lat="-39.2965530138" lon="-72.3736405838"><ele>272.34</ele><time>2024-09-15T23:59:03Z</time></trkpt><trkpt lat="-39.2965442967" lon="-72.3736087326"><ele>272.24</ele><time>2024-09-15T23:59:04Z</time></trkpt><trkpt lat="-39.2965308018" lon="-72.3735857662"><ele>272.23</ele><time>2024-09-15T23:59:05Z</time></trkpt><trkpt lat="-39.2965131160" lon="-72.3735571001"><ele>272.38</ele><time>2024-09-15T23:59:14Z</time></trkpt><trkpt lat="-39.2965271976" lon="-72.3735467903"><ele>272.22</ele><time>2024-09-15T23:59:19Z</time></trkpt><trkpt lat="-39.2964730505" lon="-72.3737291805"><ele>272.43</ele><time>2024-09-15T23:59:23Z</time></trkpt><trkpt lat="-39.2963085975" lon="-72.3745268025"><ele>273.64</ele><time>2024-09-15T23:59:31Z</time></trkpt><trkpt lat="-39.2959449906" lon="-72.3762450088"><ele>275.52</ele><time>2024-09-15T23:59:45Z</time></trkpt><trkpt lat="-39.2955761030" lon="-72.3780785501"><ele>276.73</ele><time>2024-09-16T00:00:00Z</time></trkpt><trkpt lat="-39.2953161802" lon="-72.3793967720"><ele>279.91</ele><time>2024-09-16T00:00:11Z</time></trkpt><trkpt lat="-39.2950720992" lon="-72.3805923667"><ele>283.01</ele><time>2024-09-16T00:00:21Z</time></trkpt><trkpt lat="-39.2947571073" lon="-72.3822505586"><ele>285.15</ele><time>2024-09-16T00:00:35Z</time></trkpt><trkpt lat="-39.2944262736" lon="-72.3839649931"><ele>283.19</ele><time>2024-09-16T00:00:49Z</time></trkpt><trkpt lat="-39.2941756546" lon="-72.3852122203"><ele>279.86</ele><time>2024-09-16T00:00:59Z</time></trkpt><trkpt lat="-39.2939226050" lon="-72.3864656501"><ele>276.76</ele><time>2024-09-16T00:01:09Z</time></trkpt><trkpt lat="-39.2934221216" lon="-72.3890279140"><ele>274.97</ele><time>2024-09-16T00:01:30Z</time></trkpt><trkpt lat="-39.2934176791" lon="-72.3891512956"><ele>274.83</ele><time>2024-09-16T00:01:31Z</time></trkpt><trkpt lat="-39.2934307549" lon="-72.3892731685"><ele>274.78</ele><time>2024-09-16T00:01:32Z</time></trkpt><trkpt lat="-39.2934616003" lon="-72.3893911019"><ele>274.88</ele><time>2024-09-16T00:01:33Z</time></trkpt><trkpt lat="-39.2935063597" lon="-72.3895012401"><ele>274.70</ele><time>2024-09-16T00:01:34Z</time></trkpt><trkpt lat="-39.2935584951" lon="-72.3896073550"><ele>274.83</ele><time>2024-09-16T00:01:35Z</time></trkpt><trkpt lat="-39.2946357373" lon="-72.3918491788"><ele>274.86</ele><time>2024-09-16T00:01:56Z</time></trkpt><trkpt lat="-39.2949893698" lon="-72.3936652020"><ele>274.85</ele><time>2024-09-16T00:02:11Z</time></trkpt><trkpt lat="-39.2949830834" lon="-72.3957037646"><ele>271.68</ele><time>2024-09-16T00:02:27Z</time></trkpt><trkpt lat="-39.2949557584" lon="-72.3965599760"><ele>269.34</ele><time>2024-09-16T00:02:36Z</time></trkpt><trkpt lat="-39.2949301936" lon="-72.3965854570"><ele>269.34</ele><time>2024-09-16T00:02:37Z</time></trkpt><trkpt lat="-39.2948951572" lon="-72.3965873010"><ele>269.40</ele><time>2024-09-16T00:02:38Z</time></trkpt><trkpt lat="-39.2948538344" lon="-72.3965707049"><ele>269.36</ele><time>2024-09-16T00:02:39Z</time></trkpt><trkpt lat="-39.2948053032" lon="-72.3965481576"><ele>269.35</ele><time>2024-09-16T00:02:40Z</time></trkpt><trkpt lat="-39.2943500821" lon="-72.3963207565"><ele>269.63</ele><time>2024-09-16T00:02:53Z</time></trkpt><trkpt lat="-39.2937976308" lon="-72.3960875720"><ele>271.92</ele><time>2024-09-16T00:03:03Z</time></trkpt><trkpt lat="-39.2929876875" lon="-72.3957439978"><ele>274.14</ele><time>2024-09-16T00:03:17Z</time></trkpt><trkpt lat="-39.2923374195" lon="-72.3954484519"><ele>276.61</ele><time>2024-09-16T00:03:32Z</time></trkpt><trkpt lat="-39.2921449710" lon="-72.3953917902"><ele>278.62</ele><time>2024-09-16T00:03:40Z</time></trkpt><trkpt lat="-39.2921422049" lon="-72.3954091407"><ele>278.63</ele><time>2024-09-16T00:03:41Z</time></trkpt><trkpt lat="-39.2921406124" lon="-72.3953807261"><ele>278.62</ele><time>2024-09-16T00:03:49Z</time></trkpt><trkpt lat="-39.2922118586" lon="-72.3954592645"><ele>278.21</ele><time>2024-09-16T00:03:59Z</time></trkpt><trkpt lat="-39.2922526784" lon="-72.3954812251"><ele>277.67</ele><time>2024-09-16T00:04:00Z</time></trkpt><trkpt lat="-39.2923474777" lon="-72.3955274932"><ele>276.81</ele><time>2024-09-16T00:04:02Z</time></trkpt><trkpt lat="-39.2924911436" lon="-72.3956056964"><ele>276.09</ele><time>2024-09-16T00:04:05Z</time></trkpt><trkpt lat="-39.2932038568" lon="-72.3958760127"><ele>273.93</ele><time>2024-09-16T00:04:16Z</time></trkpt><trkpt lat="-39.2942043208" lon="-72.3962915037"><ele>270.77</ele><time>2024-09-16T00:04:30Z</time></trkpt><trkpt lat="-39.2949259188" lon="-72.3965945095"><ele>268.96</ele><time>2024-09-16T00:04:41Z</time></trkpt><trkpt lat="-39.2950042896" lon="-72.3967040610"><ele>268.84</ele><time>2024-09-16T00:04:45Z</time></trkpt><trkpt lat="-39.2951480392" lon="-72.3973851744"><ele>266.78</ele><time>2024-09-16T00:04:52Z</time></trkpt><trkpt lat="-39.2953499593" lon="-72.3982703034"><ele>263.61</ele><time>2024-09-16T00:04:59Z</time></trkpt><trkpt lat="-39.2956288252" lon="-72.3997836560"><ele>261.14</ele><time>2024-09-16T00:05:12Z</time></trkpt><trkpt lat="-39.2956303339" lon="-72.3998683132"><ele>260.88</ele><time>2024-09-16T00:05:13Z</time></trkpt><trkpt lat="-39.2956171744" lon="-72.3999562394"><ele>260.69</ele><time>2024-09-16T00:05:14Z</time></trkpt><trkpt lat="-39.2955962196" lon="-72.4000472669"><ele>260.55</ele><time>2024-09-16T00:05:15Z</time></trkpt><trkpt lat="-39.2953875102" lon="-72.4010696914"><ele>257.58</ele><time>2024-09-16T00:05:25Z</time></trkpt><trkpt lat="-39.2953911982" lon="-72.4011815898"><ele>257.28</ele><time>2024-09-16T00:05:26Z</time></trkpt><trkpt lat="-39.2954026815" lon="-72.4012922309"><ele>257.15</ele><time>2024-09-16T00:05:27Z</time></trkpt><trkpt lat="-39.2957308330" lon="-72.4031458050"><ele>260.56</ele><time>2024-09-16T00:05:44Z</time></trkpt><trkpt lat="-39.2959137261" lon="-72.4043129850"><ele>261.40</ele><time>2024-09-16T00:05:57Z</time></trkpt><trkpt lat="-39.2958894186" lon="-72.4043467641"><ele>261.32</ele><time>2024-09-16T00:05:58Z</time></trkpt><trkpt lat="-39.2958546337" lon="-72.4043636117"><ele>261.52</ele><time>2024-09-16T00:05:59Z</time></trkpt><trkpt lat="-39.2957163323" lon="-72.4043699820"><ele>260.58</ele><time>2024-09-16T00:06:09Z</time></trkpt><trkpt lat="-39.2957076151" lon="-72.4043489434"><ele>260.02</ele><time>2024-09-16T00:06:58Z</time></trkpt></trkseg></trk></gpx>