<?xml version="1.0" encoding="UTF-8" standalone="no" ?><gpx xmlns="http://www.topografix.com/GPX/1/1" xmlns:gpxx="http://www.garmin.com/xmlschemas/GpxExtensions/v3" xmlns:gpxtrkx="http://www.garmin.com/xmlschemas/TrackStatsExtension/v1" xmlns:wptx1="http://www.garmin.com/xmlschemas/WaypointExtension/v1" xmlns:gpxtpx="http://www.garmin.com/xmlschemas/TrackPointExtension/v1" creator="GPSMAP 64sx" version="1.1" xmlns:xsi="http://www.w3.org/2001/XMLSchema-instance" xsi:schemaLocation="http://www.topografix.com/GPX/1/1 http://www.topografix.com/GPX/1/1/gpx.xsd http://www.garmin.com/xmlschemas/GpxExtensions/v3 http://www8.garmin.com/xmlschemas/GpxExtensionsv3.xsd http://www.garmin.com/xmlschemas/TrackStatsExtension/v1 http://www8.garmin.com/xmlschemas/TrackStatsExtension.xsd http://www.garmin.com/xmlschemas/WaypointExtension/v1 http://www8.garmin.com/xmlschemas/WaypointExtensionv1.xsd http://www.garmin.com/xmlschemas/TrackPointExtension/v1 http://www.garmin.com/xmlschemas/TrackPointExtensionv1.xsd"><metadata><link href="http://www.garmin.com"><text>Garmin International</text></link><time>2024-09-17T03:33:17Z</time></metadata><trk><name>GPS LAPAZ 240916</name><extensions><gpxx:TrackExtension><gpxx:DisplayColor>Cyan</gpxx:DisplayColor></gpxx:TrackExtension><gpxtrkx:TrackStatsExtension><gpxtrkx:Distance>3644.000</gpxtrkx:Distance><gpxtrkx:TotalElapsedTime>632</gpxtrkx:TotalElapsedTime><gpxtrkx:MovingTime>584</gpxtrkx:MovingTime><gpxtrkx:StoppedTime>49</gpxtrkx:StoppedTime><gpxtrkx:MovingSpeed>6.241</gpxtrkx:MovingSpeed><gpxtrkx:MaxSpeed>9.738</gpxtrkx:MaxSpeed><gpxtrkx:MaxElevation>90.949</gpxtrkx:MaxElevation><gpxtrkx:MinElevation>82.865</gpxtrkx:MinElevation><gpxtrkx:Ascent>10.000</gpxtrkx:Ascent><gpxtrkx:Descent>9.668</gpxtrkx:Descent><gpxtrkx:AvgAscentRate>0.033</gpxtrkx:AvgAscentRate><gpxtrkx:MaxAscentRate>0.068</gpxtrkx:MaxAscentRate><gpxtrkx:AvgDescentRate>0.039</gpxtrkx:AvgDescentRate><gpxtrkx:MaxDescentRate>-0.046</gpxtrkx:MaxDescentRate></gpxtrkx:TrackStatsExtension></extensions><trkseg><trkpt lat="-39.4064157922" lon="-72.7036115527"><ele>88.70</ele><time>2024-09-17T03:22:45Z</time></trkpt><trkpt lat="-39.4064147025" lon="-72.7036081161"><ele>88.70</ele><time>2024-09-17T03:22:46Z</time></trkpt><trkpt lat="-39.4063966814" lon="-72.7035943698"><ele>87.31</ele><time>2024-09-17T03:22:53Z</time></trkpt><trkpt lat="-39.4064287841" lon="-72.7036176715"><ele>87.23</ele><time>2024-09-17T03:22:56Z</time></trkpt><trkpt lat="-39.4065035507" lon="-72.7037016582"><ele>87.53</ele><time>2024-09-17T03:22:59Z</time></trkpt><trkpt lat="-39.4065387547" lon="-72.7037482616"><ele>87.69</ele><time>2024-09-17T03:23:00Z</time></trkpt><trkpt lat="-39.4065770600" lon="-72.7038019896"><ele>87.90</ele><time>2024-09-17T03:23:01Z</time></trkpt><trkpt lat="-39.4070609473" lon="-72.7046660800"><ele>90.70</ele><time>2024-09-17T03:23:12Z</time></trkpt><trkpt lat="-39.4074678887" lon="-72.7060126327"><ele>87.73</ele><time>2024-09-17T03:23:26Z</time></trkpt><trkpt lat="-39.4076449983" lon="-72.7063127048"><ele>87.66</ele><time>2024-09-17T03:23:31Z</time></trkpt><trkpt lat="-39.4076720718" lon="-72.7063748986"><ele>87.72</ele><time>2024-09-17T03:23:32Z</time></trkpt><trkpt lat="-39.4076913502" lon="-72.7064474858"><ele>87.64</ele><time>2024-09-17T03:23:33Z</time></trkpt><trkpt lat="-39.4076998997" lon="-72.7065286227"><ele>87.73</ele><time>2024-09-17T03:23:34Z</time></trkpt><trkpt lat="-39.4077088684" lon="-72.7066174708"><ele>87.79</ele><time>2024-09-17T03:23:35Z</time></trkpt><trkpt lat="-39.4077246264" lon="-72.7067121863"><ele>88.08</ele><time>2024-09-17T03:23:36Z</time></trkpt><trkpt lat="-39.4077474251" lon="-72.7068077400"><ele>88.04</ele><time>2024-09-17T03:23:37Z</time></trkpt><trkpt lat="-39.4077795278" lon="-72.7068968397"><ele>88.18</ele><time>2024-09-17T03:23:38Z</time></trkpt><trkpt lat="-39.4078178331" lon="-72.7069762163"><ele>88.13</ele><time>2024-09-17T03:23:39Z</time></trkpt><trkpt lat="-39.4078551326" lon="-72.7070483007"><ele>88.21</ele><time>2024-09-17T03:23:40Z</time></trkpt><trkpt lat="-39.4078844693" lon="-72.7071204688"><ele>88.17</ele><time>2024-09-17T03:23:41Z</time></trkpt><trkpt lat="-39.4079047535" lon="-72.7071981691"><ele>88.16</ele><time>2024-09-17T03:23:42Z</time></trkpt><trkpt lat="-39.4079176616" lon="-72.7072827425"><ele>88.15</ele><time>2024-09-17T03:23:43Z</time></trkpt><trkpt lat="-39.4079451542" lon="-72.7074571699"><ele>87.85</ele><time>2024-09-17T03:23:45Z</time></trkpt><trkpt lat="-39.4079708029" lon="-72.7075431682"><ele>87.89</ele><time>2024-09-17T03:23:46Z</time></trkpt><trkpt lat="-39.4080086891" lon="-72.7076243050"><ele>87.80</ele><time>2024-09-17T03:23:47Z</time></trkpt><trkpt lat="-39.4080589805" lon="-72.7076972276"><ele>87.84</ele><time>2024-09-17T03:23:48Z</time></trkpt><trkpt lat="-39.4081180729" lon="-72.7077566553"><ele>87.94</ele><time>2024-09-17T03:23:49Z</time></trkpt><trkpt lat="-39.4081852119" lon="-72.7077977266"><ele>87.66</ele><time>2024-09-17T03:23:50Z</time></trkpt><trkpt lat="-39.4082571287" lon="-72.7078213636"><ele>87.76</ele><time>2024-09-17T03:23:51Z</time></trkpt><trkpt lat="-39.4083335716" lon="-72.7078310028"><ele>87.57</ele><time>2024-09-17T03:23:52Z</time></trkpt><trkpt lat="-39.4084118586" lon="-72.7078312542"><ele>87.77</ele><time>2024-09-17T03:23:53Z</time></trkpt><trkpt lat="-39.4088031258" lon="-72.7078916878"><ele>87.83</ele><time>2024-09-17T03:23:58Z</time></trkpt><trkpt lat="-39.4088742044" lon="-72.7079265565"><ele>87.79</ele><time>2024-09-17T03:23:59Z</time></trkpt><trkpt lat="-39.4089425169" lon="-72.7079684660"><ele>87.90</ele><time>2024-09-17T03:24:00Z</time></trkpt><trkpt lat="-39.4090107456" lon="-72.7080210205"><ele>87.81</ele><time>2024-09-17T03:24:01Z</time></trkpt><trkpt lat="-39.4090787228" lon="-72.7080790233"><ele>87.83</ele><time>2024-09-17T03:24:02Z</time></trkpt><trkpt lat="-39.4096020050" lon="-72.7086380124"><ele>86.53</ele><time>2024-09-17T03:24:13Z</time></trkpt><trkpt lat="-39.4096088782" lon="-72.7086782455"><ele>86.46</ele><time>2024-09-17T03:24:14Z</time></trkpt><trkpt lat="-39.4096051902" lon="-72.7087167185"><ele>86.46</ele><time>2024-09-17T03:24:15Z</time></trkpt><trkpt lat="-39.4095895160" lon="-72.7087562811"><ele>86.29</ele><time>2024-09-17T03:24:16Z</time></trkpt><trkpt lat="-39.4095642027" lon="-72.7087993640"><ele>86.19</ele><time>2024-09-17T03:24:17Z</time></trkpt><trkpt lat="-39.4095321838" lon="-72.7088479791"><ele>85.99</ele><time>2024-09-17T03:24:18Z</time></trkpt><trkpt lat="-39.4089482166" lon="-72.7097202837"><ele>85.50</ele><time>2024-09-17T03:24:34Z</time></trkpt><trkpt lat="-39.4088440295" lon="-72.7097559907"><ele>85.57</ele><time>2024-09-17T03:24:37Z</time></trkpt><trkpt lat="-39.4088065624" lon="-72.7097357903"><ele>85.70</ele><time>2024-09-17T03:24:38Z</time></trkpt><trkpt lat="-39.4087634794" lon="-72.7096953895"><ele>85.73</ele><time>2024-09-17T03:24:39Z</time></trkpt><trkpt lat="-39.4087173790" lon="-72.7096451819"><ele>85.91</ele><time>2024-09-17T03:24:40Z</time></trkpt><trkpt lat="-39.4086696859" lon="-72.7095903642"><ele>86.00</ele><time>2024-09-17T03:24:41Z</time></trkpt><trkpt lat="-39.4079633430" lon="-72.7087650821"><ele>85.99</ele><time>2024-09-17T03:24:59Z</time></trkpt><trkpt lat="-39.4074889272" lon="-72.7082380280"><ele>85.17</ele><time>2024-09-17T03:25:10Z</time></trkpt><trkpt lat="-39.4072564971" lon="-72.7080231160"><ele>83.93</ele><time>2024-09-17T03:25:17Z</time></trkpt><trkpt lat="-39.4071292598" lon="-72.7083871420"><ele>85.22</ele><time>2024-09-17T03:25:24Z</time></trkpt><trkpt lat="-39.4072252326" lon="-72.7094218880"><ele>85.38</ele><time>2024-09-17T03:25:38Z</time></trkpt><trkpt lat="-39.4072684832" lon="-72.7096530609"><ele>85.31</ele><time>2024-09-17T03:25:41Z</time></trkpt><trkpt lat="-39.4073644560" lon="-72.7099205274"><ele>85.56</ele><time>2024-09-17T03:25:45Z</time></trkpt><trkpt lat="-39.4079900812" lon="-72.7106982004"><ele>85.90</ele><time>2024-09-17T03:26:00Z</time></trkpt><trkpt lat="-39.4085329771" lon="-72.7113155276"><ele>86.41</ele><time>2024-09-17T03:26:14Z</time></trkpt><trkpt lat="-39.4090074766" lon="-72.7118084673"><ele>85.80</ele><time>2024-09-17T03:26:26Z</time></trkpt><trkpt lat="-39.4090446085" lon="-72.7118036058"><ele>85.94</ele><time>2024-09-17T03:26:27Z</time></trkpt><trkpt lat="-39.4090811536" lon="-72.7117805555"><ele>86.15</ele><time>2024-09-17T03:26:28Z</time></trkpt><trkpt lat="-39.4091161061" lon="-72.7117382269"><ele>85.82</ele><time>2024-09-17T03:26:29Z</time></trkpt><trkpt lat="-39.4091488793" lon="-72.7116858400"><ele>86.05</ele><time>2024-09-17T03:26:30Z</time></trkpt><trkpt lat="-39.4091805629" lon="-72.7116280887"><ele>86.11</ele><time>2024-09-17T03:26:31Z</time></trkpt><trkpt lat="-39.4096440822" lon="-72.7108430397"><ele>86.50</ele><time>2024-09-17T03:26:44Z</time></trkpt><trkpt lat="-39.4100879878" lon="-72.7101838868"><ele>85.43</ele><time>2024-09-17T03:26:56Z</time></trkpt><trkpt lat="-39.4104450569" lon="-72.7096396498"><ele>85.82</ele><time>2024-09-17T03:27:07Z</time></trkpt><trkpt lat="-39.4104745612" lon="-72.7096273284"><ele>85.53</ele><time>2024-09-17T03:27:08Z</time></trkpt><trkpt lat="-39.4105119444" lon="-72.7096320223"><ele>85.53</ele><time>2024-09-17T03:27:09Z</time></trkpt><trkpt lat="-39.4105536863" lon="-72.7096566651"><ele>85.59</ele><time>2024-09-17T03:27:10Z</time></trkpt><trkpt lat="-39.4105988648" lon="-72.7096998319"><ele>85.52</ele><time>2024-09-17T03:27:11Z</time></trkpt><trkpt lat="-39.4106472284" lon="-72.7097547334"><ele>85.40</ele><time>2024-09-17T03:27:12Z</time></trkpt><trkpt lat="-39.4112505578" lon="-72.7104458213"><ele>85.54</ele><time>2024-09-17T03:27:24Z</time></trkpt><trkpt lat="-39.4112670701" lon="-72.7104915027"><ele>85.23</ele><time>2024-09-17T03:27:25Z</time></trkpt><trkpt lat="-39.4112628791" lon="-72.7105416264"><ele>85.15</ele><time>2024-09-17T03:27:26Z</time></trkpt><trkpt lat="-39.4112413377" lon="-72.7105945162"><ele>85.06</ele><time>2024-09-17T03:27:27Z</time></trkpt><trkpt lat="-39.4112115819" lon="-72.7106509265"><ele>84.74</ele><time>2024-09-17T03:27:28Z</time></trkpt><trkpt lat="-39.4111712649" lon="-72.7107104380"><ele>84.60</ele><time>2024-09-17T03:27:29Z</time></trkpt><trkpt lat="-39.4111271761" lon="-72.7107744757"><ele>84.65</ele><time>2024-09-17T03:27:30Z</time></trkpt><trkpt lat="-39.4105184823" lon="-72.7117033582"><ele>85.79</ele><time>2024-09-17T03:27:43Z</time></trkpt><trkpt lat="-39.4099313300" lon="-72.7125629224"><ele>85.79</ele><time>2024-09-17T03:27:57Z</time></trkpt><trkpt lat="-39.4098817091" lon="-72.7127286326"><ele>85.47</ele><time>2024-09-17T03:28:01Z</time></trkpt><trkpt lat="-39.4098963775" lon="-72.7127819415"><ele>85.68</ele><time>2024-09-17T03:28:02Z</time></trkpt><trkpt lat="-39.4099259656" lon="-72.7128365915"><ele>85.65</ele><time>2024-09-17T03:28:03Z</time></trkpt><trkpt lat="-39.4099677913" lon="-72.7128918283"><ele>85.68</ele><time>2024-09-17T03:28:04Z</time></trkpt><trkpt lat="-39.4100174122" lon="-72.7129515074"><ele>85.64</ele><time>2024-09-17T03:28:05Z</time></trkpt><trkpt lat="-39.4105906505" lon="-72.7135730255"><ele>84.35</ele><time>2024-09-17T03:28:16Z</time></trkpt><trkpt lat="-39.4106391817" lon="-72.7135923039"><ele>84.53</ele><time>2024-09-17T03:28:17Z</time></trkpt><trkpt lat="-39.4106873777" lon="-72.7135895379"><ele>84.72</ele><time>2024-09-17T03:28:18Z</time></trkpt><trkpt lat="-39.4107328914" lon="-72.7135627996"><ele>84.64</ele><time>2024-09-17T03:28:19Z</time></trkpt><trkpt lat="-39.4107768126" lon="-72.7135142684"><ele>84.37</ele><time>2024-09-17T03:28:20Z</time></trkpt><trkpt lat="-39.4108203985" lon="-72.7134495601"><ele>85.15</ele><time>2024-09-17T03:28:21Z</time></trkpt><trkpt lat="-39.4108665828" lon="-72.7133769728"><ele>84.94</ele><time>2024-09-17T03:28:22Z</time></trkpt><trkpt lat="-39.4113788847" lon="-72.7126114536"><ele>84.47</ele><time>2024-09-17T03:28:33Z</time></trkpt><trkpt lat="-39.4120440725" lon="-72.7116337884"><ele>84.55</ele><time>2024-09-17T03:28:47Z</time></trkpt><trkpt lat="-39.4122113753" lon="-72.7115058806"><ele>84.61</ele><time>2024-09-17T03:28:54Z</time></trkpt><trkpt lat="-39.4122495968" lon="-72.7115374804"><ele>84.54</ele><time>2024-09-17T03:28:55Z</time></trkpt><trkpt lat="-39.4122953620" lon="-72.7115871012"><ele>84.64</ele><time>2024-09-17T03:28:56Z</time></trkpt><trkpt lat="-39.4128561951" lon="-72.7122483496"><ele>84.37</ele><time>2024-09-17T03:29:06Z</time></trkpt><trkpt lat="-39.4128926564" lon="-72.7123004012"><ele>84.23</ele><time>2024-09-17T03:29:07Z</time></trkpt><trkpt lat="-39.4129123539" lon="-72.7123501059"><ele>84.11</ele><time>2024-09-17T03:29:08Z</time></trkpt><trkpt lat="-39.4129129406" lon="-72.7123969607"><ele>84.18</ele><time>2024-09-17T03:29:09Z</time></trkpt><trkpt lat="-39.4128965959" lon="-72.7124429774"><ele>84.14</ele><time>2024-09-17T03:29:10Z</time></trkpt><trkpt lat="-39.4128734618" lon="-72.7124875691"><ele>83.98</ele><time>2024-09-17T03:29:11Z</time></trkpt><trkpt lat="-39.4128407724" lon="-72.7125350107"><ele>83.89</ele><time>2024-09-17T03:29:12Z</time></trkpt><trkpt lat="-39.4128000364" lon="-72.7125920914"><ele>83.71</ele><time>2024-09-17T03:29:13Z</time></trkpt><trkpt lat="-39.4122879859" lon="-72.7133259270"><ele>84.21</ele><time>2024-09-17T03:29:25Z</time></trkpt><trkpt lat="-39.4122508541" lon="-72.7133635618"><ele>84.15</ele><time>2024-09-17T03:29:26Z</time></trkpt><trkpt lat="-39.4122043345" lon="-72.7133883722"><ele>84.36</ele><time>2024-09-17T03:29:27Z</time></trkpt><trkpt lat="-39.4121565577" lon="-72.7133862767"><ele>84.33</ele><time>2024-09-17T03:29:28Z</time></trkpt><trkpt lat="-39.4121128879" lon="-72.7133612148"><ele>84.43</ele><time>2024-09-17T03:29:29Z</time></trkpt><trkpt lat="-39.4120689668" lon="-72.7133212332"><ele>84.53</ele><time>2024-09-17T03:29:30Z</time></trkpt><trkpt lat="-39.4120235369" lon="-72.7132758871"><ele>84.73</ele><time>2024-09-17T03:29:31Z</time></trkpt><trkpt lat="-39.4115271606" lon="-72.7126648463"><ele>84.46</ele><time>2024-09-17T03:29:43Z</time></trkpt><trkpt lat="-39.4111349713" lon="-72.7122313343"><ele>84.98</ele><time>2024-09-17T03:29:52Z</time></trkpt><trkpt lat="-39.4106329791" lon="-72.7116625383"><ele>85.55</ele><time>2024-09-17T03:30:03Z</time></trkpt><trkpt lat="-39.4103315659" lon="-72.7113485523"><ele>86.68</ele><time>2024-09-17T03:30:13Z</time></trkpt><trkpt lat="-39.4100722298" lon="-72.7110767271"><ele>82.85</ele><time>2024-09-17T03:30:19Z</time></trkpt><trkpt lat="-39.4100381993" lon="-72.7110410202"><ele>85.93</ele><time>2024-09-17T03:30:20Z</time></trkpt><trkpt lat="-39.4097413961" lon="-72.7107023075"><ele>86.97</ele><time>2024-09-17T03:30:32Z</time></trkpt><trkpt lat="-39.4095344469" lon="-72.7104928438"><ele>88.59</ele><time>2024-09-17T03:30:39Z</time></trkpt><trkpt lat="-39.4090022799" lon="-72.7099284064"><ele>85.52</ele><time>2024-09-17T03:30:49Z</time></trkpt><trkpt lat="-39.4089197181" lon="-72.7097880933"><ele>85.96</ele><time>2024-09-17T03:30:53Z</time></trkpt><trkpt lat="-39.4089300279" lon="-72.7097429987"><ele>85.99</ele><time>2024-09-17T03:30:54Z</time></trkpt><trkpt lat="-39.4089505635" lon="-72.7096953895"><ele>85.74</ele><time>2024-09-17T03:30:55Z</time></trkpt><trkpt lat="-39.4089852646" lon="-72.7096414939"><ele>85.72</ele><time>2024-09-17T03:30:56Z</time></trkpt><trkpt lat="-39.4090266712" lon="-72.7095814794"><ele>85.75</ele><time>2024-09-17T03:30:57Z</time></trkpt><trkpt lat="-39.4096069504" lon="-72.7087140363"><ele>86.38</ele><time>2024-09-17T03:31:12Z</time></trkpt><trkpt lat="-39.4096306711" lon="-72.7085990366"><ele>86.49</ele><time>2024-09-17T03:31:16Z</time></trkpt><trkpt lat="-39.4096100517" lon="-72.7085531037"><ele>86.77</ele><time>2024-09-17T03:31:17Z</time></trkpt><trkpt lat="-39.4095782842" lon="-72.7085052431"><ele>86.95</ele><time>2024-09-17T03:31:18Z</time></trkpt><trkpt lat="-39.4095382188" lon="-72.7084562927"><ele>87.09</ele><time>2024-09-17T03:31:19Z</time></trkpt><trkpt lat="-39.4094902743" lon="-72.7084011398"><ele>87.25</ele><time>2024-09-17T03:31:20Z</time></trkpt><trkpt lat="-39.4088144414" lon="-72.7078063600"><ele>88.80</ele><time>2024-09-17T03:31:30Z</time></trkpt><trkpt lat="-39.4087299518" lon="-72.7077737544"><ele>88.80</ele><time>2024-09-17T03:31:31Z</time></trkpt><trkpt lat="-39.4086434506" lon="-72.7077563200"><ele>88.73</ele><time>2024-09-17T03:31:32Z</time></trkpt><trkpt lat="-39.4085546024" lon="-72.7077469323"><ele>88.58</ele><time>2024-09-17T03:31:33Z</time></trkpt><trkpt lat="-39.4084667601" lon="-72.7077394724"><ele>88.46</ele><time>2024-09-17T03:31:34Z</time></trkpt><trkpt lat="-39.4082203321" lon="-72.7077028435"><ele>88.32</ele><time>2024-09-17T03:31:37Z</time></trkpt><trkpt lat="-39.4081433024" lon="-72.7076661307"><ele>88.19</ele><time>2024-09-17T03:31:38Z</time></trkpt><trkpt lat="-39.4080739841" lon="-72.7076190244"><ele>88.23</ele><time>2024-09-17T03:31:39Z</time></trkpt><trkpt lat="-39.4080174062" lon="-72.7075565793"><ele>88.10</ele><time>2024-09-17T03:31:40Z</time></trkpt><trkpt lat="-39.4079752453" lon="-72.7074829023"><ele>88.26</ele><time>2024-09-17T03:31:41Z</time></trkpt><trkpt lat="-39.4079490099" lon="-72.7074057050"><ele>88.26</ele><time>2024-09-17T03:31:42Z</time></trkpt><trkpt lat="-39.4079436455" lon="-72.7073345426"><ele>88.20</ele><time>2024-09-17T03:31:43Z</time></trkpt><trkpt lat="-39.4079509377" lon="-72.7072776295"><ele>88.12</ele><time>2024-09-17T03:31:44Z</time></trkpt><trkpt lat="-39.4079665281" lon="-72.7072413359"><ele>88.26</ele><time>2024-09-17T03:31:45Z</time></trkpt><trkpt lat="-39.4079796877" lon="-72.7072210517"><ele>88.16</ele><time>2024-09-17T03:31:46Z</time></trkpt><trkpt lat="-39.4079932664" lon="-72.7072045393"><ele>88.01</ele><time>2024-09-17T03:31:47Z</time></trkpt><trkpt lat="-39.4080166519" lon="-72.7071850095"><ele>88.02</ele><time>2024-09-17T03:31:48Z</time></trkpt><trkpt lat="-39.4080508500" lon="-72.7071684971"><ele>88.17</ele><time>2024-09-17T03:31:49Z</time></trkpt><trkpt lat="-39.4080972020" lon="-72.7071597800"><ele>88.10</ele><time>2024-09-17T03:31:50Z</time></trkpt><trkpt lat="-39.4081569649" lon="-72.7071564272"><ele>88.11</ele><time>2024-09-17T03:31:51Z</time></trkpt><trkpt lat="-39.4082915783" lon="-72.7071419265"><ele>88.24</ele><time>2024-09-17T03:31:53Z</time></trkpt><trkpt lat="-39.4083578791" lon="-72.7071193792"><ele>88.29</ele><time>2024-09-17T03:31:54Z</time></trkpt><trkpt lat="-39.4084218331" lon="-72.7070859354"><ele>88.20</ele><time>2024-09-17T03:31:55Z</time></trkpt><trkpt lat="-39.4084824342" lon="-72.7070397511"><ele>88.27</ele><time>2024-09-17T03:31:56Z</time></trkpt><trkpt lat="-39.4085401855" lon="-72.7069862746"><ele>88.45</ele><time>2024-09-17T03:31:57Z</time></trkpt><trkpt lat="-39.4085896388" lon="-72.7069224883"><ele>88.50</ele><time>2024-09-17T03:31:58Z</time></trkpt><trkpt lat="-39.4086332247" lon="-72.7068488114"><ele>88.39</ele><time>2024-09-17T03:31:59Z</time></trkpt><trkpt lat="-39.4086667523" lon="-72.7067611367"><ele>88.51</ele><time>2024-09-17T03:32:00Z</time></trkpt><trkpt lat="-39.4086855277" lon="-72.7066638228"><ele>88.58</ele><time>2024-09-17T03:32:01Z</time></trkpt><trkpt lat="-39.4086864498" lon="-72.7065572049"><ele>88.70</ele><time>2024-09-17T03:32:02Z</time></trkpt><trkpt lat="-39.4086781517" lon="-72.7064541914"><ele>88.81</ele><time>2024-09-17T03:32:03Z</time></trkpt><trkpt lat="-39.4086601306" lon="-72.7063559555"><ele>88.92</ele><time>2024-09-17T03:32:04Z</time></trkpt><trkpt lat="-39.4086400140" lon="-72.7062724717"><ele>89.08</ele><time>2024-09-17T03:32:05Z</time></trkpt><trkpt lat="-39.4086105097" lon="-72.7061925922"><ele>88.98</ele><time>2024-09-17T03:32:06Z</time></trkpt><trkpt lat="-39.4085831009" lon="-72.7061227709"><ele>89.04</ele><time>2024-09-17T03:32:07Z</time></trkpt><trkpt lat="-39.4084230065" lon="-72.7058021631"><ele>88.54</ele><time>2024-09-17T03:32:16Z</time></trkpt><trkpt lat="-39.4084599707" lon="-72.7058015764"><ele>88.03</ele><time>2024-09-17T03:32:51Z</time></trkpt></trkseg></trk></gpx>