<?xml version="1.0" encoding="UTF-8" standalone="no" ?><gpx xmlns="http://www.topografix.com/GPX/1/1" xmlns:gpxx="http://www.garmin.com/xmlschemas/GpxExtensions/v3" xmlns:gpxtrkx="http://www.garmin.com/xmlschemas/TrackStatsExtension/v1" xmlns:wptx1="http://www.garmin.com/xmlschemas/WaypointExtension/v1" xmlns:gpxtpx="http://www.garmin.com/xmlschemas/TrackPointExtension/v1" creator="GPSMAP 64sx" version="1.1" xmlns:xsi="http://www.w3.org/2001/XMLSchema-instance" xsi:schemaLocation="http://www.topografix.com/GPX/1/1 http://www.topografix.com/GPX/1/1/gpx.xsd http://www.garmin.com/xmlschemas/GpxExtensions/v3 http://www8.garmin.com/xmlschemas/GpxExtensionsv3.xsd http://www.garmin.com/xmlschemas/TrackStatsExtension/v1 http://www8.garmin.com/xmlschemas/TrackStatsExtension.xsd http://www.garmin.com/xmlschemas/WaypointExtension/v1 http://www8.garmin.com/xmlschemas/WaypointExtensionv1.xsd http://www.garmin.com/xmlschemas/TrackPointExtension/v1 http://www.garmin.com/xmlschemas/TrackPointExtensionv1.xsd"><metadata><link href="http://www.garmin.com"><text>Garmin International</text></link><time>2024-08-20T04:07:19Z</time></metadata><trk><name>GPS LAPAZ 240819</name><extensions><gpxx:TrackExtension><gpxx:DisplayColor>Cyan</gpxx:DisplayColor></gpxx:TrackExtension><gpxtrkx:TrackStatsExtension><gpxtrkx:Distance>3820.000</gpxtrkx:Distance><gpxtrkx:TotalElapsedTime>825</gpxtrkx:TotalElapsedTime><gpxtrkx:MovingTime>720</gpxtrkx:MovingTime><gpxtrkx:StoppedTime>104</gpxtrkx:StoppedTime><gpxtrkx:MovingSpeed>5.306</gpxtrkx:MovingSpeed><gpxtrkx:MaxSpeed>12.313</gpxtrkx:MaxSpeed><gpxtrkx:MaxElevation>98.707</gpxtrkx:MaxElevation><gpxtrkx:MinElevation>89.846</gpxtrkx:MinElevation><gpxtrkx:Ascent>9.000</gpxtrkx:Ascent><gpxtrkx:Descent>9.128</gpxtrkx:Descent><gpxtrkx:AvgAscentRate>0.039</gpxtrkx:AvgAscentRate><gpxtrkx:MaxAscentRate>0.056</gpxtrkx:MaxAscentRate><gpxtrkx:AvgDescentRate>0.039</gpxtrkx:AvgDescentRate><gpxtrkx:MaxDescentRate>-0.059</gpxtrkx:MaxDescentRate></gpxtrkx:TrackStatsExtension></extensions><trkseg><trkpt lat="-39.4053577445" lon="-72.7021429595"><ele>94.30</ele><time>2024-08-20T03:53:34Z</time></trkpt><trkpt lat="-39.4053580798" lon="-72.7021427918"><ele>94.30</ele><time>2024-08-20T03:53:35Z</time></trkpt><trkpt lat="-39.4053679705" lon="-72.7021639142"><ele>94.83</ele><time>2024-08-20T03:53:45Z</time></trkpt><trkpt lat="-39.4054255541" lon="-72.7022407763"><ele>95.49</ele><time>2024-08-20T03:53:48Z</time></trkpt><trkpt lat="-39.4058521930" lon="-72.7028356399"><ele>95.16</ele><time>2024-08-20T03:53:58Z</time></trkpt><trkpt lat="-39.4065591227" lon="-72.7037769277"><ele>96.01</ele><time>2024-08-20T03:54:08Z</time></trkpt><trkpt lat="-39.4070655573" lon="-72.7046602126"><ele>98.33</ele><time>2024-08-20T03:54:16Z</time></trkpt><trkpt lat="-39.4075478520" lon="-72.7061276324"><ele>96.08</ele><time>2024-08-20T03:54:28Z</time></trkpt><trkpt lat="-39.4076747540" lon="-72.7063753176"><ele>95.85</ele><time>2024-08-20T03:54:31Z</time></trkpt><trkpt lat="-39.4076939486" lon="-72.7064555325"><ele>95.82</ele><time>2024-08-20T03:54:32Z</time></trkpt><trkpt lat="-39.4077070244" lon="-72.7065343224"><ele>95.74</ele><time>2024-08-20T03:54:33Z</time></trkpt><trkpt lat="-39.4077314995" lon="-72.7066867892"><ele>95.67</ele><time>2024-08-20T03:54:35Z</time></trkpt><trkpt lat="-39.4077537954" lon="-72.7067585383"><ele>95.76</ele><time>2024-08-20T03:54:36Z</time></trkpt><trkpt lat="-39.4078761712" lon="-72.7070600353"><ele>95.83</ele><time>2024-08-20T03:54:40Z</time></trkpt><trkpt lat="-39.4079008140" lon="-72.7071402501"><ele>95.92</ele><time>2024-08-20T03:54:41Z</time></trkpt><trkpt lat="-39.4079169910" lon="-72.7072274219"><ele>96.00</ele><time>2024-08-20T03:54:42Z</time></trkpt><trkpt lat="-39.4079270493" lon="-72.7073202934"><ele>95.80</ele><time>2024-08-20T03:54:43Z</time></trkpt><trkpt lat="-39.4079383649" lon="-72.7074120753"><ele>95.90</ele><time>2024-08-20T03:54:44Z</time></trkpt><trkpt lat="-39.4079596549" lon="-72.7075020969"><ele>95.81</ele><time>2024-08-20T03:54:45Z</time></trkpt><trkpt lat="-39.4079933502" lon="-72.7075898554"><ele>95.76</ele><time>2024-08-20T03:54:46Z</time></trkpt><trkpt lat="-39.4080400374" lon="-72.7076699864"><ele>95.71</ele><time>2024-08-20T03:54:47Z</time></trkpt><trkpt lat="-39.4081004709" lon="-72.7077366225"><ele>95.60</ele><time>2024-08-20T03:54:48Z</time></trkpt><trkpt lat="-39.4081660174" lon="-72.7077886742"><ele>95.50</ele><time>2024-08-20T03:54:49Z</time></trkpt><trkpt lat="-39.4082361739" lon="-72.7078279015"><ele>95.46</ele><time>2024-08-20T03:54:50Z</time></trkpt><trkpt lat="-39.4083183166" lon="-72.7078424022"><ele>95.47</ele><time>2024-08-20T03:54:51Z</time></trkpt><trkpt lat="-39.4084009621" lon="-72.7078450006"><ele>95.57</ele><time>2024-08-20T03:54:52Z</time></trkpt><trkpt lat="-39.4084826857" lon="-72.7078433242"><ele>95.49</ele><time>2024-08-20T03:54:53Z</time></trkpt><trkpt lat="-39.4087927323" lon="-72.7078670450"><ele>95.51</ele><time>2024-08-20T03:54:57Z</time></trkpt><trkpt lat="-39.4088620506" lon="-72.7078959625"><ele>95.57</ele><time>2024-08-20T03:54:58Z</time></trkpt><trkpt lat="-39.4089296088" lon="-72.7079325914"><ele>95.76</ele><time>2024-08-20T03:54:59Z</time></trkpt><trkpt lat="-39.4089949038" lon="-72.7079789434"><ele>95.65</ele><time>2024-08-20T03:55:00Z</time></trkpt><trkpt lat="-39.4090590253" lon="-72.7080331743"><ele>95.74</ele><time>2024-08-20T03:55:01Z</time></trkpt><trkpt lat="-39.4091229793" lon="-72.7080914285"><ele>95.62</ele><time>2024-08-20T03:55:02Z</time></trkpt><trkpt lat="-39.4095945451" lon="-72.7085875534"><ele>94.27</ele><time>2024-08-20T03:55:11Z</time></trkpt><trkpt lat="-39.4096118119" lon="-72.7086320613"><ele>94.40</ele><time>2024-08-20T03:55:12Z</time></trkpt><trkpt lat="-39.4096101355" lon="-72.7086789999"><ele>94.21</ele><time>2024-08-20T03:55:13Z</time></trkpt><trkpt lat="-39.4095940422" lon="-72.7087208256"><ele>93.98</ele><time>2024-08-20T03:55:14Z</time></trkpt><trkpt lat="-39.4095708244" lon="-72.7087595500"><ele>93.75</ele><time>2024-08-20T03:55:15Z</time></trkpt><trkpt lat="-39.4095452596" lon="-72.7087979391"><ele>93.79</ele><time>2024-08-20T03:55:16Z</time></trkpt><trkpt lat="-39.4090042077" lon="-72.7095820662"><ele>93.11</ele><time>2024-08-20T03:55:32Z</time></trkpt><trkpt lat="-39.4088385813" lon="-72.7097309288"><ele>93.29</ele><time>2024-08-20T03:55:39Z</time></trkpt><trkpt lat="-39.4088084064" lon="-72.7097180206"><ele>93.26</ele><time>2024-08-20T03:55:40Z</time></trkpt><trkpt lat="-39.4087768905" lon="-72.7096974850"><ele>93.36</ele><time>2024-08-20T03:55:41Z</time></trkpt><trkpt lat="-39.4087422732" lon="-72.7096674778"><ele>93.40</ele><time>2024-08-20T03:55:42Z</time></trkpt><trkpt lat="-39.4087054767" lon="-72.7096279990"><ele>93.45</ele><time>2024-08-20T03:55:43Z</time></trkpt><trkpt lat="-39.4086654112" lon="-72.7095875144"><ele>93.52</ele><time>2024-08-20T03:55:44Z</time></trkpt><trkpt lat="-39.4086240884" lon="-72.7095453534"><ele>93.50</ele><time>2024-08-20T03:55:45Z</time></trkpt><trkpt lat="-39.4081251975" lon="-72.7090268489"><ele>93.73</ele><time>2024-08-20T03:55:58Z</time></trkpt><trkpt lat="-39.4076058548" lon="-72.7083809394"><ele>92.90</ele><time>2024-08-20T03:56:14Z</time></trkpt><trkpt lat="-39.4073034357" lon="-72.7080403827"><ele>92.46</ele><time>2024-08-20T03:56:25Z</time></trkpt><trkpt lat="-39.4071196206" lon="-72.7082266286"><ele>92.26</ele><time>2024-08-20T03:56:33Z</time></trkpt><trkpt lat="-39.4071798865" lon="-72.7089962550"><ele>92.49</ele><time>2024-08-20T03:56:48Z</time></trkpt><trkpt lat="-39.4073326886" lon="-72.7098217886"><ele>92.68</ele><time>2024-08-20T03:57:05Z</time></trkpt><trkpt lat="-39.4075371232" lon="-72.7101439890"><ele>92.85</ele><time>2024-08-20T03:57:13Z</time></trkpt><trkpt lat="-39.4081251975" lon="-72.7107796725"><ele>93.20</ele><time>2024-08-20T03:57:33Z</time></trkpt><trkpt lat="-39.4084811769" lon="-72.7112068143"><ele>93.52</ele><time>2024-08-20T03:57:46Z</time></trkpt><trkpt lat="-39.4085442089" lon="-72.7112763841"><ele>93.38</ele><time>2024-08-20T03:57:48Z</time></trkpt><trkpt lat="-39.4085764792" lon="-72.7113047987"><ele>93.35</ele><time>2024-08-20T03:57:49Z</time></trkpt><trkpt lat="-39.4089697581" lon="-72.7117232233"><ele>93.02</ele><time>2024-08-20T03:58:04Z</time></trkpt><trkpt lat="-39.4090230670" lon="-72.7117567509"><ele>93.01</ele><time>2024-08-20T03:58:06Z</time></trkpt><trkpt lat="-39.4090510625" lon="-72.7117530629"><ele>92.92</ele><time>2024-08-20T03:58:07Z</time></trkpt><trkpt lat="-39.4090783875" lon="-72.7117385622"><ele>92.97</ele><time>2024-08-20T03:58:08Z</time></trkpt><trkpt lat="-39.4091038685" lon="-72.7117138356"><ele>92.96</ele><time>2024-08-20T03:58:09Z</time></trkpt><trkpt lat="-39.4091264997" lon="-72.7116853371"><ele>92.85</ele><time>2024-08-20T03:58:10Z</time></trkpt><trkpt lat="-39.4091495499" lon="-72.7116527315"><ele>93.02</ele><time>2024-08-20T03:58:11Z</time></trkpt><trkpt lat="-39.4091725163" lon="-72.7116166893"><ele>93.12</ele><time>2024-08-20T03:58:12Z</time></trkpt><trkpt lat="-39.4095058646" lon="-72.7110365778"><ele>93.33</ele><time>2024-08-20T03:58:27Z</time></trkpt><trkpt lat="-39.4097249676" lon="-72.7106541954"><ele>93.44</ele><time>2024-08-20T03:58:40Z</time></trkpt><trkpt lat="-39.4101169053" lon="-72.7100774366"><ele>92.83</ele><time>2024-08-20T03:58:54Z</time></trkpt><trkpt lat="-39.4104681909" lon="-72.7095919568"><ele>92.59</ele><time>2024-08-20T03:59:06Z</time></trkpt><trkpt lat="-39.4105368387" lon="-72.7096160967"><ele>92.55</ele><time>2024-08-20T03:59:08Z</time></trkpt><trkpt lat="-39.4105769042" lon="-72.7096517198"><ele>92.63</ele><time>2024-08-20T03:59:09Z</time></trkpt><trkpt lat="-39.4111762103" lon="-72.7103125490"><ele>92.25</ele><time>2024-08-20T03:59:21Z</time></trkpt><trkpt lat="-39.4112135936" lon="-72.7103568055"><ele>92.20</ele><time>2024-08-20T03:59:22Z</time></trkpt><trkpt lat="-39.4112426788" lon="-72.7104028221"><ele>92.26</ele><time>2024-08-20T03:59:23Z</time></trkpt><trkpt lat="-39.4112604484" lon="-72.7104496770"><ele>92.26</ele><time>2024-08-20T03:59:24Z</time></trkpt><trkpt lat="-39.4112635497" lon="-72.7104986273"><ele>92.07</ele><time>2024-08-20T03:59:25Z</time></trkpt><trkpt lat="-39.4112522341" lon="-72.7105482481"><ele>91.98</ele><time>2024-08-20T03:59:26Z</time></trkpt><trkpt lat="-39.4112344645" lon="-72.7105975337"><ele>91.76</ele><time>2024-08-20T03:59:27Z</time></trkpt><trkpt lat="-39.4112116657" lon="-72.7106419578"><ele>91.71</ele><time>2024-08-20T03:59:28Z</time></trkpt><trkpt lat="-39.4111850113" lon="-72.7106831968"><ele>91.53</ele><time>2024-08-20T03:59:29Z</time></trkpt><trkpt lat="-39.4111565128" lon="-72.7107248548"><ele>91.57</ele><time>2024-08-20T03:59:30Z</time></trkpt><trkpt lat="-39.4106940832" lon="-72.7113949880"><ele>92.18</ele><time>2024-08-20T03:59:48Z</time></trkpt><trkpt lat="-39.4102151413" lon="-72.7121143229"><ele>92.58</ele><time>2024-08-20T04:00:06Z</time></trkpt><trkpt lat="-39.4098722376" lon="-72.7127453126"><ele>92.44</ele><time>2024-08-20T04:00:21Z</time></trkpt><trkpt lat="-39.4099402986" lon="-72.7128557023"><ele>92.30</ele><time>2024-08-20T04:00:24Z</time></trkpt><trkpt lat="-39.4105619844" lon="-72.7135177888"><ele>91.63</ele><time>2024-08-20T04:00:39Z</time></trkpt><trkpt lat="-39.4106054027" lon="-72.7135412581"><ele>91.57</ele><time>2024-08-20T04:00:40Z</time></trkpt><trkpt lat="-39.4106453843" lon="-72.7135450300"><ele>91.59</ele><time>2024-08-20T04:00:41Z</time></trkpt><trkpt lat="-39.4106814265" lon="-72.7135311998"><ele>91.32</ele><time>2024-08-20T04:00:42Z</time></trkpt><trkpt lat="-39.4107116852" lon="-72.7135027014"><ele>91.37</ele><time>2024-08-20T04:00:43Z</time></trkpt><trkpt lat="-39.4107411895" lon="-72.7134636417"><ele>91.38</ele><time>2024-08-20T04:00:44Z</time></trkpt><trkpt lat="-39.4107716996" lon="-72.7134200558"><ele>91.36</ele><time>2024-08-20T04:00:45Z</time></trkpt><trkpt lat="-39.4112876058" lon="-72.7126355097"><ele>90.95</ele><time>2024-08-20T04:01:01Z</time></trkpt><trkpt lat="-39.4118398055" lon="-72.7118335292"><ele>91.02</ele><time>2024-08-20T04:01:18Z</time></trkpt><trkpt lat="-39.4121561386" lon="-72.7114752028"><ele>91.14</ele><time>2024-08-20T04:01:29Z</time></trkpt><trkpt lat="-39.4121902529" lon="-72.7115032822"><ele>91.11</ele><time>2024-08-20T04:01:30Z</time></trkpt><trkpt lat="-39.4122265466" lon="-72.7115425095"><ele>91.09</ele><time>2024-08-20T04:01:31Z</time></trkpt><trkpt lat="-39.4128510822" lon="-72.7122242935"><ele>90.60</ele><time>2024-08-20T04:01:45Z</time></trkpt><trkpt lat="-39.4128832687" lon="-72.7122672927"><ele>90.58</ele><time>2024-08-20T04:01:46Z</time></trkpt><trkpt lat="-39.4129056484" lon="-72.7123092860"><ele>90.46</ele><time>2024-08-20T04:01:47Z</time></trkpt><trkpt lat="-39.4129138626" lon="-72.7123496030"><ele>90.56</ele><time>2024-08-20T04:01:48Z</time></trkpt><trkpt lat="-39.4129057322" lon="-72.7123935241"><ele>90.50</ele><time>2024-08-20T04:01:49Z</time></trkpt><trkpt lat="-39.4128825981" lon="-72.7124383673"><ele>90.26</ele><time>2024-08-20T04:01:50Z</time></trkpt><trkpt lat="-39.4128532615" lon="-72.7124857251"><ele>90.04</ele><time>2024-08-20T04:01:51Z</time></trkpt><trkpt lat="-39.4128199015" lon="-72.7125374414"><ele>89.96</ele><time>2024-08-20T04:01:52Z</time></trkpt><trkpt lat="-39.4122663606" lon="-72.7133241668"><ele>90.55</ele><time>2024-08-20T04:02:07Z</time></trkpt><trkpt lat="-39.4122293964" lon="-72.7133473009"><ele>90.60</ele><time>2024-08-20T04:02:08Z</time></trkpt><trkpt lat="-39.4121912587" lon="-72.7133546770"><ele>90.54</ele><time>2024-08-20T04:02:09Z</time></trkpt><trkpt lat="-39.4121535402" lon="-72.7133499831"><ele>90.65</ele><time>2024-08-20T04:02:10Z</time></trkpt><trkpt lat="-39.4121176656" lon="-72.7133301180"><ele>90.80</ele><time>2024-08-20T04:02:11Z</time></trkpt><trkpt lat="-39.4120791089" lon="-72.7132990211"><ele>90.75</ele><time>2024-08-20T04:02:12Z</time></trkpt><trkpt lat="-39.4120375346" lon="-72.7132611349"><ele>90.92</ele><time>2024-08-20T04:02:13Z</time></trkpt><trkpt lat="-39.4118686393" lon="-72.7130830195"><ele>90.97</ele><time>2024-08-20T04:02:17Z</time></trkpt><trkpt lat="-39.4113062974" lon="-72.7124291472"><ele>90.60</ele><time>2024-08-20T04:02:33Z</time></trkpt><trkpt lat="-39.4106851146" lon="-72.7117251512"><ele>91.80</ele><time>2024-08-20T04:02:50Z</time></trkpt><trkpt lat="-39.4103494193" lon="-72.7113623824"><ele>92.83</ele><time>2024-08-20T04:03:03Z</time></trkpt><trkpt lat="-39.4097667933" lon="-72.7107374277"><ele>93.31</ele><time>2024-08-20T04:03:22Z</time></trkpt><trkpt lat="-39.4093508832" lon="-72.7102933545"><ele>92.85</ele><time>2024-08-20T04:03:35Z</time></trkpt><trkpt lat="-39.4092650525" lon="-72.7102143131"><ele>92.84</ele><time>2024-08-20T04:03:37Z</time></trkpt><trkpt lat="-39.4092192873" lon="-72.7101773489"><ele>92.81</ele><time>2024-08-20T04:03:38Z</time></trkpt><trkpt lat="-39.4089117553" lon="-72.7097307611"><ele>92.37</ele><time>2024-08-20T04:03:50Z</time></trkpt><trkpt lat="-39.4089244120" lon="-72.7096931264"><ele>92.38</ele><time>2024-08-20T04:03:51Z</time></trkpt><trkpt lat="-39.4089470431" lon="-72.7096538991"><ele>92.36</ele><time>2024-08-20T04:03:52Z</time></trkpt><trkpt lat="-39.4093495421" lon="-72.7090459596"><ele>92.73</ele><time>2024-08-20T04:04:06Z</time></trkpt><trkpt lat="-39.4096133206" lon="-72.7086242661"><ele>93.22</ele><time>2024-08-20T04:04:17Z</time></trkpt><trkpt lat="-39.4096135721" lon="-72.7085790876"><ele>93.35</ele><time>2024-08-20T04:04:18Z</time></trkpt><trkpt lat="-39.4095976464" lon="-72.7085305564"><ele>93.27</ele><time>2024-08-20T04:04:19Z</time></trkpt><trkpt lat="-39.4095687289" lon="-72.7084822766"><ele>93.54</ele><time>2024-08-20T04:04:20Z</time></trkpt><trkpt lat="-39.4095319323" lon="-72.7084320690"><ele>93.58</ele><time>2024-08-20T04:04:21Z</time></trkpt><trkpt lat="-39.4094895199" lon="-72.7083810233"><ele>93.69</ele><time>2024-08-20T04:04:22Z</time></trkpt><trkpt lat="-39.4087550137" lon="-72.7077458426"><ele>94.98</ele><time>2024-08-20T04:04:35Z</time></trkpt><trkpt lat="-39.4086790737" lon="-72.7077200264"><ele>94.84</ele><time>2024-08-20T04:04:36Z</time></trkpt><trkpt lat="-39.4086018763" lon="-72.7077041008"><ele>94.88</ele><time>2024-08-20T04:04:37Z</time></trkpt><trkpt lat="-39.4082307257" lon="-72.7076427452"><ele>94.27</ele><time>2024-08-20T04:04:42Z</time></trkpt><trkpt lat="-39.4081684481" lon="-72.7076147497"><ele>94.37</ele><time>2024-08-20T04:04:43Z</time></trkpt><trkpt lat="-39.4081153069" lon="-72.7075779531"><ele>94.21</ele><time>2024-08-20T04:04:44Z</time></trkpt><trkpt lat="-39.4080691226" lon="-72.7075323556"><ele>94.22</ele><time>2024-08-20T04:04:45Z</time></trkpt><trkpt lat="-39.4080303982" lon="-72.7074801363"><ele>94.07</ele><time>2024-08-20T04:04:46Z</time></trkpt><trkpt lat="-39.4079975411" lon="-72.7074245643"><ele>94.14</ele><time>2024-08-20T04:04:47Z</time></trkpt><trkpt lat="-39.4079733174" lon="-72.7073642984"><ele>94.26</ele><time>2024-08-20T04:04:48Z</time></trkpt><trkpt lat="-39.4079626724" lon="-72.7072990034"><ele>94.51</ele><time>2024-08-20T04:04:49Z</time></trkpt><trkpt lat="-39.4079673663" lon="-72.7072347980"><ele>94.52</ele><time>2024-08-20T04:04:50Z</time></trkpt><trkpt lat="-39.4079855550" lon="-72.7071789745"><ele>94.73</ele><time>2024-08-20T04:04:51Z</time></trkpt><trkpt lat="-39.4080184121" lon="-72.7071299404"><ele>94.81</ele><time>2024-08-20T04:04:52Z</time></trkpt><trkpt lat="-39.4080620818" lon="-72.7071001008"><ele>94.64</ele><time>2024-08-20T04:04:53Z</time></trkpt><trkpt lat="-39.4081167318" lon="-72.7070888691"><ele>94.58</ele><time>2024-08-20T04:04:54Z</time></trkpt><trkpt lat="-39.4081764948" lon="-72.7070878632"><ele>94.67</ele><time>2024-08-20T04:04:55Z</time></trkpt><trkpt lat="-39.4082382694" lon="-72.7070864383"><ele>94.47</ele><time>2024-08-20T04:04:56Z</time></trkpt><trkpt lat="-39.4083023071" lon="-72.7070775535"><ele>94.45</ele><time>2024-08-20T04:04:57Z</time></trkpt><trkpt lat="-39.4083676022" lon="-72.7070559282"><ele>94.54</ele><time>2024-08-20T04:04:58Z</time></trkpt><trkpt lat="-39.4084282871" lon="-72.7070225682"><ele>94.56</ele><time>2024-08-20T04:04:59Z</time></trkpt><trkpt lat="-39.4086931553" lon="-72.7067043073"><ele>94.59</ele><time>2024-08-20T04:05:04Z</time></trkpt><trkpt lat="-39.4087044708" lon="-72.7066033054"><ele>94.64</ele><time>2024-08-20T04:05:05Z</time></trkpt><trkpt lat="-39.4087043870" lon="-72.7065092605"><ele>94.63</ele><time>2024-08-20T04:05:06Z</time></trkpt><trkpt lat="-39.4087033812" lon="-72.7064217534"><ele>94.70</ele><time>2024-08-20T04:05:07Z</time></trkpt><trkpt lat="-39.4086859468" lon="-72.7063349169"><ele>94.78</ele><time>2024-08-20T04:05:08Z</time></trkpt><trkpt lat="-39.4086613040" lon="-72.7062466554"><ele>94.86</ele><time>2024-08-20T04:05:09Z</time></trkpt><trkpt lat="-39.4086283632" lon="-72.7061604895"><ele>94.92</ele><time>2024-08-20T04:05:10Z</time></trkpt><trkpt lat="-39.4085904770" lon="-72.7060725633"><ele>94.88</ele><time>2024-08-20T04:05:11Z</time></trkpt><trkpt lat="-39.4085499924" lon="-72.7059854753"><ele>94.97</ele><time>2024-08-20T04:05:12Z</time></trkpt><trkpt lat="-39.4084489066" lon="-72.7057659533"><ele>94.96</ele><time>2024-08-20T04:05:15Z</time></trkpt><trkpt lat="-39.4084194861" lon="-72.7057149913"><ele>94.98</ele><time>2024-08-20T04:05:16Z</time></trkpt><trkpt lat="-39.4083925802" lon="-72.7056781948"><ele>94.98</ele><time>2024-08-20T04:05:17Z</time></trkpt><trkpt lat="-39.4083687756" lon="-72.7056557313"><ele>95.01</ele><time>2024-08-20T04:05:18Z</time></trkpt><trkpt lat="-39.4083543587" lon="-72.7056453377"><ele>94.91</ele><time>2024-08-20T04:05:19Z</time></trkpt><trkpt lat="-39.4083453901" lon="-72.7056652866"><ele>95.87</ele><time>2024-08-20T04:05:37Z</time></trkpt><trkpt lat="-39.4083448872" lon="-72.7056683879"><ele>95.41</ele><time>2024-08-20T04:06:14Z</time></trkpt><trkpt lat="-39.4083444681" lon="-72.7056577429"><ele>95.41</ele><time>2024-08-20T04:06:53Z</time></trkpt></trkseg></trk></gpx>