<?xml version="1.0" encoding="UTF-8" standalone="no" ?><gpx xmlns="http://www.topografix.com/GPX/1/1" xmlns:gpxx="http://www.garmin.com/xmlschemas/GpxExtensions/v3" xmlns:gpxtrkx="http://www.garmin.com/xmlschemas/TrackStatsExtension/v1" xmlns:wptx1="http://www.garmin.com/xmlschemas/WaypointExtension/v1" xmlns:gpxtpx="http://www.garmin.com/xmlschemas/TrackPointExtension/v1" creator="GPSMAP 64sx" version="1.1" xmlns:xsi="http://www.w3.org/2001/XMLSchema-instance" xsi:schemaLocation="http://www.topografix.com/GPX/1/1 http://www.topografix.com/GPX/1/1/gpx.xsd http://www.garmin.com/xmlschemas/GpxExtensions/v3 http://www8.garmin.com/xmlschemas/GpxExtensionsv3.xsd http://www.garmin.com/xmlschemas/TrackStatsExtension/v1 http://www8.garmin.com/xmlschemas/TrackStatsExtension.xsd http://www.garmin.com/xmlschemas/WaypointExtension/v1 http://www8.garmin.com/xmlschemas/WaypointExtensionv1.xsd http://www.garmin.com/xmlschemas/TrackPointExtension/v1 http://www.garmin.com/xmlschemas/TrackPointExtensionv1.xsd"><metadata><link href="http://www.garmin.com"><text>Garmin International</text></link><time>2024-08-28T04:06:39Z</time></metadata><trk><name>GPS LAPAZ 240827</name><extensions><gpxx:TrackExtension><gpxx:DisplayColor>Cyan</gpxx:DisplayColor></gpxx:TrackExtension><gpxtrkx:TrackStatsExtension><gpxtrkx:Distance>3655.000</gpxtrkx:Distance><gpxtrkx:TotalElapsedTime>673</gpxtrkx:TotalElapsedTime><gpxtrkx:MovingTime>561</gpxtrkx:MovingTime><gpxtrkx:StoppedTime>112</gpxtrkx:StoppedTime><gpxtrkx:MovingSpeed>6.517</gpxtrkx:MovingSpeed><gpxtrkx:MaxSpeed>10.116</gpxtrkx:MaxSpeed><gpxtrkx:MaxElevation>93.795</gpxtrkx:MaxElevation><gpxtrkx:MinElevation>85.546</gpxtrkx:MinElevation><gpxtrkx:Ascent>11.000</gpxtrkx:Ascent><gpxtrkx:Descent>10.403</gpxtrkx:Descent><gpxtrkx:AvgAscentRate>0.068</gpxtrkx:AvgAscentRate><gpxtrkx:MaxAscentRate>0.196</gpxtrkx:MaxAscentRate><gpxtrkx:AvgDescentRate>0.035</gpxtrkx:AvgDescentRate><gpxtrkx:MaxDescentRate>-0.056</gpxtrkx:MaxDescentRate></gpxtrkx:TrackStatsExtension></extensions><trkseg><trkpt lat="-39.4063653331" lon="-72.7035729121"><ele>90.61</ele><time>2024-08-28T03:55:26Z</time></trkpt><trkpt lat="-39.4063649978" lon="-72.7035734989"><ele>90.61</ele><time>2024-08-28T03:55:27Z</time></trkpt><trkpt lat="-39.4063593820" lon="-72.7035655361"><ele>89.23</ele><time>2024-08-28T03:55:50Z</time></trkpt><trkpt lat="-39.4063639082" lon="-72.7035719901"><ele>89.56</ele><time>2024-08-28T03:56:30Z</time></trkpt><trkpt lat="-39.4063788280" lon="-72.7035901789"><ele>89.66</ele><time>2024-08-28T03:56:31Z</time></trkpt><trkpt lat="-39.4064053986" lon="-72.7036178391"><ele>89.53</ele><time>2024-08-28T03:56:32Z</time></trkpt><trkpt lat="-39.4064361602" lon="-72.7036543004"><ele>89.65</ele><time>2024-08-28T03:56:33Z</time></trkpt><trkpt lat="-39.4064722024" lon="-72.7037009876"><ele>89.83</ele><time>2024-08-28T03:56:34Z</time></trkpt><trkpt lat="-39.4069435168" lon="-72.7044416964"><ele>92.01</ele><time>2024-08-28T03:56:44Z</time></trkpt><trkpt lat="-39.4072645437" lon="-72.7054817230"><ele>90.65</ele><time>2024-08-28T03:56:55Z</time></trkpt><trkpt lat="-39.4076531287" lon="-72.7063245233"><ele>89.63</ele><time>2024-08-28T03:57:06Z</time></trkpt><trkpt lat="-39.4076758437" lon="-72.7063933387"><ele>89.52</ele><time>2024-08-28T03:57:07Z</time></trkpt><trkpt lat="-39.4076906797" lon="-72.7064676862"><ele>89.78</ele><time>2024-08-28T03:57:08Z</time></trkpt><trkpt lat="-39.4077570643" lon="-72.7068117633"><ele>90.07</ele><time>2024-08-28T03:57:12Z</time></trkpt><trkpt lat="-39.4077884126" lon="-72.7069000248"><ele>90.16</ele><time>2024-08-28T03:57:13Z</time></trkpt><trkpt lat="-39.4078269694" lon="-72.7069840115"><ele>90.20</ele><time>2024-08-28T03:57:14Z</time></trkpt><trkpt lat="-39.4078635145" lon="-72.7070661541"><ele>90.14</ele><time>2024-08-28T03:57:15Z</time></trkpt><trkpt lat="-39.4078905880" lon="-72.7071525715"><ele>90.24</ele><time>2024-08-28T03:57:16Z</time></trkpt><trkpt lat="-39.4079071004" lon="-72.7072412521"><ele>90.30</ele><time>2024-08-28T03:57:17Z</time></trkpt><trkpt lat="-39.4079220202" lon="-72.7073367219"><ele>90.34</ele><time>2024-08-28T03:57:18Z</time></trkpt><trkpt lat="-39.4079655223" lon="-72.7075186931"><ele>90.01</ele><time>2024-08-28T03:57:20Z</time></trkpt><trkpt lat="-39.4080095273" lon="-72.7075984888"><ele>90.04</ele><time>2024-08-28T03:57:21Z</time></trkpt><trkpt lat="-39.4080644287" lon="-72.7076707408"><ele>90.00</ele><time>2024-08-28T03:57:22Z</time></trkpt><trkpt lat="-39.4081274606" lon="-72.7077359520"><ele>89.90</ele><time>2024-08-28T03:57:23Z</time></trkpt><trkpt lat="-39.4081995450" lon="-72.7077834774"><ele>89.68</ele><time>2024-08-28T03:57:24Z</time></trkpt><trkpt lat="-39.4082777482" lon="-72.7078120597"><ele>89.86</ele><time>2024-08-28T03:57:25Z</time></trkpt><trkpt lat="-39.4083562866" lon="-72.7078230400"><ele>89.92</ele><time>2024-08-28T03:57:26Z</time></trkpt><trkpt lat="-39.4084380940" lon="-72.7078288235"><ele>89.87</ele><time>2024-08-28T03:57:27Z</time></trkpt><trkpt lat="-39.4088467117" lon="-72.7079083677"><ele>89.79</ele><time>2024-08-28T03:57:32Z</time></trkpt><trkpt lat="-39.4089198858" lon="-72.7079523727"><ele>89.77</ele><time>2024-08-28T03:57:33Z</time></trkpt><trkpt lat="-39.4089907128" lon="-72.7080028318"><ele>89.77</ele><time>2024-08-28T03:57:34Z</time></trkpt><trkpt lat="-39.4090629648" lon="-72.7080549672"><ele>89.71</ele><time>2024-08-28T03:57:35Z</time></trkpt><trkpt lat="-39.4091351330" lon="-72.7081092820"><ele>89.66</ele><time>2024-08-28T03:57:36Z</time></trkpt><trkpt lat="-39.4095975626" lon="-72.7085732203"><ele>88.39</ele><time>2024-08-28T03:57:45Z</time></trkpt><trkpt lat="-39.4096200261" lon="-72.7086194884"><ele>88.36</ele><time>2024-08-28T03:57:46Z</time></trkpt><trkpt lat="-39.4096297491" lon="-72.7086627390"><ele>88.32</ele><time>2024-08-28T03:57:47Z</time></trkpt><trkpt lat="-39.4096238818" lon="-72.7087073307"><ele>88.34</ele><time>2024-08-28T03:57:48Z</time></trkpt><trkpt lat="-39.4096030947" lon="-72.7087538503"><ele>88.28</ele><time>2024-08-28T03:57:49Z</time></trkpt><trkpt lat="-39.4095702376" lon="-72.7087952569"><ele>88.05</ele><time>2024-08-28T03:57:50Z</time></trkpt><trkpt lat="-39.4095289148" lon="-72.7088457160"><ele>88.06</ele><time>2024-08-28T03:57:51Z</time></trkpt><trkpt lat="-39.4090450276" lon="-72.7095484547"><ele>87.67</ele><time>2024-08-28T03:58:02Z</time></trkpt><trkpt lat="-39.4088917226" lon="-72.7097285818"><ele>87.24</ele><time>2024-08-28T03:58:07Z</time></trkpt><trkpt lat="-39.4088528305" lon="-72.7097156737"><ele>87.35</ele><time>2024-08-28T03:58:08Z</time></trkpt><trkpt lat="-39.4088100828" lon="-72.7096842416"><ele>87.62</ele><time>2024-08-28T03:58:09Z</time></trkpt><trkpt lat="-39.4087698497" lon="-72.7096420806"><ele>87.94</ele><time>2024-08-28T03:58:10Z</time></trkpt><trkpt lat="-39.4087239169" lon="-72.7095902804"><ele>87.92</ele><time>2024-08-28T03:58:11Z</time></trkpt><trkpt lat="-39.4079809450" lon="-72.7087702788"><ele>87.90</ele><time>2024-08-28T03:58:24Z</time></trkpt><trkpt lat="-39.4073244743" lon="-72.7080396283"><ele>86.66</ele><time>2024-08-28T03:58:39Z</time></trkpt><trkpt lat="-39.4072629511" lon="-72.7079936955"><ele>86.38</ele><time>2024-08-28T03:58:41Z</time></trkpt><trkpt lat="-39.4071005099" lon="-72.7082985453"><ele>86.83</ele><time>2024-08-28T03:58:48Z</time></trkpt><trkpt lat="-39.4072367996" lon="-72.7094877698"><ele>87.47</ele><time>2024-08-28T03:59:04Z</time></trkpt><trkpt lat="-39.4072918687" lon="-72.7096944675"><ele>87.57</ele><time>2024-08-28T03:59:07Z</time></trkpt><trkpt lat="-39.4074228778" lon="-72.7099827211"><ele>87.75</ele><time>2024-08-28T03:59:12Z</time></trkpt><trkpt lat="-39.4080410432" lon="-72.7106909920"><ele>88.35</ele><time>2024-08-28T03:59:28Z</time></trkpt><trkpt lat="-39.4085699413" lon="-72.7112759650"><ele>88.73</ele><time>2024-08-28T03:59:42Z</time></trkpt><trkpt lat="-39.4090418424" lon="-72.7117658872"><ele>88.06</ele><time>2024-08-28T03:59:55Z</time></trkpt><trkpt lat="-39.4090742804" lon="-72.7117487881"><ele>87.78</ele><time>2024-08-28T03:59:56Z</time></trkpt><trkpt lat="-39.4091061316" lon="-72.7117162663"><ele>88.44</ele><time>2024-08-28T03:59:57Z</time></trkpt><trkpt lat="-39.4091366418" lon="-72.7116720099"><ele>88.25</ele><time>2024-08-28T03:59:58Z</time></trkpt><trkpt lat="-39.4091653917" lon="-72.7116207965"><ele>88.48</ele><time>2024-08-28T03:59:59Z</time></trkpt><trkpt lat="-39.4091948122" lon="-72.7115651406"><ele>88.43</ele><time>2024-08-28T04:00:00Z</time></trkpt><trkpt lat="-39.4097007439" lon="-72.7107430436"><ele>88.52</ele><time>2024-08-28T04:00:13Z</time></trkpt><trkpt lat="-39.4101930968" lon="-72.7099774405"><ele>88.08</ele><time>2024-08-28T04:00:24Z</time></trkpt><trkpt lat="-39.4104763214" lon="-72.7096071281"><ele>87.85</ele><time>2024-08-28T04:00:32Z</time></trkpt><trkpt lat="-39.4105096813" lon="-72.7096217964"><ele>87.85</ele><time>2024-08-28T04:00:33Z</time></trkpt><trkpt lat="-39.4105507527" lon="-72.7096502110"><ele>87.84</ele><time>2024-08-28T04:00:34Z</time></trkpt><trkpt lat="-39.4105997868" lon="-72.7097005863"><ele>87.54</ele><time>2024-08-28T04:00:35Z</time></trkpt><trkpt lat="-39.4106586277" lon="-72.7097643726"><ele>87.65</ele><time>2024-08-28T04:00:36Z</time></trkpt><trkpt lat="-39.4111926388" lon="-72.7103661094"><ele>86.96</ele><time>2024-08-28T04:00:45Z</time></trkpt><trkpt lat="-39.4112257473" lon="-72.7104184125"><ele>87.00</ele><time>2024-08-28T04:00:46Z</time></trkpt><trkpt lat="-39.4112471212" lon="-72.7104743198"><ele>86.67</ele><time>2024-08-28T04:00:47Z</time></trkpt><trkpt lat="-39.4112515636" lon="-72.7105294727"><ele>86.76</ele><time>2024-08-28T04:00:48Z</time></trkpt><trkpt lat="-39.4112373982" lon="-72.7105818596"><ele>86.93</ele><time>2024-08-28T04:00:49Z</time></trkpt><trkpt lat="-39.4112082291" lon="-72.7106355038"><ele>86.86</ele><time>2024-08-28T04:00:50Z</time></trkpt><trkpt lat="-39.4111657329" lon="-72.7106929198"><ele>86.67</ele><time>2024-08-28T04:00:51Z</time></trkpt><trkpt lat="-39.4111203030" lon="-72.7107563708"><ele>86.53</ele><time>2024-08-28T04:00:52Z</time></trkpt><trkpt lat="-39.4110758789" lon="-72.7108251024"><ele>86.51</ele><time>2024-08-28T04:00:53Z</time></trkpt><trkpt lat="-39.4110333826" lon="-72.7108953428"><ele>86.36</ele><time>2024-08-28T04:00:54Z</time></trkpt><trkpt lat="-39.4103480782" lon="-72.7119360399"><ele>87.62</ele><time>2024-08-28T04:01:09Z</time></trkpt><trkpt lat="-39.4098811224" lon="-72.7126424666"><ele>87.41</ele><time>2024-08-28T04:01:21Z</time></trkpt><trkpt lat="-39.4098739978" lon="-72.7126890700"><ele>87.31</ele><time>2024-08-28T04:01:22Z</time></trkpt><trkpt lat="-39.4098783564" lon="-72.7127406187"><ele>86.97</ele><time>2024-08-28T04:01:23Z</time></trkpt><trkpt lat="-39.4099008199" lon="-72.7127890661"><ele>87.37</ele><time>2024-08-28T04:01:24Z</time></trkpt><trkpt lat="-39.4099373650" lon="-72.7128398605"><ele>87.63</ele><time>2024-08-28T04:01:25Z</time></trkpt><trkpt lat="-39.4099837169" lon="-72.7128918283"><ele>87.52</ele><time>2024-08-28T04:01:26Z</time></trkpt><trkpt lat="-39.4105812628" lon="-72.7135379054"><ele>86.36</ele><time>2024-08-28T04:01:37Z</time></trkpt><trkpt lat="-39.4106318057" lon="-72.7135669068"><ele>86.25</ele><time>2024-08-28T04:01:38Z</time></trkpt><trkpt lat="-39.4106836896" lon="-72.7135709301"><ele>86.37</ele><time>2024-08-28T04:01:39Z</time></trkpt><trkpt lat="-39.4107281137" lon="-72.7135445271"><ele>86.31</ele><time>2024-08-28T04:01:40Z</time></trkpt><trkpt lat="-39.4107698556" lon="-72.7134962473"><ele>86.36</ele><time>2024-08-28T04:01:41Z</time></trkpt><trkpt lat="-39.4108136091" lon="-72.7134369873"><ele>86.40</ele><time>2024-08-28T04:01:42Z</time></trkpt><trkpt lat="-39.4114542380" lon="-72.7124828752"><ele>86.19</ele><time>2024-08-28T04:01:55Z</time></trkpt><trkpt lat="-39.4120517839" lon="-72.7115930524"><ele>86.22</ele><time>2024-08-28T04:02:07Z</time></trkpt><trkpt lat="-39.4120884128" lon="-72.7115396596"><ele>86.13</ele><time>2024-08-28T04:02:08Z</time></trkpt><trkpt lat="-39.4121195935" lon="-72.7115011867"><ele>86.15</ele><time>2024-08-28T04:02:09Z</time></trkpt><trkpt lat="-39.4121468347" lon="-72.7114778012"><ele>86.22</ele><time>2024-08-28T04:02:10Z</time></trkpt><trkpt lat="-39.4121786859" lon="-72.7114646416"><ele>86.29</ele><time>2024-08-28T04:02:11Z</time></trkpt><trkpt lat="-39.4122185837" lon="-72.7114726044"><ele>86.53</ele><time>2024-08-28T04:02:12Z</time></trkpt><trkpt lat="-39.4122643489" lon="-72.7115057129"><ele>86.70</ele><time>2024-08-28T04:02:13Z</time></trkpt><trkpt lat="-39.4123108685" lon="-72.7115570940"><ele>86.68</ele><time>2024-08-28T04:02:14Z</time></trkpt><trkpt lat="-39.4123608246" lon="-72.7116234787"><ele>86.69</ele><time>2024-08-28T04:02:15Z</time></trkpt><trkpt lat="-39.4124210905" lon="-72.7116978262"><ele>86.65</ele><time>2024-08-28T04:02:16Z</time></trkpt><trkpt lat="-39.4129146170" lon="-72.7122615092"><ele>86.02</ele><time>2024-08-28T04:02:24Z</time></trkpt><trkpt lat="-39.4129382540" lon="-72.7123100404"><ele>85.92</ele><time>2024-08-28T04:02:25Z</time></trkpt><trkpt lat="-39.4129471388" lon="-72.7123549674"><ele>85.87</ele><time>2024-08-28T04:02:26Z</time></trkpt><trkpt lat="-39.4129394274" lon="-72.7123967092"><ele>85.93</ele><time>2024-08-28T04:02:27Z</time></trkpt><trkpt lat="-39.4129162934" lon="-72.7124375291"><ele>85.79</ele><time>2024-08-28T04:02:28Z</time></trkpt><trkpt lat="-39.4128839392" lon="-72.7124848031"><ele>85.82</ele><time>2024-08-28T04:02:29Z</time></trkpt><trkpt lat="-39.4128435384" lon="-72.7125393692"><ele>85.57</ele><time>2024-08-28T04:02:30Z</time></trkpt><trkpt lat="-39.4127950910" lon="-72.7125997189"><ele>85.61</ele><time>2024-08-28T04:02:31Z</time></trkpt><trkpt lat="-39.4123013970" lon="-72.7133134380"><ele>86.03</ele><time>2024-08-28T04:02:41Z</time></trkpt><trkpt lat="-39.4122569729" lon="-72.7133524138"><ele>86.08</ele><time>2024-08-28T04:02:42Z</time></trkpt><trkpt lat="-39.4122079387" lon="-72.7133734524"><ele>86.04</ele><time>2024-08-28T04:02:43Z</time></trkpt><trkpt lat="-39.4121605810" lon="-72.7133677527"><ele>86.17</ele><time>2024-08-28T04:02:44Z</time></trkpt><trkpt lat="-39.4121114630" lon="-72.7133493125"><ele>86.35</ele><time>2024-08-28T04:02:45Z</time></trkpt><trkpt lat="-39.4120604172" lon="-72.7133147791"><ele>86.37</ele><time>2024-08-28T04:02:46Z</time></trkpt><trkpt lat="-39.4120054320" lon="-72.7132662479"><ele>86.40</ele><time>2024-08-28T04:02:47Z</time></trkpt><trkpt lat="-39.4119508658" lon="-72.7132120170"><ele>86.47</ele><time>2024-08-28T04:02:48Z</time></trkpt><trkpt lat="-39.4113741070" lon="-72.7125155646"><ele>86.14</ele><time>2024-08-28T04:03:01Z</time></trkpt><trkpt lat="-39.4107714482" lon="-72.7118297573"><ele>87.08</ele><time>2024-08-28T04:03:11Z</time></trkpt><trkpt lat="-39.4105815981" lon="-72.7115946449"><ele>87.09</ele><time>2024-08-28T04:03:18Z</time></trkpt><trkpt lat="-39.4105701987" lon="-72.7115852572"><ele>87.08</ele><time>2024-08-28T04:03:19Z</time></trkpt><trkpt lat="-39.4105546083" lon="-72.7115732711"><ele>87.16</ele><time>2024-08-28T04:03:20Z</time></trkpt><trkpt lat="-39.4105325639" lon="-72.7115530707"><ele>87.24</ele><time>2024-08-28T04:03:21Z</time></trkpt><trkpt lat="-39.4105085917" lon="-72.7115329541"><ele>87.34</ele><time>2024-08-28T04:03:22Z</time></trkpt><trkpt lat="-39.4104816020" lon="-72.7115090657"><ele>87.47</ele><time>2024-08-28T04:03:23Z</time></trkpt><trkpt lat="-39.4100557175" lon="-72.7110749669"><ele>88.88</ele><time>2024-08-28T04:03:32Z</time></trkpt><trkpt lat="-39.4095459301" lon="-72.7104986273"><ele>88.53</ele><time>2024-08-28T04:03:44Z</time></trkpt><trkpt lat="-39.4089580234" lon="-72.7098842338"><ele>87.90</ele><time>2024-08-28T04:03:56Z</time></trkpt><trkpt lat="-39.4089249149" lon="-72.7098402288"><ele>87.86</ele><time>2024-08-28T04:03:57Z</time></trkpt><trkpt lat="-39.4089032058" lon="-72.7097984869"><ele>87.78</ele><time>2024-08-28T04:03:58Z</time></trkpt><trkpt lat="-39.4088912196" lon="-72.7097556554"><ele>87.86</ele><time>2024-08-28T04:03:59Z</time></trkpt><trkpt lat="-39.4088891242" lon="-72.7097092196"><ele>87.83</ele><time>2024-08-28T04:04:00Z</time></trkpt><trkpt lat="-39.4089013617" lon="-72.7096595149"><ele>87.90</ele><time>2024-08-28T04:04:01Z</time></trkpt><trkpt lat="-39.4089305308" lon="-72.7096064575"><ele>87.95</ele><time>2024-08-28T04:04:02Z</time></trkpt><trkpt lat="-39.4089710992" lon="-72.7095493767"><ele>88.02</ele><time>2024-08-28T04:04:03Z</time></trkpt><trkpt lat="-39.4094871730" lon="-72.7087820973"><ele>88.71</ele><time>2024-08-28T04:04:14Z</time></trkpt><trkpt lat="-39.4095893484" lon="-72.7085733041"><ele>88.96</ele><time>2024-08-28T04:04:20Z</time></trkpt><trkpt lat="-39.4095766079" lon="-72.7085237671"><ele>89.06</ele><time>2024-08-28T04:04:21Z</time></trkpt><trkpt lat="-39.4095443375" lon="-72.7084712125"><ele>89.05</ele><time>2024-08-28T04:04:22Z</time></trkpt><trkpt lat="-39.4094960578" lon="-72.7084157243"><ele>89.29</ele><time>2024-08-28T04:04:23Z</time></trkpt><trkpt lat="-39.4094369654" lon="-72.7083523571"><ele>89.51</ele><time>2024-08-28T04:04:24Z</time></trkpt><trkpt lat="-39.4086783193" lon="-72.7077377960"><ele>90.63</ele><time>2024-08-28T04:04:35Z</time></trkpt><trkpt lat="-39.4085932430" lon="-72.7077230439"><ele>90.56</ele><time>2024-08-28T04:04:36Z</time></trkpt><trkpt lat="-39.4081635866" lon="-72.7076562401"><ele>90.15</ele><time>2024-08-28T04:04:41Z</time></trkpt><trkpt lat="-39.4080888201" lon="-72.7076175995"><ele>90.19</ele><time>2024-08-28T04:04:42Z</time></trkpt><trkpt lat="-39.4080270454" lon="-72.7075621113"><ele>90.25</ele><time>2024-08-28T04:04:43Z</time></trkpt><trkpt lat="-39.4079799391" lon="-72.7074968163"><ele>90.44</ele><time>2024-08-28T04:04:44Z</time></trkpt><trkpt lat="-39.4079526979" lon="-72.7074151766"><ele>90.47</ele><time>2024-08-28T04:04:45Z</time></trkpt><trkpt lat="-39.4079407956" lon="-72.7073323634"><ele>90.41</ele><time>2024-08-28T04:04:46Z</time></trkpt><trkpt lat="-39.4079461601" lon="-72.7072614525"><ele>90.38</ele><time>2024-08-28T04:04:47Z</time></trkpt><trkpt lat="-39.4079569727" lon="-72.7072068863"><ele>90.33</ele><time>2024-08-28T04:04:48Z</time></trkpt><trkpt lat="-39.4079690427" lon="-72.7071796451"><ele>90.14</ele><time>2024-08-28T04:04:49Z</time></trkpt><trkpt lat="-39.4079836272" lon="-72.7071625460"><ele>90.33</ele><time>2024-08-28T04:04:50Z</time></trkpt><trkpt lat="-39.4080075156" lon="-72.7071432676"><ele>90.38</ele><time>2024-08-28T04:04:51Z</time></trkpt><trkpt lat="-39.4080384448" lon="-72.7071251627"><ele>90.25</ele><time>2024-08-28T04:04:52Z</time></trkpt><trkpt lat="-39.4080819469" lon="-72.7071142662"><ele>90.37</ele><time>2024-08-28T04:04:53Z</time></trkpt><trkpt lat="-39.4081437215" lon="-72.7071101591"><ele>90.39</ele><time>2024-08-28T04:04:54Z</time></trkpt><trkpt lat="-39.4082142971" lon="-72.7071057167"><ele>90.49</ele><time>2024-08-28T04:04:55Z</time></trkpt><trkpt lat="-39.4082899019" lon="-72.7070907969"><ele>90.32</ele><time>2024-08-28T04:04:56Z</time></trkpt><trkpt lat="-39.4083639141" lon="-72.7070607059"><ele>90.47</ele><time>2024-08-28T04:04:57Z</time></trkpt><trkpt lat="-39.4084348250" lon="-72.7070208918"><ele>90.41</ele><time>2024-08-28T04:04:58Z</time></trkpt><trkpt lat="-39.4086020440" lon="-72.7068552654"><ele>90.79</ele><time>2024-08-28T04:05:01Z</time></trkpt><trkpt lat="-39.4086265191" lon="-72.7067577001"><ele>90.75</ele><time>2024-08-28T04:05:02Z</time></trkpt><trkpt lat="-39.4086360745" lon="-72.7066649124"><ele>90.62</ele><time>2024-08-28T04:05:03Z</time></trkpt><trkpt lat="-39.4086433668" lon="-72.7065663412"><ele>90.60</ele><time>2024-08-28T04:05:04Z</time></trkpt><trkpt lat="-39.4086414389" lon="-72.7064622380"><ele>90.68</ele><time>2024-08-28T04:05:05Z</time></trkpt><trkpt lat="-39.4086192269" lon="-72.7063660137"><ele>90.72</ele><time>2024-08-28T04:05:06Z</time></trkpt><trkpt lat="-39.4085895550" lon="-72.7062721364"><ele>90.84</ele><time>2024-08-28T04:05:07Z</time></trkpt><trkpt lat="-39.4085585419" lon="-72.7061829530"><ele>90.79</ele><time>2024-08-28T04:05:08Z</time></trkpt><trkpt lat="-39.4084243476" lon="-72.7058418095"><ele>90.99</ele><time>2024-08-28T04:05:13Z</time></trkpt><trkpt lat="-39.4083859585" lon="-72.7057564817"><ele>90.44</ele><time>2024-08-28T04:05:20Z</time></trkpt><trkpt lat="-39.4083771575" lon="-72.7057356946"><ele>91.51</ele><time>2024-08-28T04:05:52Z</time></trkpt><trkpt lat="-39.4083907362" lon="-72.7057496086"><ele>91.51</ele><time>2024-08-28T04:06:25Z</time></trkpt></trkseg></trk></gpx>