<?xml version="1.0" encoding="UTF-8" standalone="no" ?><gpx xmlns="http://www.topografix.com/GPX/1/1" xmlns:gpxx="http://www.garmin.com/xmlschemas/GpxExtensions/v3" xmlns:gpxtrkx="http://www.garmin.com/xmlschemas/TrackStatsExtension/v1" xmlns:wptx1="http://www.garmin.com/xmlschemas/WaypointExtension/v1" xmlns:gpxtpx="http://www.garmin.com/xmlschemas/TrackPointExtension/v1" creator="GPSMAP 64sx" version="1.1" xmlns:xsi="http://www.w3.org/2001/XMLSchema-instance" xsi:schemaLocation="http://www.topografix.com/GPX/1/1 http://www.topografix.com/GPX/1/1/gpx.xsd http://www.garmin.com/xmlschemas/GpxExtensions/v3 http://www8.garmin.com/xmlschemas/GpxExtensionsv3.xsd http://www.garmin.com/xmlschemas/TrackStatsExtension/v1 http://www8.garmin.com/xmlschemas/TrackStatsExtension.xsd http://www.garmin.com/xmlschemas/WaypointExtension/v1 http://www8.garmin.com/xmlschemas/WaypointExtensionv1.xsd http://www.garmin.com/xmlschemas/TrackPointExtension/v1 http://www.garmin.com/xmlschemas/TrackPointExtensionv1.xsd"><metadata><link href="http://www.garmin.com"><text>Garmin International</text></link><time>2024-09-15T03:33:19Z</time></metadata><trk><name>GPS LAPAZ 240914</name><extensions><gpxx:TrackExtension><gpxx:DisplayColor>Cyan</gpxx:DisplayColor></gpxx:TrackExtension><gpxtrkx:TrackStatsExtension><gpxtrkx:Distance>3651.000</gpxtrkx:Distance><gpxtrkx:TotalElapsedTime>813</gpxtrkx:TotalElapsedTime><gpxtrkx:MovingTime>632</gpxtrkx:MovingTime><gpxtrkx:StoppedTime>181</gpxtrkx:StoppedTime><gpxtrkx:MovingSpeed>5.778</gpxtrkx:MovingSpeed><gpxtrkx:MaxSpeed>10.606</gpxtrkx:MaxSpeed><gpxtrkx:MaxElevation>93.604</gpxtrkx:MaxElevation><gpxtrkx:MinElevation>71.814</gpxtrkx:MinElevation><gpxtrkx:Ascent>10.000</gpxtrkx:Ascent><gpxtrkx:Descent>10.243</gpxtrkx:Descent><gpxtrkx:AvgAscentRate>0.048</gpxtrkx:AvgAscentRate><gpxtrkx:MaxAscentRate>0.060</gpxtrkx:MaxAscentRate><gpxtrkx:AvgDescentRate>0.029</gpxtrkx:AvgDescentRate><gpxtrkx:MaxDescentRate>-0.264</gpxtrkx:MaxDescentRate></gpxtrkx:TrackStatsExtension></extensions><trkseg><trkpt lat="-39.4062833581" lon="-72.7035105508"><ele>80.79</ele><time>2024-09-15T03:19:46Z</time></trkpt><trkpt lat="-39.4062852859" lon="-72.7035095450"><ele>80.79</ele><time>2024-09-15T03:19:47Z</time></trkpt><trkpt lat="-39.4063230883" lon="-72.7035358641"><ele>81.46</ele><time>2024-09-15T03:19:54Z</time></trkpt><trkpt lat="-39.4063394330" lon="-72.7035513707"><ele>81.19</ele><time>2024-09-15T03:19:55Z</time></trkpt><trkpt lat="-39.4063609745" lon="-72.7035726607"><ele>81.46</ele><time>2024-09-15T03:19:56Z</time></trkpt><trkpt lat="-39.4067150261" lon="-72.7040551230"><ele>82.67</ele><time>2024-09-15T03:20:04Z</time></trkpt><trkpt lat="-39.4070566725" lon="-72.7047180478"><ele>84.98</ele><time>2024-09-15T03:20:11Z</time></trkpt><trkpt lat="-39.4073678926" lon="-72.7058396302"><ele>81.81</ele><time>2024-09-15T03:20:21Z</time></trkpt><trkpt lat="-39.4076129794" lon="-72.7063119505"><ele>81.39</ele><time>2024-09-15T03:20:27Z</time></trkpt><trkpt lat="-39.4076361135" lon="-72.7063855436"><ele>81.31</ele><time>2024-09-15T03:20:28Z</time></trkpt><trkpt lat="-39.4076536316" lon="-72.7064715419"><ele>81.31</ele><time>2024-09-15T03:20:29Z</time></trkpt><trkpt lat="-39.4077052642" lon="-72.7067573648"><ele>81.66</ele><time>2024-09-15T03:20:32Z</time></trkpt><trkpt lat="-39.4077362772" lon="-72.7068466321"><ele>81.66</ele><time>2024-09-15T03:20:33Z</time></trkpt><trkpt lat="-39.4077747501" lon="-72.7069317922"><ele>81.77</ele><time>2024-09-15T03:20:34Z</time></trkpt><trkpt lat="-39.4078511093" lon="-72.7070995141"><ele>81.93</ele><time>2024-09-15T03:20:36Z</time></trkpt><trkpt lat="-39.4078745786" lon="-72.7071909606"><ele>81.85</ele><time>2024-09-15T03:20:37Z</time></trkpt><trkpt lat="-39.4078884088" lon="-72.7072839998"><ele>81.85</ele><time>2024-09-15T03:20:38Z</time></trkpt><trkpt lat="-39.4079145603" lon="-72.7074580919"><ele>81.69</ele><time>2024-09-15T03:20:40Z</time></trkpt><trkpt lat="-39.4079406280" lon="-72.7075383067"><ele>81.60</ele><time>2024-09-15T03:20:41Z</time></trkpt><trkpt lat="-39.4079786818" lon="-72.7076136600"><ele>81.62</ele><time>2024-09-15T03:20:42Z</time></trkpt><trkpt lat="-39.4080283865" lon="-72.7076796256"><ele>81.51</ele><time>2024-09-15T03:20:43Z</time></trkpt><trkpt lat="-39.4080902450" lon="-72.7077320963"><ele>81.48</ele><time>2024-09-15T03:20:44Z</time></trkpt><trkpt lat="-39.4081589766" lon="-72.7077740896"><ele>81.38</ele><time>2024-09-15T03:20:45Z</time></trkpt><trkpt lat="-39.4082360901" lon="-72.7078007441"><ele>81.39</ele><time>2024-09-15T03:20:46Z</time></trkpt><trkpt lat="-39.4083164725" lon="-72.7078146581"><ele>81.44</ele><time>2024-09-15T03:20:47Z</time></trkpt><trkpt lat="-39.4084005430" lon="-72.7078194357"><ele>81.32</ele><time>2024-09-15T03:20:48Z</time></trkpt><trkpt lat="-39.4084893912" lon="-72.7078224532"><ele>81.41</ele><time>2024-09-15T03:20:49Z</time></trkpt><trkpt lat="-39.4087493140" lon="-72.7078693919"><ele>81.65</ele><time>2024-09-15T03:20:52Z</time></trkpt><trkpt lat="-39.4088333007" lon="-72.7079051826"><ele>81.53</ele><time>2024-09-15T03:20:53Z</time></trkpt><trkpt lat="-39.4089146890" lon="-72.7079547197"><ele>81.76</ele><time>2024-09-15T03:20:54Z</time></trkpt><trkpt lat="-39.4089932274" lon="-72.7080166619"><ele>81.75</ele><time>2024-09-15T03:20:55Z</time></trkpt><trkpt lat="-39.4090688322" lon="-72.7080838010"><ele>81.73</ele><time>2024-09-15T03:20:56Z</time></trkpt><trkpt lat="-39.4095851574" lon="-72.7086226735"><ele>80.20</ele><time>2024-09-15T03:21:06Z</time></trkpt><trkpt lat="-39.4095851574" lon="-72.7087006252"><ele>80.30</ele><time>2024-09-15T03:21:08Z</time></trkpt><trkpt lat="-39.4095653761" lon="-72.7087448817"><ele>80.04</ele><time>2024-09-15T03:21:09Z</time></trkpt><trkpt lat="-39.4095362071" lon="-72.7087944187"><ele>79.96</ele><time>2024-09-15T03:21:10Z</time></trkpt><trkpt lat="-39.4090401661" lon="-72.7095605247"><ele>79.41</ele><time>2024-09-15T03:21:23Z</time></trkpt><trkpt lat="-39.4088119268" lon="-72.7097491175"><ele>79.33</ele><time>2024-09-15T03:21:30Z</time></trkpt><trkpt lat="-39.4087725319" lon="-72.7097271569"><ele>79.35</ele><time>2024-09-15T03:21:31Z</time></trkpt><trkpt lat="-39.4087317120" lon="-72.7096927073"><ele>79.34</ele><time>2024-09-15T03:21:32Z</time></trkpt><trkpt lat="-39.4081015605" lon="-72.7089785691"><ele>79.88</ele><time>2024-09-15T03:21:47Z</time></trkpt><trkpt lat="-39.4075999036" lon="-72.7084142994"><ele>79.22</ele><time>2024-09-15T03:22:01Z</time></trkpt><trkpt lat="-39.4072700758" lon="-72.7080457471"><ele>79.20</ele><time>2024-09-15T03:22:13Z</time></trkpt><trkpt lat="-39.4070973247" lon="-72.7082760818"><ele>79.01</ele><time>2024-09-15T03:22:21Z</time></trkpt><trkpt lat="-39.4070998393" lon="-72.7083293069"><ele>78.97</ele><time>2024-09-15T03:22:22Z</time></trkpt><trkpt lat="-39.4072122406" lon="-72.7094705030"><ele>79.40</ele><time>2024-09-15T03:22:43Z</time></trkpt><trkpt lat="-39.4072928745" lon="-72.7097960562"><ele>79.69</ele><time>2024-09-15T03:22:50Z</time></trkpt><trkpt lat="-39.4073626958" lon="-72.7099450026"><ele>79.65</ele><time>2024-09-15T03:22:53Z</time></trkpt><trkpt lat="-39.4077534601" lon="-72.7103925962"><ele>79.80</ele><time>2024-09-15T03:23:07Z</time></trkpt><trkpt lat="-39.4081650954" lon="-72.7108502481"><ele>80.36</ele><time>2024-09-15T03:23:22Z</time></trkpt><trkpt lat="-39.4085613079" lon="-72.7112931479"><ele>80.56</ele><time>2024-09-15T03:23:36Z</time></trkpt><trkpt lat="-39.4089675788" lon="-72.7117408253"><ele>80.35</ele><time>2024-09-15T03:23:49Z</time></trkpt><trkpt lat="-39.4091202971" lon="-72.7116510551"><ele>80.52</ele><time>2024-09-15T03:23:54Z</time></trkpt><trkpt lat="-39.4095966406" lon="-72.7108610608"><ele>81.16</ele><time>2024-09-15T03:24:08Z</time></trkpt><trkpt lat="-39.4099465013" lon="-72.7103379462"><ele>80.71</ele><time>2024-09-15T03:24:20Z</time></trkpt><trkpt lat="-39.4104021415" lon="-72.7096231375"><ele>79.70</ele><time>2024-09-15T03:24:34Z</time></trkpt><trkpt lat="-39.4104808476" lon="-72.7095805574"><ele>79.82</ele><time>2024-09-15T03:24:38Z</time></trkpt><trkpt lat="-39.4105101842" lon="-72.7095943876"><ele>79.86</ele><time>2024-09-15T03:24:39Z</time></trkpt><trkpt lat="-39.4105442986" lon="-72.7096218802"><ele>79.81</ele><time>2024-09-15T03:24:40Z</time></trkpt><trkpt lat="-39.4105826039" lon="-72.7096642926"><ele>79.86</ele><time>2024-09-15T03:24:41Z</time></trkpt><trkpt lat="-39.4106232561" lon="-72.7097157575"><ele>79.94</ele><time>2024-09-15T03:24:42Z</time></trkpt><trkpt lat="-39.4112032838" lon="-72.7103980444"><ele>79.49</ele><time>2024-09-15T03:24:56Z</time></trkpt><trkpt lat="-39.4112279266" lon="-72.7105193306"><ele>79.33</ele><time>2024-09-15T03:24:59Z</time></trkpt><trkpt lat="-39.4112120010" lon="-72.7105618268"><ele>79.26</ele><time>2024-09-15T03:25:00Z</time></trkpt><trkpt lat="-39.4111860171" lon="-72.7106078435"><ele>79.00</ele><time>2024-09-15T03:25:01Z</time></trkpt><trkpt lat="-39.4106057379" lon="-72.7114738617"><ele>79.90</ele><time>2024-09-15T03:25:16Z</time></trkpt><trkpt lat="-39.4099650253" lon="-72.7124468330"><ele>80.18</ele><time>2024-09-15T03:25:34Z</time></trkpt><trkpt lat="-39.4098854810" lon="-72.7128070872"><ele>80.04</ele><time>2024-09-15T03:25:44Z</time></trkpt><trkpt lat="-39.4099156559" lon="-72.7128484100"><ele>80.07</ele><time>2024-09-15T03:25:45Z</time></trkpt><trkpt lat="-39.4099527039" lon="-72.7128928341"><ele>80.02</ele><time>2024-09-15T03:25:46Z</time></trkpt><trkpt lat="-39.4105598889" lon="-72.7135334630"><ele>79.26</ele><time>2024-09-15T03:26:02Z</time></trkpt><trkpt lat="-39.4106349908" lon="-72.7135505620"><ele>79.32</ele><time>2024-09-15T03:26:04Z</time></trkpt><trkpt lat="-39.4106765650" lon="-72.7135363966"><ele>79.25</ele><time>2024-09-15T03:26:05Z</time></trkpt><trkpt lat="-39.4107157085" lon="-72.7135011926"><ele>79.28</ele><time>2024-09-15T03:26:06Z</time></trkpt><trkpt lat="-39.4107519183" lon="-72.7134521585"><ele>79.27</ele><time>2024-09-15T03:26:07Z</time></trkpt><trkpt lat="-39.4107893016" lon="-72.7133959159"><ele>79.17</ele><time>2024-09-15T03:26:08Z</time></trkpt><trkpt lat="-39.4112090673" lon="-72.7127609868"><ele>78.85</ele><time>2024-09-15T03:26:21Z</time></trkpt><trkpt lat="-39.4116062019" lon="-72.7121852338"><ele>78.91</ele><time>2024-09-15T03:26:36Z</time></trkpt><trkpt lat="-39.4119585771" lon="-72.7116715908"><ele>78.94</ele><time>2024-09-15T03:26:49Z</time></trkpt><trkpt lat="-39.4121376984" lon="-72.7114642225"><ele>79.01</ele><time>2024-09-15T03:26:57Z</time></trkpt><trkpt lat="-39.4121683761" lon="-72.7114718501"><ele>78.91</ele><time>2024-09-15T03:26:58Z</time></trkpt><trkpt lat="-39.4122017361" lon="-72.7114978340"><ele>78.97</ele><time>2024-09-15T03:26:59Z</time></trkpt><trkpt lat="-39.4122374430" lon="-72.7115373127"><ele>79.12</ele><time>2024-09-15T03:27:00Z</time></trkpt><trkpt lat="-39.4122770056" lon="-72.7115862630"><ele>79.07</ele><time>2024-09-15T03:27:01Z</time></trkpt><trkpt lat="-39.4128523394" lon="-72.7122506965"><ele>78.49</ele><time>2024-09-15T03:27:13Z</time></trkpt><trkpt lat="-39.4128740486" lon="-72.7122890018"><ele>78.45</ele><time>2024-09-15T03:27:14Z</time></trkpt><trkpt lat="-39.4128860347" lon="-72.7123285644"><ele>78.35</ele><time>2024-09-15T03:27:15Z</time></trkpt><trkpt lat="-39.4128888007" lon="-72.7123694681"><ele>78.30</ele><time>2024-09-15T03:27:16Z</time></trkpt><trkpt lat="-39.4128771499" lon="-72.7124133892"><ele>78.37</ele><time>2024-09-15T03:27:17Z</time></trkpt><trkpt lat="-39.4128545187" lon="-72.7124591544"><ele>78.24</ele><time>2024-09-15T03:27:18Z</time></trkpt><trkpt lat="-39.4128241763" lon="-72.7125085238"><ele>78.03</ele><time>2024-09-15T03:27:19Z</time></trkpt><trkpt lat="-39.4127883017" lon="-72.7125640959"><ele>78.00</ele><time>2024-09-15T03:27:20Z</time></trkpt><trkpt lat="-39.4122650195" lon="-72.7133380808"><ele>78.57</ele><time>2024-09-15T03:27:32Z</time></trkpt><trkpt lat="-39.4122205954" lon="-72.7133763861"><ele>78.70</ele><time>2024-09-15T03:27:33Z</time></trkpt><trkpt lat="-39.4121736567" lon="-72.7133954968"><ele>78.73</ele><time>2024-09-15T03:27:34Z</time></trkpt><trkpt lat="-39.4121252093" lon="-72.7133903001"><ele>78.86</ele><time>2024-09-15T03:27:35Z</time></trkpt><trkpt lat="-39.4120767619" lon="-72.7133612148"><ele>78.96</ele><time>2024-09-15T03:27:36Z</time></trkpt><trkpt lat="-39.4120263867" lon="-72.7133178804"><ele>79.02</ele><time>2024-09-15T03:27:37Z</time></trkpt><trkpt lat="-39.4119729940" lon="-72.7132638171"><ele>79.15</ele><time>2024-09-15T03:27:38Z</time></trkpt><trkpt lat="-39.4119160809" lon="-72.7132024616"><ele>79.28</ele><time>2024-09-15T03:27:39Z</time></trkpt><trkpt lat="-39.4113768730" lon="-72.7125499304"><ele>78.84</ele><time>2024-09-15T03:27:51Z</time></trkpt><trkpt lat="-39.4108830951" lon="-72.7119898517"><ele>79.72</ele><time>2024-09-15T03:28:00Z</time></trkpt><trkpt lat="-39.4105272833" lon="-72.7116047032"><ele>80.02</ele><time>2024-09-15T03:28:09Z</time></trkpt><trkpt lat="-39.4100361876" lon="-72.7110809181"><ele>81.95</ele><time>2024-09-15T03:28:19Z</time></trkpt><trkpt lat="-39.4096577447" lon="-72.7106570452"><ele>81.38</ele><time>2024-09-15T03:28:30Z</time></trkpt><trkpt lat="-39.4092099834" lon="-72.7101846412"><ele>81.30</ele><time>2024-09-15T03:28:39Z</time></trkpt><trkpt lat="-39.4089171197" lon="-72.7098545618"><ele>80.71</ele><time>2024-09-15T03:28:45Z</time></trkpt><trkpt lat="-39.4088939019" lon="-72.7098067850"><ele>80.63</ele><time>2024-09-15T03:28:46Z</time></trkpt><trkpt lat="-39.4088859390" lon="-72.7097579185"><ele>80.59</ele><time>2024-09-15T03:28:47Z</time></trkpt><trkpt lat="-39.4088938180" lon="-72.7097050287"><ele>80.58</ele><time>2024-09-15T03:28:48Z</time></trkpt><trkpt lat="-39.4089182932" lon="-72.7096480317"><ele>80.58</ele><time>2024-09-15T03:28:49Z</time></trkpt><trkpt lat="-39.4089546707" lon="-72.7095876820"><ele>80.55</ele><time>2024-09-15T03:28:50Z</time></trkpt><trkpt lat="-39.4089979213" lon="-72.7095238958"><ele>80.66</ele><time>2024-09-15T03:28:51Z</time></trkpt><trkpt lat="-39.4095733389" lon="-72.7086782455"><ele>81.34</ele><time>2024-09-15T03:29:05Z</time></trkpt><trkpt lat="-39.4095762726" lon="-72.7085068356"><ele>81.71</ele><time>2024-09-15T03:29:11Z</time></trkpt><trkpt lat="-39.4095454272" lon="-72.7084619924"><ele>81.74</ele><time>2024-09-15T03:29:12Z</time></trkpt><trkpt lat="-39.4095069543" lon="-72.7084175684"><ele>81.81</ele><time>2024-09-15T03:29:13Z</time></trkpt><trkpt lat="-39.4088815805" lon="-72.7078327630"><ele>83.59</ele><time>2024-09-15T03:29:24Z</time></trkpt><trkpt lat="-39.4088095799" lon="-72.7077928651"><ele>83.56</ele><time>2024-09-15T03:29:25Z</time></trkpt><trkpt lat="-39.4087332208" lon="-72.7077617683"><ele>83.60</ele><time>2024-09-15T03:29:26Z</time></trkpt><trkpt lat="-39.4085718691" lon="-72.7077218704"><ele>83.50</ele><time>2024-09-15T03:29:28Z</time></trkpt><trkpt lat="-39.4084903970" lon="-72.7077171765"><ele>83.26</ele><time>2024-09-15T03:29:29Z</time></trkpt><trkpt lat="-39.4081946835" lon="-72.7076890972"><ele>82.86</ele><time>2024-09-15T03:29:33Z</time></trkpt><trkpt lat="-39.4081277121" lon="-72.7076588385"><ele>82.85</ele><time>2024-09-15T03:29:34Z</time></trkpt><trkpt lat="-39.4080624171" lon="-72.7076144144"><ele>82.94</ele><time>2024-09-15T03:29:35Z</time></trkpt><trkpt lat="-39.4080057554" lon="-72.7075520530"><ele>83.04</ele><time>2024-09-15T03:29:36Z</time></trkpt><trkpt lat="-39.4079605769" lon="-72.7074795496"><ele>83.09</ele><time>2024-09-15T03:29:37Z</time></trkpt><trkpt lat="-39.4079324137" lon="-72.7074028552"><ele>83.14</ele><time>2024-09-15T03:29:38Z</time></trkpt><trkpt lat="-39.4079208467" lon="-72.7073325310"><ele>83.27</ele><time>2024-09-15T03:29:39Z</time></trkpt><trkpt lat="-39.4079256244" lon="-72.7072729357"><ele>83.19</ele><time>2024-09-15T03:29:40Z</time></trkpt><trkpt lat="-39.4079382811" lon="-72.7072284278"><ele>83.14</ele><time>2024-09-15T03:29:41Z</time></trkpt><trkpt lat="-39.4079522789" lon="-72.7072001807"><ele>83.20</ele><time>2024-09-15T03:29:42Z</time></trkpt><trkpt lat="-39.4079673663" lon="-72.7071792260"><ele>83.12</ele><time>2024-09-15T03:29:43Z</time></trkpt><trkpt lat="-39.4079902489" lon="-72.7071544155"><ele>83.02</ele><time>2024-09-15T03:29:44Z</time></trkpt><trkpt lat="-39.4080223516" lon="-72.7071322873"><ele>83.18</ele><time>2024-09-15T03:29:45Z</time></trkpt><trkpt lat="-39.4080642611" lon="-72.7071190439"><ele>82.99</ele><time>2024-09-15T03:29:46Z</time></trkpt><trkpt lat="-39.4081241917" lon="-72.7071161103"><ele>83.10</ele><time>2024-09-15T03:29:47Z</time></trkpt><trkpt lat="-39.4081946835" lon="-72.7071129251"><ele>83.07</ele><time>2024-09-15T03:29:48Z</time></trkpt><trkpt lat="-39.4083530176" lon="-72.7070829179"><ele>83.36</ele><time>2024-09-15T03:29:50Z</time></trkpt><trkpt lat="-39.4084249344" lon="-72.7070496418"><ele>83.47</ele><time>2024-09-15T03:29:51Z</time></trkpt><trkpt lat="-39.4084931631" lon="-72.7070060559"><ele>83.66</ele><time>2024-09-15T03:29:52Z</time></trkpt><trkpt lat="-39.4086047262" lon="-72.7068840154"><ele>83.73</ele><time>2024-09-15T03:29:54Z</time></trkpt><trkpt lat="-39.4086438697" lon="-72.7068051416"><ele>83.70</ele><time>2024-09-15T03:29:55Z</time></trkpt><trkpt lat="-39.4086636510" lon="-72.7067116834"><ele>83.61</ele><time>2024-09-15T03:29:56Z</time></trkpt><trkpt lat="-39.4086670037" lon="-72.7066178899"><ele>83.53</ele><time>2024-09-15T03:29:57Z</time></trkpt><trkpt lat="-39.4086645730" lon="-72.7065273654"><ele>83.64</ele><time>2024-09-15T03:29:58Z</time></trkpt><trkpt lat="-39.4086529221" lon="-72.7064360864"><ele>83.67</ele><time>2024-09-15T03:29:59Z</time></trkpt><trkpt lat="-39.4086369965" lon="-72.7063465677"><ele>83.88</ele><time>2024-09-15T03:30:00Z</time></trkpt><trkpt lat="-39.4086169638" lon="-72.7062672749"><ele>83.84</ele><time>2024-09-15T03:30:01Z</time></trkpt><trkpt lat="-39.4085916504" lon="-72.7061922569"><ele>83.72</ele><time>2024-09-15T03:30:02Z</time></trkpt><trkpt lat="-39.4085621461" lon="-72.7061199211"><ele>83.82</ele><time>2024-09-15T03:30:03Z</time></trkpt><trkpt lat="-39.4083902333" lon="-72.7057789452"><ele>83.69</ele><time>2024-09-15T03:30:12Z</time></trkpt><trkpt lat="-39.4083926640" lon="-72.7057827171"><ele>71.80</ele><time>2024-09-15T03:30:14Z</time></trkpt><trkpt lat="-39.4083926640" lon="-72.7057849802"><ele>77.75</ele><time>2024-09-15T03:30:15Z</time></trkpt><trkpt lat="-39.4083918259" lon="-72.7057872433"><ele>81.11</ele><time>2024-09-15T03:30:16Z</time></trkpt><trkpt lat="-39.4083937537" lon="-72.7057869080"><ele>83.72</ele><time>2024-09-15T03:30:19Z</time></trkpt><trkpt lat="-39.4083992019" lon="-72.7057921048"><ele>93.60</ele><time>2024-09-15T03:30:25Z</time></trkpt><trkpt lat="-39.4083990343" lon="-72.7057928592"><ele>90.01</ele><time>2024-09-15T03:30:26Z</time></trkpt><trkpt lat="-39.4084024709" lon="-72.7057921886"><ele>85.98</ele><time>2024-09-15T03:30:27Z</time></trkpt><trkpt lat="-39.4083939213" lon="-72.7057884168"><ele>83.56</ele><time>2024-09-15T03:30:38Z</time></trkpt><trkpt lat="-39.4083926640" lon="-72.7057679649"><ele>86.65</ele><time>2024-09-15T03:31:01Z</time></trkpt><trkpt lat="-39.4083971065" lon="-72.7057693899"><ele>83.27</ele><time>2024-09-15T03:31:21Z</time></trkpt><trkpt lat="-39.4083971065" lon="-72.7057694737"><ele>83.14</ele><time>2024-09-15T03:31:22Z</time></trkpt><trkpt lat="-39.4083919097" lon="-72.7057656180"><ele>86.47</ele><time>2024-09-15T03:32:15Z</time></trkpt><trkpt lat="-39.4083920773" lon="-72.7057620138"><ele>83.26</ele><time>2024-09-15T03:32:22Z</time></trkpt><trkpt lat="-39.4083929155" lon="-72.7057633549"><ele>78.58</ele><time>2024-09-15T03:32:23Z</time></trkpt><trkpt lat="-39.4083934184" lon="-72.7057646960"><ele>78.58</ele><time>2024-09-15T03:32:24Z</time></trkpt></trkseg></trk></gpx>