<?xml version="1.0" encoding="UTF-8" standalone="no" ?><gpx xmlns="http://www.topografix.com/GPX/1/1" xmlns:gpxx="http://www.garmin.com/xmlschemas/GpxExtensions/v3" xmlns:gpxtrkx="http://www.garmin.com/xmlschemas/TrackStatsExtension/v1" xmlns:wptx1="http://www.garmin.com/xmlschemas/WaypointExtension/v1" xmlns:gpxtpx="http://www.garmin.com/xmlschemas/TrackPointExtension/v1" creator="GPSMAP 64sx" version="1.1" xmlns:xsi="http://www.w3.org/2001/XMLSchema-instance" xsi:schemaLocation="http://www.topografix.com/GPX/1/1 http://www.topografix.com/GPX/1/1/gpx.xsd http://www.garmin.com/xmlschemas/GpxExtensions/v3 http://www8.garmin.com/xmlschemas/GpxExtensionsv3.xsd http://www.garmin.com/xmlschemas/TrackStatsExtension/v1 http://www8.garmin.com/xmlschemas/TrackStatsExtension.xsd http://www.garmin.com/xmlschemas/WaypointExtension/v1 http://www8.garmin.com/xmlschemas/WaypointExtensionv1.xsd http://www.garmin.com/xmlschemas/TrackPointExtension/v1 http://www.garmin.com/xmlschemas/TrackPointExtensionv1.xsd"><metadata><link href="http://www.garmin.com"><text>Garmin International</text></link><time>2024-09-12T00:27:57Z</time></metadata><trk><name>GPS HUIS 240911</name><extensions><gpxx:TrackExtension><gpxx:DisplayColor>Cyan</gpxx:DisplayColor></gpxx:TrackExtension><gpxtrkx:TrackStatsExtension><gpxtrkx:Distance>12925.000</gpxtrkx:Distance><gpxtrkx:TotalElapsedTime>1839</gpxtrkx:TotalElapsedTime><gpxtrkx:MovingTime>1735</gpxtrkx:MovingTime><gpxtrkx:StoppedTime>103</gpxtrkx:StoppedTime><gpxtrkx:MovingSpeed>7.450</gpxtrkx:MovingSpeed><gpxtrkx:MaxSpeed>16.179</gpxtrkx:MaxSpeed><gpxtrkx:MaxElevation>288.359</gpxtrkx:MaxElevation><gpxtrkx:MinElevation>235.803</gpxtrkx:MinElevation><gpxtrkx:Ascent>140.000</gpxtrkx:Ascent><gpxtrkx:Descent>150.987</gpxtrkx:Descent><gpxtrkx:AvgAscentRate>0.113</gpxtrkx:AvgAscentRate><gpxtrkx:MaxAscentRate>0.805</gpxtrkx:MaxAscentRate><gpxtrkx:AvgDescentRate>0.116</gpxtrkx:AvgDescentRate><gpxtrkx:MaxDescentRate>-1.244</gpxtrkx:MaxDescentRate></gpxtrkx:TrackStatsExtension></extensions><trkseg><trkpt lat="-39.2732018698" lon="-72.4093346670"><ele>271.28</ele><time>2024-09-11T23:57:18Z</time></trkpt><trkpt lat="-39.2732003611" lon="-72.4093277100"><ele>267.54</ele><time>2024-09-11T23:57:24Z</time></trkpt><trkpt lat="-39.2732060608" lon="-72.4093326554"><ele>269.72</ele><time>2024-09-11T23:57:25Z</time></trkpt><trkpt lat="-39.2732127663" lon="-72.4093609024"><ele>269.65</ele><time>2024-09-11T23:57:50Z</time></trkpt><trkpt lat="-39.2732348107" lon="-72.4093901552"><ele>269.46</ele><time>2024-09-11T23:58:18Z</time></trkpt><trkpt lat="-39.2732976750" lon="-72.4094015546"><ele>269.59</ele><time>2024-09-11T23:58:34Z</time></trkpt><trkpt lat="-39.2733548395" lon="-72.4094331544"><ele>269.58</ele><time>2024-09-11T23:58:37Z</time></trkpt><trkpt lat="-39.2733823322" lon="-72.4094433803"><ele>269.55</ele><time>2024-09-11T23:58:38Z</time></trkpt><trkpt lat="-39.2734186258" lon="-72.4094538577"><ele>269.35</ele><time>2024-09-11T23:58:39Z</time></trkpt><trkpt lat="-39.2739601806" lon="-72.4096111860"><ele>269.66</ele><time>2024-09-11T23:58:47Z</time></trkpt><trkpt lat="-39.2751850281" lon="-72.4100071471"><ele>270.76</ele><time>2024-09-11T23:58:59Z</time></trkpt><trkpt lat="-39.2766501009" lon="-72.4102434330"><ele>271.97</ele><time>2024-09-11T23:59:11Z</time></trkpt><trkpt lat="-39.2779316101" lon="-72.4097753875"><ele>270.90</ele><time>2024-09-11T23:59:21Z</time></trkpt><trkpt lat="-39.2786962911" lon="-72.4098233320"><ele>267.34</ele><time>2024-09-11T23:59:27Z</time></trkpt><trkpt lat="-39.2791850399" lon="-72.4101090711"><ele>263.24</ele><time>2024-09-11T23:59:31Z</time></trkpt><trkpt lat="-39.2792989500" lon="-72.4102160241"><ele>262.17</ele><time>2024-09-11T23:59:32Z</time></trkpt><trkpt lat="-39.2794069927" lon="-72.4103323650"><ele>260.87</ele><time>2024-09-11T23:59:33Z</time></trkpt><trkpt lat="-39.2797148600" lon="-72.4107351154"><ele>256.94</ele><time>2024-09-11T23:59:36Z</time></trkpt><trkpt lat="-39.2800166924" lon="-72.4111377820"><ele>252.51</ele><time>2024-09-11T23:59:39Z</time></trkpt><trkpt lat="-39.2803238053" lon="-72.4115105253"><ele>248.73</ele><time>2024-09-11T23:59:42Z</time></trkpt><trkpt lat="-39.2804355361" lon="-72.4116156343"><ele>247.28</ele><time>2024-09-11T23:59:43Z</time></trkpt><trkpt lat="-39.2805520445" lon="-72.4117066618"><ele>246.08</ele><time>2024-09-11T23:59:44Z</time></trkpt><trkpt lat="-39.2806638591" lon="-72.4117967673"><ele>245.09</ele><time>2024-09-11T23:59:45Z</time></trkpt><trkpt lat="-39.2807880789" lon="-72.4118628167"><ele>243.98</ele><time>2024-09-11T23:59:46Z</time></trkpt><trkpt lat="-39.2809112091" lon="-72.4119213223"><ele>243.17</ele><time>2024-09-11T23:59:47Z</time></trkpt><trkpt lat="-39.2814277019" lon="-72.4121004436"><ele>239.75</ele><time>2024-09-11T23:59:51Z</time></trkpt><trkpt lat="-39.2816494871" lon="-72.4121854361"><ele>239.10</ele><time>2024-09-11T23:59:53Z</time></trkpt><trkpt lat="-39.2826476041" lon="-72.4125165213"><ele>237.61</ele><time>2024-09-12T00:00:04Z</time></trkpt><trkpt lat="-39.2841975857" lon="-72.4129518773"><ele>238.21</ele><time>2024-09-12T00:00:23Z</time></trkpt><trkpt lat="-39.2854929250" lon="-72.4134118762"><ele>241.44</ele><time>2024-09-12T00:00:39Z</time></trkpt><trkpt lat="-39.2868947145" lon="-72.4138907343"><ele>242.19</ele><time>2024-09-12T00:00:56Z</time></trkpt><trkpt lat="-39.2882775608" lon="-72.4143689219"><ele>240.74</ele><time>2024-09-12T00:01:13Z</time></trkpt><trkpt lat="-39.2893621791" lon="-72.4143833388"><ele>238.15</ele><time>2024-09-12T00:01:26Z</time></trkpt><trkpt lat="-39.2903299537" lon="-72.4138489924"><ele>236.01</ele><time>2024-09-12T00:01:39Z</time></trkpt><trkpt lat="-39.2909927946" lon="-72.4129872490"><ele>236.82</ele><time>2024-09-12T00:01:51Z</time></trkpt><trkpt lat="-39.2914471775" lon="-72.4119421095"><ele>240.13</ele><time>2024-09-12T00:02:02Z</time></trkpt><trkpt lat="-39.2918010615" lon="-72.4109537154"><ele>243.17</ele><time>2024-09-12T00:02:12Z</time></trkpt><trkpt lat="-39.2921663448" lon="-72.4099910539"><ele>246.28</ele><time>2024-09-12T00:02:22Z</time></trkpt><trkpt lat="-39.2923512496" lon="-72.4094898999"><ele>247.17</ele><time>2024-09-12T00:02:31Z</time></trkpt><trkpt lat="-39.2923463043" lon="-72.4093435518"><ele>247.35</ele><time>2024-09-12T00:02:35Z</time></trkpt><trkpt lat="-39.2923321389" lon="-72.4093254469"><ele>247.27</ele><time>2024-09-12T00:02:36Z</time></trkpt><trkpt lat="-39.2922862060" lon="-72.4092779215"><ele>247.26</ele><time>2024-09-12T00:02:38Z</time></trkpt><trkpt lat="-39.2915615067" lon="-72.4088811222"><ele>244.23</ele><time>2024-09-12T00:02:48Z</time></trkpt><trkpt lat="-39.2910704948" lon="-72.4086033460"><ele>243.40</ele><time>2024-09-12T00:02:55Z</time></trkpt><trkpt lat="-39.2910267413" lon="-72.4082025234"><ele>243.49</ele><time>2024-09-12T00:03:02Z</time></trkpt><trkpt lat="-39.2912641168" lon="-72.4076692667"><ele>244.06</ele><time>2024-09-12T00:03:11Z</time></trkpt><trkpt lat="-39.2914459202" lon="-72.4077053927"><ele>244.58</ele><time>2024-09-12T00:03:15Z</time></trkpt><trkpt lat="-39.2923715338" lon="-72.4084048625"><ele>247.31</ele><time>2024-09-12T00:03:30Z</time></trkpt><trkpt lat="-39.2926010303" lon="-72.4085944612"><ele>248.56</ele><time>2024-09-12T00:03:38Z</time></trkpt><trkpt lat="-39.2924945801" lon="-72.4090103712"><ele>247.97</ele><time>2024-09-12T00:03:47Z</time></trkpt><trkpt lat="-39.2924279440" lon="-72.4092473276"><ele>247.04</ele><time>2024-09-12T00:03:50Z</time></trkpt><trkpt lat="-39.2924264353" lon="-72.4093039893"><ele>246.95</ele><time>2024-09-12T00:03:51Z</time></trkpt><trkpt lat="-39.2924335599" lon="-72.4093431327"><ele>246.67</ele><time>2024-09-12T00:03:52Z</time></trkpt><trkpt lat="-39.2924446240" lon="-72.4093700387"><ele>246.47</ele><time>2024-09-12T00:03:53Z</time></trkpt><trkpt lat="-39.2924563587" lon="-72.4093949329"><ele>246.46</ele><time>2024-09-12T00:03:54Z</time></trkpt><trkpt lat="-39.2924743798" lon="-72.4094210844"><ele>246.41</ele><time>2024-09-12T00:03:55Z</time></trkpt><trkpt lat="-39.2925056443" lon="-72.4094484095"><ele>246.37</ele><time>2024-09-12T00:03:56Z</time></trkpt><trkpt lat="-39.2925520800" lon="-72.4094777461"><ele>246.48</ele><time>2024-09-12T00:03:57Z</time></trkpt><trkpt lat="-39.2931164335" lon="-72.4098216556"><ele>249.06</ele><time>2024-09-12T00:04:05Z</time></trkpt><trkpt lat="-39.2936226167" lon="-72.4101181235"><ele>252.72</ele><time>2024-09-12T00:04:12Z</time></trkpt><trkpt lat="-39.2938726489" lon="-72.4102568440"><ele>255.87</ele><time>2024-09-12T00:04:16Z</time></trkpt><trkpt lat="-39.2939251196" lon="-72.4102822412"><ele>256.47</ele><time>2024-09-12T00:04:17Z</time></trkpt><trkpt lat="-39.2939790990" lon="-72.4102938082"><ele>257.06</ele><time>2024-09-12T00:04:18Z</time></trkpt><trkpt lat="-39.2940350063" lon="-72.4102867674"><ele>257.55</ele><time>2024-09-12T00:04:19Z</time></trkpt><trkpt lat="-39.2940998822" lon="-72.4102545809"><ele>257.98</ele><time>2024-09-12T00:04:20Z</time></trkpt><trkpt lat="-39.2941653449" lon="-72.4102063011"><ele>258.52</ele><time>2024-09-12T00:04:21Z</time></trkpt><trkpt lat="-39.2942304723" lon="-72.4101484660"><ele>259.05</ele><time>2024-09-12T00:04:22Z</time></trkpt><trkpt lat="-39.2942873854" lon="-72.4100939836"><ele>259.49</ele><time>2024-09-12T00:04:23Z</time></trkpt><trkpt lat="-39.2944352422" lon="-72.4098660797"><ele>260.55</ele><time>2024-09-12T00:04:28Z</time></trkpt><trkpt lat="-39.2944225855" lon="-72.4098102562"><ele>260.66</ele><time>2024-09-12T00:04:29Z</time></trkpt><trkpt lat="-39.2943986133" lon="-72.4097464699"><ele>260.63</ele><time>2024-09-12T00:04:30Z</time></trkpt><trkpt lat="-39.2943605594" lon="-72.4096687697"><ele>260.52</ele><time>2024-09-12T00:04:31Z</time></trkpt><trkpt lat="-39.2943173088" lon="-72.4095862918"><ele>260.22</ele><time>2024-09-12T00:04:32Z</time></trkpt><trkpt lat="-39.2940500099" lon="-72.4091392849"><ele>257.06</ele><time>2024-09-12T00:04:37Z</time></trkpt><trkpt lat="-39.2938762531" lon="-72.4087990634"><ele>253.72</ele><time>2024-09-12T00:04:42Z</time></trkpt><trkpt lat="-39.2938247882" lon="-72.4087130651"><ele>253.15</ele><time>2024-09-12T00:04:44Z</time></trkpt><trkpt lat="-39.2937914282" lon="-72.4086745922"><ele>252.82</ele><time>2024-09-12T00:04:45Z</time></trkpt><trkpt lat="-39.2937472556" lon="-72.4086382147"><ele>253.12</ele><time>2024-09-12T00:04:46Z</time></trkpt><trkpt lat="-39.2931446806" lon="-72.4082518928"><ele>252.11</ele><time>2024-09-12T00:04:55Z</time></trkpt><trkpt lat="-39.2928630486" lon="-72.4080634676"><ele>249.72</ele><time>2024-09-12T00:05:03Z</time></trkpt><trkpt lat="-39.2928785551" lon="-72.4079044629"><ele>249.87</ele><time>2024-09-12T00:05:07Z</time></trkpt><trkpt lat="-39.2928990908" lon="-72.4078458734"><ele>250.10</ele><time>2024-09-12T00:05:08Z</time></trkpt><trkpt lat="-39.2931954749" lon="-72.4070407078"><ele>253.29</ele><time>2024-09-12T00:05:17Z</time></trkpt><trkpt lat="-39.2934390530" lon="-72.4064306729"><ele>256.31</ele><time>2024-09-12T00:05:24Z</time></trkpt><trkpt lat="-39.2935815454" lon="-72.4063387234"><ele>257.88</ele><time>2024-09-12T00:05:31Z</time></trkpt><trkpt lat="-39.2938350141" lon="-72.4064844009"><ele>260.99</ele><time>2024-09-12T00:05:37Z</time></trkpt><trkpt lat="-39.2938915920" lon="-72.4065246340"><ele>261.19</ele><time>2024-09-12T00:05:38Z</time></trkpt><trkpt lat="-39.2944655847" lon="-72.4069296475"><ele>259.94</ele><time>2024-09-12T00:05:50Z</time></trkpt><trkpt lat="-39.2944653332" lon="-72.4069799390"><ele>260.02</ele><time>2024-09-12T00:05:51Z</time></trkpt><trkpt lat="-39.2944557779" lon="-72.4070324097"><ele>259.87</ele><time>2024-09-12T00:05:52Z</time></trkpt><trkpt lat="-39.2944372538" lon="-72.4070965312"><ele>259.65</ele><time>2024-09-12T00:05:53Z</time></trkpt><trkpt lat="-39.2944076657" lon="-72.4071833678"><ele>259.45</ele><time>2024-09-12T00:05:54Z</time></trkpt><trkpt lat="-39.2941260338" lon="-72.4079379067"><ele>256.20</ele><time>2024-09-12T00:06:02Z</time></trkpt><trkpt lat="-39.2939283885" lon="-72.4084422458"><ele>253.42</ele><time>2024-09-12T00:06:08Z</time></trkpt><trkpt lat="-39.2938768398" lon="-72.4086137395"><ele>252.36</ele><time>2024-09-12T00:06:11Z</time></trkpt><trkpt lat="-39.2938842997" lon="-72.4086579960"><ele>252.42</ele><time>2024-09-12T00:06:12Z</time></trkpt><trkpt lat="-39.2939045839" lon="-72.4086901825"><ele>252.30</ele><time>2024-09-12T00:06:13Z</time></trkpt><trkpt lat="-39.2939371057" lon="-72.4086988159"><ele>252.58</ele><time>2024-09-12T00:06:14Z</time></trkpt><trkpt lat="-39.2939741537" lon="-72.4086902663"><ele>252.85</ele><time>2024-09-12T00:06:15Z</time></trkpt><trkpt lat="-39.2940182425" lon="-72.4086628575"><ele>253.27</ele><time>2024-09-12T00:06:16Z</time></trkpt><trkpt lat="-39.2940718029" lon="-72.4086212832"><ele>253.88</ele><time>2024-09-12T00:06:17Z</time></trkpt><trkpt lat="-39.2941300571" lon="-72.4085750151"><ele>254.73</ele><time>2024-09-12T00:06:18Z</time></trkpt><trkpt lat="-39.2943968531" lon="-72.4083475303"><ele>258.44</ele><time>2024-09-12T00:06:22Z</time></trkpt><trkpt lat="-39.2947364040" lon="-72.4080509786"><ele>261.57</ele><time>2024-09-12T00:06:27Z</time></trkpt><trkpt lat="-39.2952537350" lon="-72.4075945839"><ele>264.84</ele><time>2024-09-12T00:06:35Z</time></trkpt><trkpt lat="-39.2953653820" lon="-72.4074323103"><ele>265.54</ele><time>2024-09-12T00:06:39Z</time></trkpt><trkpt lat="-39.2953532282" lon="-72.4073874671"><ele>265.60</ele><time>2024-09-12T00:06:40Z</time></trkpt><trkpt lat="-39.2953243107" lon="-72.4073476531"><ele>265.37</ele><time>2024-09-12T00:06:41Z</time></trkpt><trkpt lat="-39.2952721752" lon="-72.4073144607"><ele>265.24</ele><time>2024-09-12T00:06:42Z</time></trkpt><trkpt lat="-39.2952122446" lon="-72.4072803464"><ele>264.85</ele><time>2024-09-12T00:06:43Z</time></trkpt><trkpt lat="-39.2948496435" lon="-72.4070731457"><ele>262.85</ele><time>2024-09-12T00:06:48Z</time></trkpt><trkpt lat="-39.2945307121" lon="-72.4068228621"><ele>259.62</ele><time>2024-09-12T00:06:55Z</time></trkpt><trkpt lat="-39.2945294548" lon="-72.4067746662"><ele>259.52</ele><time>2024-09-12T00:06:56Z</time></trkpt><trkpt lat="-39.2945437878" lon="-72.4067175016"><ele>259.78</ele><time>2024-09-12T00:06:57Z</time></trkpt><trkpt lat="-39.2948120087" lon="-72.4059986696"><ele>263.09</ele><time>2024-09-12T00:07:05Z</time></trkpt><trkpt lat="-39.2950058822" lon="-72.4054116011"><ele>264.23</ele><time>2024-09-12T00:07:12Z</time></trkpt><trkpt lat="-39.2950166110" lon="-72.4053333141"><ele>264.43</ele><time>2024-09-12T00:07:13Z</time></trkpt><trkpt lat="-39.2950213049" lon="-72.4052492436"><ele>264.33</ele><time>2024-09-12T00:07:14Z</time></trkpt><trkpt lat="-39.2950203829" lon="-72.4051633291"><ele>264.44</ele><time>2024-09-12T00:07:15Z</time></trkpt><trkpt lat="-39.2950127553" lon="-72.4050759058"><ele>264.53</ele><time>2024-09-12T00:07:16Z</time></trkpt><trkpt lat="-39.2950009368" lon="-72.4049863871"><ele>264.74</ele><time>2024-09-12T00:07:17Z</time></trkpt><trkpt lat="-39.2949650623" lon="-72.4046916794"><ele>264.58</ele><time>2024-09-12T00:07:24Z</time></trkpt><trkpt lat="-39.2949731927" lon="-72.4046771787"><ele>264.66</ele><time>2024-09-12T00:07:25Z</time></trkpt><trkpt lat="-39.2949858494" lon="-72.4046583194"><ele>264.88</ele><time>2024-09-12T00:07:26Z</time></trkpt><trkpt lat="-39.2950055469" lon="-72.4046402983"><ele>264.89</ele><time>2024-09-12T00:07:27Z</time></trkpt><trkpt lat="-39.2950318661" lon="-72.4046217743"><ele>265.11</ele><time>2024-09-12T00:07:28Z</time></trkpt><trkpt lat="-39.2950679921" lon="-72.4046086147"><ele>265.19</ele><time>2024-09-12T00:07:29Z</time></trkpt><trkpt lat="-39.2951115780" lon="-72.4045962933"><ele>265.41</ele><time>2024-09-12T00:07:30Z</time></trkpt><trkpt lat="-39.2951684073" lon="-72.4045793619"><ele>265.53</ele><time>2024-09-12T00:07:31Z</time></trkpt><trkpt lat="-39.2954699043" lon="-72.4044972192"><ele>267.14</ele><time>2024-09-12T00:07:35Z</time></trkpt><trkpt lat="-39.2959798593" lon="-72.4044040963"><ele>267.29</ele><time>2024-09-12T00:07:45Z</time></trkpt><trkpt lat="-39.2960043345" lon="-72.4044349417"><ele>267.49</ele><time>2024-09-12T00:07:46Z</time></trkpt><trkpt lat="-39.2960266303" lon="-72.4044775218"><ele>267.56</ele><time>2024-09-12T00:07:47Z</time></trkpt><trkpt lat="-39.2960451543" lon="-72.4045352731"><ele>267.54</ele><time>2024-09-12T00:07:48Z</time></trkpt><trkpt lat="-39.2960575595" lon="-72.4046109617"><ele>267.62</ele><time>2024-09-12T00:07:49Z</time></trkpt><trkpt lat="-39.2960728146" lon="-72.4046988878"><ele>267.76</ele><time>2024-09-12T00:07:50Z</time></trkpt><trkpt lat="-39.2962295562" lon="-72.4056753796"><ele>267.03</ele><time>2024-09-12T00:08:01Z</time></trkpt><trkpt lat="-39.2962120380" lon="-72.4057183787"><ele>267.01</ele><time>2024-09-12T00:08:02Z</time></trkpt><trkpt lat="-39.2961759120" lon="-72.4057458714"><ele>267.03</ele><time>2024-09-12T00:08:03Z</time></trkpt><trkpt lat="-39.2961253691" lon="-72.4057662394"><ele>267.12</ele><time>2024-09-12T00:08:04Z</time></trkpt><trkpt lat="-39.2960614152" lon="-72.4057850149"><ele>267.22</ele><time>2024-09-12T00:08:05Z</time></trkpt><trkpt lat="-39.2959817871" lon="-72.4058065563"><ele>267.29</ele><time>2024-09-12T00:08:06Z</time></trkpt><trkpt lat="-39.2952052876" lon="-72.4060435127"><ele>264.61</ele><time>2024-09-12T00:08:18Z</time></trkpt><trkpt lat="-39.2951668985" lon="-72.4061199557"><ele>264.55</ele><time>2024-09-12T00:08:20Z</time></trkpt><trkpt lat="-39.2951640487" lon="-72.4061839096"><ele>264.71</ele><time>2024-09-12T00:08:21Z</time></trkpt><trkpt lat="-39.2951745261" lon="-72.4062595144"><ele>264.82</ele><time>2024-09-12T00:08:22Z</time></trkpt><trkpt lat="-39.2953299265" lon="-72.4071794283"><ele>265.87</ele><time>2024-09-12T00:08:32Z</time></trkpt><trkpt lat="-39.2953779548" lon="-72.4073287100"><ele>265.32</ele><time>2024-09-12T00:08:35Z</time></trkpt><trkpt lat="-39.2954126559" lon="-72.4073675182"><ele>265.22</ele><time>2024-09-12T00:08:36Z</time></trkpt><trkpt lat="-39.2954591755" lon="-72.4073861260"><ele>265.45</ele><time>2024-09-12T00:08:37Z</time></trkpt><trkpt lat="-39.2955105565" lon="-72.4073858745"><ele>265.56</ele><time>2024-09-12T00:08:38Z</time></trkpt><trkpt lat="-39.2955679726" lon="-72.4073752295"><ele>265.76</ele><time>2024-09-12T00:08:39Z</time></trkpt><trkpt lat="-39.2956308369" lon="-72.4073551968"><ele>266.05</ele><time>2024-09-12T00:08:40Z</time></trkpt><trkpt lat="-39.2957009934" lon="-72.4073354993"><ele>266.33</ele><time>2024-09-12T00:08:41Z</time></trkpt><trkpt lat="-39.2966600507" lon="-72.4070252012"><ele>265.47</ele><time>2024-09-12T00:08:54Z</time></trkpt><trkpt lat="-39.2968258448" lon="-72.4068965390"><ele>264.57</ele><time>2024-09-12T00:09:01Z</time></trkpt><trkpt lat="-39.2969850171" lon="-72.4066478480"><ele>265.75</ele><time>2024-09-12T00:09:09Z</time></trkpt><trkpt lat="-39.2970033735" lon="-72.4063036870"><ele>266.88</ele><time>2024-09-12T00:09:15Z</time></trkpt><trkpt lat="-39.2969326302" lon="-72.4060606956"><ele>266.72</ele><time>2024-09-12T00:09:19Z</time></trkpt><trkpt lat="-39.2969131004" lon="-72.4058946501"><ele>266.55</ele><time>2024-09-12T00:09:22Z</time></trkpt><trkpt lat="-39.2970879469" lon="-72.4056602083"><ele>266.50</ele><time>2024-09-12T00:09:29Z</time></trkpt><trkpt lat="-39.2971863504" lon="-72.4056097493"><ele>266.25</ele><time>2024-09-12T00:09:32Z</time></trkpt><trkpt lat="-39.2972108256" lon="-72.4054276943"><ele>266.47</ele><time>2024-09-12T00:09:36Z</time></trkpt><trkpt lat="-39.2972090654" lon="-72.4048869777"><ele>267.48</ele><time>2024-09-12T00:09:48Z</time></trkpt><trkpt lat="-39.2972449400" lon="-72.4045816250"><ele>268.32</ele><time>2024-09-12T00:09:57Z</time></trkpt><trkpt lat="-39.2971170321" lon="-72.4039019365"><ele>269.19</ele><time>2024-09-12T00:10:05Z</time></trkpt><trkpt lat="-39.2970979214" lon="-72.4038219731"><ele>269.06</ele><time>2024-09-12T00:10:12Z</time></trkpt><trkpt lat="-39.2971160263" lon="-72.4037933908"><ele>269.07</ele><time>2024-09-12T00:10:13Z</time></trkpt><trkpt lat="-39.2971257493" lon="-72.4037682451"><ele>269.20</ele><time>2024-09-12T00:10:14Z</time></trkpt><trkpt lat="-39.2971498054" lon="-72.4037440214"><ele>269.37</ele><time>2024-09-12T00:10:15Z</time></trkpt><trkpt lat="-39.2971925531" lon="-72.4037254974"><ele>269.33</ele><time>2024-09-12T00:10:16Z</time></trkpt><trkpt lat="-39.2972487956" lon="-72.4037120864"><ele>269.39</ele><time>2024-09-12T00:10:17Z</time></trkpt><trkpt lat="-39.2973199580" lon="-72.4036973342"><ele>269.52</ele><time>2024-09-12T00:10:18Z</time></trkpt><trkpt lat="-39.2978618480" lon="-72.4035668280"><ele>270.54</ele><time>2024-09-12T00:10:26Z</time></trkpt><trkpt lat="-39.2979150731" lon="-72.4035808258"><ele>270.31</ele><time>2024-09-12T00:10:27Z</time></trkpt><trkpt lat="-39.2979648616" lon="-72.4036150239"><ele>270.31</ele><time>2024-09-12T00:10:28Z</time></trkpt><trkpt lat="-39.2980118841" lon="-72.4036732782"><ele>270.28</ele><time>2024-09-12T00:10:29Z</time></trkpt><trkpt lat="-39.2980550509" lon="-72.4037377350"><ele>270.09</ele><time>2024-09-12T00:10:30Z</time></trkpt><trkpt lat="-39.2981024925" lon="-72.4038110767"><ele>269.94</ele><time>2024-09-12T00:10:31Z</time></trkpt><trkpt lat="-39.2986329831" lon="-72.4046786036"><ele>267.81</ele><time>2024-09-12T00:10:42Z</time></trkpt><trkpt lat="-39.2986743897" lon="-72.4047060125"><ele>267.52</ele><time>2024-09-12T00:10:43Z</time></trkpt><trkpt lat="-39.2987293750" lon="-72.4047128856"><ele>267.42</ele><time>2024-09-12T00:10:44Z</time></trkpt><trkpt lat="-39.2987865396" lon="-72.4047087785"><ele>267.31</ele><time>2024-09-12T00:10:45Z</time></trkpt><trkpt lat="-39.2988526728" lon="-72.4046946969"><ele>267.28</ele><time>2024-09-12T00:10:46Z</time></trkpt><trkpt lat="-39.2989231646" lon="-72.4046760052"><ele>267.36</ele><time>2024-09-12T00:10:47Z</time></trkpt><trkpt lat="-39.2994971573" lon="-72.4045072775"><ele>266.29</ele><time>2024-09-12T00:10:57Z</time></trkpt><trkpt lat="-39.3001346011" lon="-72.4043286592"><ele>266.53</ele><time>2024-09-12T00:11:05Z</time></trkpt><trkpt lat="-39.3003866449" lon="-72.4042569101"><ele>266.90</ele><time>2024-09-12T00:11:09Z</time></trkpt><trkpt lat="-39.3004308175" lon="-72.4042306747"><ele>267.12</ele><time>2024-09-12T00:11:10Z</time></trkpt><trkpt lat="-39.3004628364" lon="-72.4041898549"><ele>267.36</ele><time>2024-09-12T00:11:11Z</time></trkpt><trkpt lat="-39.3004783429" lon="-72.4041320197"><ele>267.56</ele><time>2024-09-12T00:11:12Z</time></trkpt><trkpt lat="-39.3004774209" lon="-72.4040627852"><ele>267.79</ele><time>2024-09-12T00:11:13Z</time></trkpt><trkpt lat="-39.3004661053" lon="-72.4039863423"><ele>268.13</ele><time>2024-09-12T00:11:14Z</time></trkpt><trkpt lat="-39.3004516046" lon="-72.4039021879"><ele>268.51</ele><time>2024-09-12T00:11:15Z</time></trkpt><trkpt lat="-39.3003679533" lon="-72.4034325499"><ele>271.85</ele><time>2024-09-12T00:11:20Z</time></trkpt><trkpt lat="-39.3002844695" lon="-72.4030289613"><ele>274.96</ele><time>2024-09-12T00:11:26Z</time></trkpt><trkpt lat="-39.3000874948" lon="-72.4028681964"><ele>275.01</ele><time>2024-09-12T00:11:34Z</time></trkpt><trkpt lat="-39.2996763624" lon="-72.4030045699"><ele>271.38</ele><time>2024-09-12T00:11:40Z</time></trkpt><trkpt lat="-39.2994513921" lon="-72.4030599743"><ele>269.87</ele><time>2024-09-12T00:11:43Z</time></trkpt><trkpt lat="-39.2990359850" lon="-72.4031765666"><ele>268.78</ele><time>2024-09-12T00:11:51Z</time></trkpt><trkpt lat="-39.2982406262" lon="-72.4034283590"><ele>269.47</ele><time>2024-09-12T00:12:02Z</time></trkpt><trkpt lat="-39.2980625108" lon="-72.4033300392"><ele>269.72</ele><time>2024-09-12T00:12:09Z</time></trkpt><trkpt lat="-39.2980490997" lon="-72.4032648280"><ele>270.00</ele><time>2024-09-12T00:12:10Z</time></trkpt><trkpt lat="-39.2980364431" lon="-72.4031889718"><ele>270.07</ele><time>2024-09-12T00:12:11Z</time></trkpt><trkpt lat="-39.2980223615" lon="-72.4031116068"><ele>270.24</ele><time>2024-09-12T00:12:12Z</time></trkpt><trkpt lat="-39.2980100401" lon="-72.4030341581"><ele>270.29</ele><time>2024-09-12T00:12:13Z</time></trkpt><trkpt lat="-39.2978765164" lon="-72.4021309242"><ele>271.61</ele><time>2024-09-12T00:12:26Z</time></trkpt><trkpt lat="-39.2978873290" lon="-72.4020913616"><ele>271.66</ele><time>2024-09-12T00:12:27Z</time></trkpt><trkpt lat="-39.2979128100" lon="-72.4020575825"><ele>271.61</ele><time>2024-09-12T00:12:28Z</time></trkpt><trkpt lat="-39.2979558092" lon="-72.4020320177"><ele>271.62</ele><time>2024-09-12T00:12:29Z</time></trkpt><trkpt lat="-39.2980020773" lon="-72.4020139128"><ele>271.63</ele><time>2024-09-12T00:12:30Z</time></trkpt><trkpt lat="-39.2980612535" lon="-72.4019943830"><ele>271.65</ele><time>2024-09-12T00:12:31Z</time></trkpt><trkpt lat="-39.2989330553" lon="-72.4017715920"><ele>273.90</ele><time>2024-09-12T00:12:44Z</time></trkpt><trkpt lat="-39.2995447665" lon="-72.4015933927"><ele>277.21</ele><time>2024-09-12T00:12:53Z</time></trkpt><trkpt lat="-39.2999494448" lon="-72.4014729448"><ele>278.18</ele><time>2024-09-12T00:13:02Z</time></trkpt><trkpt lat="-39.2999747582" lon="-72.4013296142"><ele>278.16</ele><time>2024-09-12T00:13:05Z</time></trkpt><trkpt lat="-39.2999686394" lon="-72.4012576137"><ele>278.02</ele><time>2024-09-12T00:13:06Z</time></trkpt><trkpt lat="-39.2999575753" lon="-72.4011678435"><ele>277.61</ele><time>2024-09-12T00:13:07Z</time></trkpt><trkpt lat="-39.2998001631" lon="-72.4001877476"><ele>275.61</ele><time>2024-09-12T00:13:17Z</time></trkpt><trkpt lat="-39.2997761909" lon="-72.4001310021"><ele>275.51</ele><time>2024-09-12T00:13:18Z</time></trkpt><trkpt lat="-39.2997414060" lon="-72.4000915233"><ele>275.24</ele><time>2024-09-12T00:13:19Z</time></trkpt><trkpt lat="-39.2996976525" lon="-72.4000691436"><ele>275.22</ele><time>2024-09-12T00:13:20Z</time></trkpt><trkpt lat="-39.2996451817" lon="-72.4000692274"><ele>275.29</ele><time>2024-09-12T00:13:21Z</time></trkpt><trkpt lat="-39.2995803058" lon="-72.4000869971"><ele>275.24</ele><time>2024-09-12T00:13:22Z</time></trkpt><trkpt lat="-39.2994940560" lon="-72.4001264758"><ele>275.09</ele><time>2024-09-12T00:13:23Z</time></trkpt><trkpt lat="-39.2994117457" lon="-72.4001595005"><ele>274.89</ele><time>2024-09-12T00:13:24Z</time></trkpt><trkpt lat="-39.2993325368" lon="-72.4001899268"><ele>274.53</ele><time>2024-09-12T00:13:25Z</time></trkpt><trkpt lat="-39.2986713722" lon="-72.4003918469"><ele>272.08</ele><time>2024-09-12T00:13:37Z</time></trkpt><trkpt lat="-39.2979976349" lon="-72.4005816132"><ele>271.45</ele><time>2024-09-12T00:13:48Z</time></trkpt><trkpt lat="-39.2973291781" lon="-72.4007043242"><ele>268.34</ele><time>2024-09-12T00:13:57Z</time></trkpt><trkpt lat="-39.2969581950" lon="-72.4007213395"><ele>264.81</ele><time>2024-09-12T00:14:01Z</time></trkpt><trkpt lat="-39.2968034651" lon="-72.4007271230"><ele>264.06</ele><time>2024-09-12T00:14:03Z</time></trkpt><trkpt lat="-39.2964318115" lon="-72.4006811902"><ele>263.38</ele><time>2024-09-12T00:14:11Z</time></trkpt><trkpt lat="-39.2964075878" lon="-72.4006352574"><ele>263.34</ele><time>2024-09-12T00:14:12Z</time></trkpt><trkpt lat="-39.2963875551" lon="-72.4005737342"><ele>263.30</ele><time>2024-09-12T00:14:13Z</time></trkpt><trkpt lat="-39.2963083461" lon="-72.4003542960"><ele>263.15</ele><time>2024-09-12T00:14:16Z</time></trkpt><trkpt lat="-39.2961321585" lon="-72.4000754301"><ele>262.99</ele><time>2024-09-12T00:14:20Z</time></trkpt><trkpt lat="-39.2960751615" lon="-72.4000159185"><ele>263.04</ele><time>2024-09-12T00:14:21Z</time></trkpt><trkpt lat="-39.2960122973" lon="-72.3999668006"><ele>263.01</ele><time>2024-09-12T00:14:22Z</time></trkpt><trkpt lat="-39.2959470861" lon="-72.3999283276"><ele>263.10</ele><time>2024-09-12T00:14:23Z</time></trkpt><trkpt lat="-39.2958835512" lon="-72.3998973146"><ele>263.22</ele><time>2024-09-12T00:14:24Z</time></trkpt><trkpt lat="-39.2958298232" lon="-72.3998770304"><ele>263.36</ele><time>2024-09-12T00:14:25Z</time></trkpt><trkpt lat="-39.2957848962" lon="-72.3998660501"><ele>263.65</ele><time>2024-09-12T00:14:26Z</time></trkpt><trkpt lat="-39.2957056873" lon="-72.3998549022"><ele>264.42</ele><time>2024-09-12T00:14:31Z</time></trkpt><trkpt lat="-39.2956878338" lon="-72.3998513818"><ele>264.37</ele><time>2024-09-12T00:14:32Z</time></trkpt><trkpt lat="-39.2955708224" lon="-72.3995260801"><ele>264.63</ele><time>2024-09-12T00:14:41Z</time></trkpt><trkpt lat="-39.2953611072" lon="-72.3982640170"><ele>266.33</ele><time>2024-09-12T00:14:53Z</time></trkpt><trkpt lat="-39.2951468658" lon="-72.3972144350"><ele>269.41</ele><time>2024-09-12T00:15:03Z</time></trkpt><trkpt lat="-39.2950322852" lon="-72.3964554537"><ele>272.48</ele><time>2024-09-12T00:15:10Z</time></trkpt><trkpt lat="-39.2950355541" lon="-72.3952196259"><ele>275.49</ele><time>2024-09-12T00:15:21Z</time></trkpt><trkpt lat="-39.2950202990" lon="-72.3936564010"><ele>277.58</ele><time>2024-09-12T00:15:35Z</time></trkpt><trkpt lat="-39.2948054709" lon="-72.3922196589"><ele>277.84</ele><time>2024-09-12T00:15:48Z</time></trkpt><trkpt lat="-39.2942321487" lon="-72.3907357268"><ele>277.55</ele><time>2024-09-12T00:16:03Z</time></trkpt><trkpt lat="-39.2935669608" lon="-72.3894790281"><ele>277.66</ele><time>2024-09-12T00:16:17Z</time></trkpt><trkpt lat="-39.2934927810" lon="-72.3892902676"><ele>277.79</ele><time>2024-09-12T00:16:19Z</time></trkpt><trkpt lat="-39.2934708204" lon="-72.3891876731"><ele>277.82</ele><time>2024-09-12T00:16:20Z</time></trkpt><trkpt lat="-39.2934622709" lon="-72.3890810553"><ele>277.73</ele><time>2024-09-12T00:16:21Z</time></trkpt><trkpt lat="-39.2934673000" lon="-72.3889746889"><ele>277.68</ele><time>2024-09-12T00:16:22Z</time></trkpt><trkpt lat="-39.2934826389" lon="-72.3888644669"><ele>277.84</ele><time>2024-09-12T00:16:23Z</time></trkpt><trkpt lat="-39.2934993189" lon="-72.3887557536"><ele>277.77</ele><time>2024-09-12T00:16:24Z</time></trkpt><trkpt lat="-39.2938669492" lon="-72.3868642934"><ele>278.81</ele><time>2024-09-12T00:16:41Z</time></trkpt><trkpt lat="-39.2941785045" lon="-72.3853164911"><ele>281.84</ele><time>2024-09-12T00:16:56Z</time></trkpt><trkpt lat="-39.2943850346" lon="-72.3843949009"><ele>284.84</ele><time>2024-09-12T00:17:05Z</time></trkpt><trkpt lat="-39.2946371622" lon="-72.3830870725"><ele>288.01</ele><time>2024-09-12T00:17:17Z</time></trkpt><trkpt lat="-39.2949145194" lon="-72.3816648312"><ele>287.81</ele><time>2024-09-12T00:17:30Z</time></trkpt><trkpt lat="-39.2952417489" lon="-72.3800355569"><ele>284.74</ele><time>2024-09-12T00:17:45Z</time></trkpt><trkpt lat="-39.2954460159" lon="-72.3788953666"><ele>281.27</ele><time>2024-09-12T00:17:55Z</time></trkpt><trkpt lat="-39.2958392948" lon="-72.3769269604"><ele>279.00</ele><time>2024-09-12T00:18:13Z</time></trkpt><trkpt lat="-39.2962013930" lon="-72.3752110172"><ele>277.37</ele><time>2024-09-12T00:18:29Z</time></trkpt><trkpt lat="-39.2965365015" lon="-72.3737832438"><ele>275.28</ele><time>2024-09-12T00:18:43Z</time></trkpt><trkpt lat="-39.2965616472" lon="-72.3736160249"><ele>274.71</ele><time>2024-09-12T00:18:47Z</time></trkpt><trkpt lat="-39.2965512536" lon="-72.3735928070"><ele>274.83</ele><time>2024-09-12T00:18:48Z</time></trkpt><trkpt lat="-39.2965380102" lon="-72.3735731095"><ele>274.71</ele><time>2024-09-12T00:18:49Z</time></trkpt><trkpt lat="-39.2965186480" lon="-72.3735591117"><ele>274.68</ele><time>2024-09-12T00:18:50Z</time></trkpt><trkpt lat="-39.2965026386" lon="-72.3735477962"><ele>275.14</ele><time>2024-09-12T00:18:51Z</time></trkpt><trkpt lat="-39.2965407763" lon="-72.3735761270"><ele>274.57</ele><time>2024-09-12T00:19:02Z</time></trkpt><trkpt lat="-39.2965328135" lon="-72.3736009374"><ele>274.60</ele><time>2024-09-12T00:19:03Z</time></trkpt><trkpt lat="-39.2965248507" lon="-72.3736281786"><ele>274.65</ele><time>2024-09-12T00:19:04Z</time></trkpt><trkpt lat="-39.2963804305" lon="-72.3741548136"><ele>275.66</ele><time>2024-09-12T00:19:11Z</time></trkpt><trkpt lat="-39.2960164882" lon="-72.3758241534"><ele>277.94</ele><time>2024-09-12T00:19:26Z</time></trkpt><trkpt lat="-39.2956230417" lon="-72.3777695931"><ele>279.32</ele><time>2024-09-12T00:19:43Z</time></trkpt><trkpt lat="-39.2952903640" lon="-72.3794387653"><ele>282.52</ele><time>2024-09-12T00:19:58Z</time></trkpt><trkpt lat="-39.2951861769" lon="-72.3799931444"><ele>284.47</ele><time>2024-09-12T00:20:03Z</time></trkpt><trkpt lat="-39.2948565166" lon="-72.3815549444"><ele>287.49</ele><time>2024-09-12T00:20:17Z</time></trkpt><trkpt lat="-39.2945524212" lon="-72.3832885735"><ele>287.24</ele><time>2024-09-12T00:20:32Z</time></trkpt><trkpt lat="-39.2942809314" lon="-72.3846605234"><ele>284.00</ele><time>2024-09-12T00:20:44Z</time></trkpt><trkpt lat="-39.2940809391" lon="-72.3856910784"><ele>280.87</ele><time>2024-09-12T00:20:53Z</time></trkpt><trkpt lat="-39.2937601637" lon="-72.3873503599"><ele>278.03</ele><time>2024-09-12T00:21:08Z</time></trkpt><trkpt lat="-39.2934363708" lon="-72.3890003376"><ele>277.21</ele><time>2024-09-12T00:21:23Z</time></trkpt><trkpt lat="-39.2934257258" lon="-72.3891125713"><ele>276.97</ele><time>2024-09-12T00:21:24Z</time></trkpt><trkpt lat="-39.2934263125" lon="-72.3892250564"><ele>277.13</ele><time>2024-09-12T00:21:25Z</time></trkpt><trkpt lat="-39.2934476025" lon="-72.3893387150"><ele>276.99</ele><time>2024-09-12T00:21:26Z</time></trkpt><trkpt lat="-39.2934786994" lon="-72.3894474283"><ele>277.05</ele><time>2024-09-12T00:21:27Z</time></trkpt><trkpt lat="-39.2935159151" lon="-72.3895461671"><ele>276.88</ele><time>2024-09-12T00:21:28Z</time></trkpt><trkpt lat="-39.2935586628" lon="-72.3896441516"><ele>276.81</ele><time>2024-09-12T00:21:29Z</time></trkpt><trkpt lat="-39.2936065234" lon="-72.3897408787"><ele>276.81</ele><time>2024-09-12T00:21:30Z</time></trkpt><trkpt lat="-39.2943146266" lon="-72.3910505511"><ele>276.86</ele><time>2024-09-12T00:21:44Z</time></trkpt><trkpt lat="-39.2948633898" lon="-72.3926256783"><ele>276.67</ele><time>2024-09-12T00:21:59Z</time></trkpt><trkpt lat="-39.2950290162" lon="-72.3940885719"><ele>276.13</ele><time>2024-09-12T00:22:12Z</time></trkpt><trkpt lat="-39.2949933931" lon="-72.3957222048"><ele>272.84</ele><time>2024-09-12T00:22:26Z</time></trkpt><trkpt lat="-39.2949842568" lon="-72.3965079244"><ele>270.43</ele><time>2024-09-12T00:22:36Z</time></trkpt><trkpt lat="-39.2949094065" lon="-72.3965874687"><ele>270.31</ele><time>2024-09-12T00:22:40Z</time></trkpt><trkpt lat="-39.2948746216" lon="-72.3965764884"><ele>270.25</ele><time>2024-09-12T00:22:41Z</time></trkpt><trkpt lat="-39.2948306166" lon="-72.3965615686"><ele>270.14</ele><time>2024-09-12T00:22:42Z</time></trkpt><trkpt lat="-39.2942219228" lon="-72.3963063397"><ele>271.13</ele><time>2024-09-12T00:22:51Z</time></trkpt><trkpt lat="-39.2934807949" lon="-72.3959683813"><ele>274.32</ele><time>2024-09-12T00:23:00Z</time></trkpt><trkpt lat="-39.2924841028" lon="-72.3955642059"><ele>276.93</ele><time>2024-09-12T00:23:14Z</time></trkpt><trkpt lat="-39.2924159579" lon="-72.3955909442"><ele>277.03</ele><time>2024-09-12T00:23:18Z</time></trkpt><trkpt lat="-39.2924090009" lon="-72.3956072889"><ele>276.92</ele><time>2024-09-12T00:23:19Z</time></trkpt><trkpt lat="-39.2924513295" lon="-72.3955739290"><ele>276.73</ele><time>2024-09-12T00:23:30Z</time></trkpt><trkpt lat="-39.2924704403" lon="-72.3955896031"><ele>276.71</ele><time>2024-09-12T00:23:31Z</time></trkpt><trkpt lat="-39.2925557680" lon="-72.3956375476"><ele>276.59</ele><time>2024-09-12T00:23:34Z</time></trkpt><trkpt lat="-39.2930921260" lon="-72.3958662059"><ele>274.83</ele><time>2024-09-12T00:23:42Z</time></trkpt><trkpt lat="-39.2941062525" lon="-72.3962877318"><ele>271.53</ele><time>2024-09-12T00:23:56Z</time></trkpt><trkpt lat="-39.2949363124" lon="-72.3966155481"><ele>269.19</ele><time>2024-09-12T00:24:09Z</time></trkpt><trkpt lat="-39.2950522341" lon="-72.3968665022"><ele>268.61</ele><time>2024-09-12T00:24:17Z</time></trkpt><trkpt lat="-39.2952008452" lon="-72.3976082169"><ele>265.50</ele><time>2024-09-12T00:24:25Z</time></trkpt><trkpt lat="-39.2952497117" lon="-72.3978138249"><ele>264.63</ele><time>2024-09-12T00:24:27Z</time></trkpt><trkpt lat="-39.2956293281" lon="-72.3995917942"><ele>261.61</ele><time>2024-09-12T00:24:45Z</time></trkpt><trkpt lat="-39.2956556473" lon="-72.3998233024"><ele>261.03</ele><time>2024-09-12T00:24:48Z</time></trkpt><trkpt lat="-39.2956507020" lon="-72.3998963088"><ele>260.86</ele><time>2024-09-12T00:24:49Z</time></trkpt><trkpt lat="-39.2956353631" lon="-72.3999866657"><ele>260.63</ele><time>2024-09-12T00:24:50Z</time></trkpt><trkpt lat="-39.2954009213" lon="-72.4010582082"><ele>257.58</ele><time>2024-09-12T00:25:01Z</time></trkpt><trkpt lat="-39.2955421563" lon="-72.4021987338"><ele>257.15</ele><time>2024-09-12T00:25:12Z</time></trkpt><trkpt lat="-39.2957149912" lon="-72.4030956812"><ele>260.20</ele><time>2024-09-12T00:25:21Z</time></trkpt><trkpt lat="-39.2959202640" lon="-72.4040773697"><ele>261.22</ele><time>2024-09-12T00:25:33Z</time></trkpt><trkpt lat="-39.2959284782" lon="-72.4043343589"><ele>260.81</ele><time>2024-09-12T00:25:39Z</time></trkpt><trkpt lat="-39.2959081940" lon="-72.4043545593"><ele>260.71</ele><time>2024-09-12T00:25:40Z</time></trkpt><trkpt lat="-39.2958843056" lon="-72.4043679703"><ele>260.72</ele><time>2024-09-12T00:25:41Z</time></trkpt><trkpt lat="-39.2958594114" lon="-72.4043777771"><ele>260.61</ele><time>2024-09-12T00:25:42Z</time></trkpt><trkpt lat="-39.2958383728" lon="-72.4043843988"><ele>260.65</ele><time>2024-09-12T00:25:43Z</time></trkpt><trkpt lat="-39.2958212737" lon="-72.4043852370"><ele>260.46</ele><time>2024-09-12T00:25:44Z</time></trkpt><trkpt lat="-39.2957232893" lon="-72.4043653719"><ele>260.31</ele><time>2024-09-12T00:25:57Z</time></trkpt><trkpt lat="-39.2956916895" lon="-72.4043268152"><ele>260.02</ele><time>2024-09-12T00:26:26Z</time></trkpt><trkpt lat="-39.2956845649" lon="-72.4043345265"><ele>259.83</ele><time>2024-09-12T00:26:58Z</time></trkpt><trkpt lat="-39.2956890911" lon="-72.4043317605"><ele>261.09</ele><time>2024-09-12T00:27:04Z</time></trkpt><trkpt lat="-39.2957360297" lon="-72.4043403100"><ele>260.97</ele><time>2024-09-12T00:27:34Z</time></trkpt></trkseg></trk></gpx>