<?xml version="1.0" encoding="UTF-8" standalone="no" ?><gpx xmlns="http://www.topografix.com/GPX/1/1" xmlns:gpxx="http://www.garmin.com/xmlschemas/GpxExtensions/v3" xmlns:gpxtrkx="http://www.garmin.com/xmlschemas/TrackStatsExtension/v1" xmlns:wptx1="http://www.garmin.com/xmlschemas/WaypointExtension/v1" xmlns:gpxtpx="http://www.garmin.com/xmlschemas/TrackPointExtension/v1" creator="GPSMAP 64sx" version="1.1" xmlns:xsi="http://www.w3.org/2001/XMLSchema-instance" xsi:schemaLocation="http://www.topografix.com/GPX/1/1 http://www.topografix.com/GPX/1/1/gpx.xsd http://www.garmin.com/xmlschemas/GpxExtensions/v3 http://www8.garmin.com/xmlschemas/GpxExtensionsv3.xsd http://www.garmin.com/xmlschemas/TrackStatsExtension/v1 http://www8.garmin.com/xmlschemas/TrackStatsExtension.xsd http://www.garmin.com/xmlschemas/WaypointExtension/v1 http://www8.garmin.com/xmlschemas/WaypointExtensionv1.xsd http://www.garmin.com/xmlschemas/TrackPointExtension/v1 http://www.garmin.com/xmlschemas/TrackPointExtensionv1.xsd"><metadata><link href="http://www.garmin.com"><text>Garmin International</text></link><time>2024-09-13T03:11:07Z</time></metadata><trk><name>GPS LAPAZ240912</name><extensions><gpxx:TrackExtension><gpxx:DisplayColor>Cyan</gpxx:DisplayColor></gpxx:TrackExtension><gpxtrkx:TrackStatsExtension><gpxtrkx:Distance>3745.000</gpxtrkx:Distance><gpxtrkx:TotalElapsedTime>620</gpxtrkx:TotalElapsedTime><gpxtrkx:MovingTime>533</gpxtrkx:MovingTime><gpxtrkx:StoppedTime>86</gpxtrkx:StoppedTime><gpxtrkx:MovingSpeed>7.027</gpxtrkx:MovingSpeed><gpxtrkx:MaxSpeed>12.158</gpxtrkx:MaxSpeed><gpxtrkx:MaxElevation>90.278</gpxtrkx:MaxElevation><gpxtrkx:MinElevation>83.423</gpxtrkx:MinElevation><gpxtrkx:Ascent>7.000</gpxtrkx:Ascent><gpxtrkx:Descent>5.039</gpxtrkx:Descent><gpxtrkx:AvgAscentRate>0.128</gpxtrkx:AvgAscentRate><gpxtrkx:MaxAscentRate>0.090</gpxtrkx:MaxAscentRate><gpxtrkx:AvgDescentRate>0.053</gpxtrkx:AvgDescentRate><gpxtrkx:MaxDescentRate>-0.037</gpxtrkx:MaxDescentRate></gpxtrkx:TrackStatsExtension></extensions><trkseg><trkpt lat="-39.4060030673" lon="-72.7030725963"><ele>88.73</ele><time>2024-09-13T03:00:47Z</time></trkpt><trkpt lat="-39.4060034864" lon="-72.7030715905"><ele>88.73</ele><time>2024-09-13T03:00:48Z</time></trkpt><trkpt lat="-39.4060039055" lon="-72.7030690759"><ele>86.71</ele><time>2024-09-13T03:00:52Z</time></trkpt><trkpt lat="-39.4060194958" lon="-72.7030822355"><ele>86.67</ele><time>2024-09-13T03:00:55Z</time></trkpt><trkpt lat="-39.4060394447" lon="-72.7031057049"><ele>86.71</ele><time>2024-09-13T03:00:56Z</time></trkpt><trkpt lat="-39.4060706254" lon="-72.7031438425"><ele>86.63</ele><time>2024-09-13T03:00:57Z</time></trkpt><trkpt lat="-39.4061127026" lon="-72.7031917032"><ele>86.72</ele><time>2024-09-13T03:00:58Z</time></trkpt><trkpt lat="-39.4061657600" lon="-72.7032560762"><ele>86.85</ele><time>2024-09-13T03:00:59Z</time></trkpt><trkpt lat="-39.4068592787" lon="-72.7042002976"><ele>88.77</ele><time>2024-09-13T03:01:09Z</time></trkpt><trkpt lat="-39.4071962312" lon="-72.7051668987"><ele>89.36</ele><time>2024-09-13T03:01:17Z</time></trkpt><trkpt lat="-39.4076451659" lon="-72.7063112799"><ele>87.06</ele><time>2024-09-13T03:01:27Z</time></trkpt><trkpt lat="-39.4076750893" lon="-72.7063990384"><ele>87.07</ele><time>2024-09-13T03:01:28Z</time></trkpt><trkpt lat="-39.4076910987" lon="-72.7064957656"><ele>87.15</ele><time>2024-09-13T03:01:29Z</time></trkpt><trkpt lat="-39.4077201840" lon="-72.7067081630"><ele>87.16</ele><time>2024-09-13T03:01:31Z</time></trkpt><trkpt lat="-39.4077491853" lon="-72.7068137750"><ele>87.40</ele><time>2024-09-13T03:01:32Z</time></trkpt><trkpt lat="-39.4077902567" lon="-72.7069146093"><ele>87.32</ele><time>2024-09-13T03:01:33Z</time></trkpt><trkpt lat="-39.4078744948" lon="-72.7071084827"><ele>87.26</ele><time>2024-09-13T03:01:35Z</time></trkpt><trkpt lat="-39.4079029933" lon="-72.7072103228"><ele>87.26</ele><time>2024-09-13T03:01:36Z</time></trkpt><trkpt lat="-39.4079216849" lon="-72.7073177788"><ele>87.32</ele><time>2024-09-13T03:01:37Z</time></trkpt><trkpt lat="-39.4079428911" lon="-72.7074260730"><ele>87.32</ele><time>2024-09-13T03:01:38Z</time></trkpt><trkpt lat="-39.4079748262" lon="-72.7075334452"><ele>87.45</ele><time>2024-09-13T03:01:39Z</time></trkpt><trkpt lat="-39.4080224354" lon="-72.7076303400"><ele>87.32</ele><time>2024-09-13T03:01:40Z</time></trkpt><trkpt lat="-39.4080935977" lon="-72.7077131532"><ele>87.25</ele><time>2024-09-13T03:01:41Z</time></trkpt><trkpt lat="-39.4081789255" lon="-72.7077772748"><ele>87.10</ele><time>2024-09-13T03:01:42Z</time></trkpt><trkpt lat="-39.4082720485" lon="-72.7078157477"><ele>87.22</ele><time>2024-09-13T03:01:43Z</time></trkpt><trkpt lat="-39.4083664287" lon="-72.7078360319"><ele>87.15</ele><time>2024-09-13T03:01:44Z</time></trkpt><trkpt lat="-39.4084660895" lon="-72.7078440785"><ele>87.09</ele><time>2024-09-13T03:01:45Z</time></trkpt><trkpt lat="-39.4085693546" lon="-72.7078477666"><ele>87.06</ele><time>2024-09-13T03:01:46Z</time></trkpt><trkpt lat="-39.4087748788" lon="-72.7078807075"><ele>87.14</ele><time>2024-09-13T03:01:48Z</time></trkpt><trkpt lat="-39.4088711869" lon="-72.7079220302"><ele>87.22</ele><time>2024-09-13T03:01:49Z</time></trkpt><trkpt lat="-39.4089625496" lon="-72.7079772670"><ele>87.26</ele><time>2024-09-13T03:01:50Z</time></trkpt><trkpt lat="-39.4090489671" lon="-72.7080397960"><ele>87.26</ele><time>2024-09-13T03:01:51Z</time></trkpt><trkpt lat="-39.4091280922" lon="-72.7081084438"><ele>87.11</ele><time>2024-09-13T03:01:52Z</time></trkpt><trkpt lat="-39.4096117280" lon="-72.7085914090"><ele>85.97</ele><time>2024-09-13T03:02:00Z</time></trkpt><trkpt lat="-39.4096296653" lon="-72.7086373419"><ele>85.86</ele><time>2024-09-13T03:02:01Z</time></trkpt><trkpt lat="-39.4096325152" lon="-72.7086761501"><ele>85.81</ele><time>2024-09-13T03:02:02Z</time></trkpt><trkpt lat="-39.4096274022" lon="-72.7087050676"><ele>85.74</ele><time>2024-09-13T03:02:03Z</time></trkpt><trkpt lat="-39.4096191041" lon="-72.7087276150"><ele>85.74</ele><time>2024-09-13T03:02:04Z</time></trkpt><trkpt lat="-39.4096067827" lon="-72.7087479830"><ele>85.62</ele><time>2024-09-13T03:02:05Z</time></trkpt><trkpt lat="-39.4095916953" lon="-72.7087705303"><ele>85.50</ele><time>2024-09-13T03:02:06Z</time></trkpt><trkpt lat="-39.4095723331" lon="-72.7087965980"><ele>85.50</ele><time>2024-09-13T03:02:07Z</time></trkpt><trkpt lat="-39.4092110731" lon="-72.7093484625"><ele>85.29</ele><time>2024-09-13T03:02:17Z</time></trkpt><trkpt lat="-39.4088584464" lon="-72.7097507101"><ele>84.90</ele><time>2024-09-13T03:02:27Z</time></trkpt><trkpt lat="-39.4088198896" lon="-72.7097280789"><ele>84.97</ele><time>2024-09-13T03:02:28Z</time></trkpt><trkpt lat="-39.4087784830" lon="-72.7096932940"><ele>85.10</ele><time>2024-09-13T03:02:29Z</time></trkpt><trkpt lat="-39.4081114512" lon="-72.7089602128"><ele>85.68</ele><time>2024-09-13T03:02:42Z</time></trkpt><trkpt lat="-39.4073814712" lon="-72.7081169933"><ele>84.92</ele><time>2024-09-13T03:02:55Z</time></trkpt><trkpt lat="-39.4073106442" lon="-72.7080324199"><ele>84.71</ele><time>2024-09-13T03:02:57Z</time></trkpt><trkpt lat="-39.4071125798" lon="-72.7083010599"><ele>84.77</ele><time>2024-09-13T03:03:04Z</time></trkpt><trkpt lat="-39.4071146753" lon="-72.7083774190"><ele>84.75</ele><time>2024-09-13T03:03:05Z</time></trkpt><trkpt lat="-39.4071797188" lon="-72.7092027012"><ele>84.95</ele><time>2024-09-13T03:03:15Z</time></trkpt><trkpt lat="-39.4072044455" lon="-72.7095216326"><ele>85.10</ele><time>2024-09-13T03:03:19Z</time></trkpt><trkpt lat="-39.4072974008" lon="-72.7098231297"><ele>85.22</ele><time>2024-09-13T03:03:23Z</time></trkpt><trkpt lat="-39.4074920285" lon="-72.7101413067"><ele>85.37</ele><time>2024-09-13T03:03:28Z</time></trkpt><trkpt lat="-39.4080505148" lon="-72.7107615676"><ele>85.84</ele><time>2024-09-13T03:03:40Z</time></trkpt><trkpt lat="-39.4081545342" lon="-72.7108476497"><ele>85.69</ele><time>2024-09-13T03:03:43Z</time></trkpt><trkpt lat="-39.4081845414" lon="-72.7108890563"><ele>85.70</ele><time>2024-09-13T03:03:44Z</time></trkpt><trkpt lat="-39.4082600623" lon="-72.7109863702"><ele>86.04</ele><time>2024-09-13T03:03:46Z</time></trkpt><trkpt lat="-39.4089679141" lon="-72.7117584273"><ele>85.86</ele><time>2024-09-13T03:04:02Z</time></trkpt><trkpt lat="-39.4090072252" lon="-72.7117772866"><ele>85.86</ele><time>2024-09-13T03:04:03Z</time></trkpt><trkpt lat="-39.4090517331" lon="-72.7117672283"><ele>85.79</ele><time>2024-09-13T03:04:04Z</time></trkpt><trkpt lat="-39.4090949837" lon="-72.7117302641"><ele>85.92</ele><time>2024-09-13T03:04:05Z</time></trkpt><trkpt lat="-39.4091292657" lon="-72.7116824035"><ele>85.78</ele><time>2024-09-13T03:04:06Z</time></trkpt><trkpt lat="-39.4091600273" lon="-72.7116271667"><ele>85.88</ele><time>2024-09-13T03:04:07Z</time></trkpt><trkpt lat="-39.4091898669" lon="-72.7115693316"><ele>85.88</ele><time>2024-09-13T03:04:08Z</time></trkpt><trkpt lat="-39.4096341077" lon="-72.7108129486"><ele>86.12</ele><time>2024-09-13T03:04:20Z</time></trkpt><trkpt lat="-39.4100340921" lon="-72.7101859823"><ele>85.90</ele><time>2024-09-13T03:04:31Z</time></trkpt><trkpt lat="-39.4103668537" lon="-72.7096621133"><ele>85.27</ele><time>2024-09-13T03:04:39Z</time></trkpt><trkpt lat="-39.4103974476" lon="-72.7096212935"><ele>85.28</ele><time>2024-09-13T03:04:40Z</time></trkpt><trkpt lat="-39.4104234315" lon="-72.7095955610"><ele>85.29</ele><time>2024-09-13T03:04:41Z</time></trkpt><trkpt lat="-39.4104508404" lon="-72.7095793001"><ele>85.37</ele><time>2024-09-13T03:04:42Z</time></trkpt><trkpt lat="-39.4104825240" lon="-72.7095777076"><ele>85.38</ele><time>2024-09-13T03:04:43Z</time></trkpt><trkpt lat="-39.4105251878" lon="-72.7096028533"><ele>85.50</ele><time>2024-09-13T03:04:44Z</time></trkpt><trkpt lat="-39.4105743058" lon="-72.7096489538"><ele>85.61</ele><time>2024-09-13T03:04:45Z</time></trkpt><trkpt lat="-39.4106261060" lon="-72.7097062021"><ele>85.52</ele><time>2024-09-13T03:04:46Z</time></trkpt><trkpt lat="-39.4106810074" lon="-72.7097704075"><ele>85.49</ele><time>2024-09-13T03:04:47Z</time></trkpt><trkpt lat="-39.4112161919" lon="-72.7103982959"><ele>85.15</ele><time>2024-09-13T03:04:57Z</time></trkpt><trkpt lat="-39.4112375658" lon="-72.7104699612"><ele>85.10</ele><time>2024-09-13T03:04:58Z</time></trkpt><trkpt lat="-39.4112358894" lon="-72.7105353400"><ele>85.14</ele><time>2024-09-13T03:04:59Z</time></trkpt><trkpt lat="-39.4112113304" lon="-72.7105981205"><ele>84.95</ele><time>2024-09-13T03:05:00Z</time></trkpt><trkpt lat="-39.4111774676" lon="-72.7106591407"><ele>84.67</ele><time>2024-09-13T03:05:01Z</time></trkpt><trkpt lat="-39.4111415092" lon="-72.7107129525"><ele>84.63</ele><time>2024-09-13T03:05:02Z</time></trkpt><trkpt lat="-39.4111078139" lon="-72.7107629087"><ele>84.53</ele><time>2024-09-13T03:05:03Z</time></trkpt><trkpt lat="-39.4105291273" lon="-72.7116437629"><ele>85.64</ele><time>2024-09-13T03:05:19Z</time></trkpt><trkpt lat="-39.4098777696" lon="-72.7126371022"><ele>85.81</ele><time>2024-09-13T03:05:35Z</time></trkpt><trkpt lat="-39.4098631851" lon="-72.7126899920"><ele>85.83</ele><time>2024-09-13T03:05:36Z</time></trkpt><trkpt lat="-39.4098700583" lon="-72.7127557062"><ele>85.74</ele><time>2024-09-13T03:05:37Z</time></trkpt><trkpt lat="-39.4099010713" lon="-72.7128163073"><ele>85.83</ele><time>2024-09-13T03:05:38Z</time></trkpt><trkpt lat="-39.4099457469" lon="-72.7128805127"><ele>85.72</ele><time>2024-09-13T03:05:39Z</time></trkpt><trkpt lat="-39.4099980500" lon="-72.7129423711"><ele>85.60</ele><time>2024-09-13T03:05:40Z</time></trkpt><trkpt lat="-39.4100539573" lon="-72.7130056545"><ele>85.65</ele><time>2024-09-13T03:05:41Z</time></trkpt><trkpt lat="-39.4105729647" lon="-72.7135759592"><ele>84.88</ele><time>2024-09-13T03:05:50Z</time></trkpt><trkpt lat="-39.4106258545" lon="-72.7136011887"><ele>84.96</ele><time>2024-09-13T03:05:51Z</time></trkpt><trkpt lat="-39.4106773194" lon="-72.7135933936"><ele>84.82</ele><time>2024-09-13T03:05:52Z</time></trkpt><trkpt lat="-39.4107317179" lon="-72.7135509811"><ele>84.79</ele><time>2024-09-13T03:05:53Z</time></trkpt><trkpt lat="-39.4107846078" lon="-72.7134763822"><ele>84.90</ele><time>2024-09-13T03:05:54Z</time></trkpt><trkpt lat="-39.4108342286" lon="-72.7133844327"><ele>84.79</ele><time>2024-09-13T03:05:55Z</time></trkpt><trkpt lat="-39.4108861126" lon="-72.7132901363"><ele>84.67</ele><time>2024-09-13T03:05:56Z</time></trkpt><trkpt lat="-39.4116209541" lon="-72.7121539693"><ele>84.47</ele><time>2024-09-13T03:06:10Z</time></trkpt><trkpt lat="-39.4120257162" lon="-72.7115350496"><ele>84.43</ele><time>2024-09-13T03:06:19Z</time></trkpt><trkpt lat="-39.4120558910" lon="-72.7114952356"><ele>84.21</ele><time>2024-09-13T03:06:20Z</time></trkpt><trkpt lat="-39.4120871555" lon="-72.7114656474"><ele>84.33</ele><time>2024-09-13T03:06:21Z</time></trkpt><trkpt lat="-39.4121194258" lon="-72.7114499733"><ele>84.47</ele><time>2024-09-13T03:06:22Z</time></trkpt><trkpt lat="-39.4121623412" lon="-72.7114462014"><ele>84.51</ele><time>2024-09-13T03:06:23Z</time></trkpt><trkpt lat="-39.4122043345" lon="-72.7114681620"><ele>84.59</ele><time>2024-09-13T03:06:24Z</time></trkpt><trkpt lat="-39.4122487586" lon="-72.7115115803"><ele>84.64</ele><time>2024-09-13T03:06:25Z</time></trkpt><trkpt lat="-39.4122952782" lon="-72.7115691639"><ele>84.61</ele><time>2024-09-13T03:06:26Z</time></trkpt><trkpt lat="-39.4123432226" lon="-72.7116299327"><ele>84.70</ele><time>2024-09-13T03:06:27Z</time></trkpt><trkpt lat="-39.4128719531" lon="-72.7122659516"><ele>84.09</ele><time>2024-09-13T03:06:39Z</time></trkpt><trkpt lat="-39.4128909800" lon="-72.7123225294"><ele>83.95</ele><time>2024-09-13T03:06:40Z</time></trkpt><trkpt lat="-39.4128903095" lon="-72.7123836335"><ele>84.04</ele><time>2024-09-13T03:06:41Z</time></trkpt><trkpt lat="-39.4128696062" lon="-72.7124421392"><ele>83.98</ele><time>2024-09-13T03:06:42Z</time></trkpt><trkpt lat="-39.4128327258" lon="-72.7124990523"><ele>83.76</ele><time>2024-09-13T03:06:43Z</time></trkpt><trkpt lat="-39.4127912354" lon="-72.7125579771"><ele>83.71</ele><time>2024-09-13T03:06:44Z</time></trkpt><trkpt lat="-39.4122434780" lon="-72.7133444510"><ele>84.02</ele><time>2024-09-13T03:06:57Z</time></trkpt><trkpt lat="-39.4121989701" lon="-72.7133762185"><ele>84.05</ele><time>2024-09-13T03:06:58Z</time></trkpt><trkpt lat="-39.4121474214" lon="-72.7133880369"><ele>84.23</ele><time>2024-09-13T03:06:59Z</time></trkpt><trkpt lat="-39.4120936934" lon="-72.7133732010"><ele>84.38</ele><time>2024-09-13T03:07:00Z</time></trkpt><trkpt lat="-39.4120424800" lon="-72.7133391704"><ele>84.61</ele><time>2024-09-13T03:07:01Z</time></trkpt><trkpt lat="-39.4119947869" lon="-72.7132962551"><ele>84.51</ele><time>2024-09-13T03:07:02Z</time></trkpt><trkpt lat="-39.4119484350" lon="-72.7132443711"><ele>84.64</ele><time>2024-09-13T03:07:03Z</time></trkpt><trkpt lat="-39.4119018316" lon="-72.7131917328"><ele>84.69</ele><time>2024-09-13T03:07:04Z</time></trkpt><trkpt lat="-39.4114123285" lon="-72.7125667781"><ele>84.36</ele><time>2024-09-13T03:07:17Z</time></trkpt><trkpt lat="-39.4109953288" lon="-72.7120974753"><ele>85.10</ele><time>2024-09-13T03:07:27Z</time></trkpt><trkpt lat="-39.4104988687" lon="-72.7115414198"><ele>85.96</ele><time>2024-09-13T03:07:39Z</time></trkpt><trkpt lat="-39.4100138918" lon="-72.7109923214"><ele>87.20</ele><time>2024-09-13T03:07:50Z</time></trkpt><trkpt lat="-39.4095660467" lon="-72.7105065901"><ele>86.98</ele><time>2024-09-13T03:08:02Z</time></trkpt><trkpt lat="-39.4089081511" lon="-72.7098182682"><ele>86.16</ele><time>2024-09-13T03:08:14Z</time></trkpt><trkpt lat="-39.4088861905" lon="-72.7097586729"><ele>86.14</ele><time>2024-09-13T03:08:15Z</time></trkpt><trkpt lat="-39.4088844303" lon="-72.7096945513"><ele>86.22</ele><time>2024-09-13T03:08:16Z</time></trkpt><trkpt lat="-39.4089026190" lon="-72.7096338663"><ele>86.41</ele><time>2024-09-13T03:08:17Z</time></trkpt><trkpt lat="-39.4089345541" lon="-72.7095719241"><ele>86.35</ele><time>2024-09-13T03:08:18Z</time></trkpt><trkpt lat="-39.4089762121" lon="-72.7095077187"><ele>86.35</ele><time>2024-09-13T03:08:19Z</time></trkpt><trkpt lat="-39.4090236537" lon="-72.7094378974"><ele>86.25</ele><time>2024-09-13T03:08:20Z</time></trkpt><trkpt lat="-39.4095528871" lon="-72.7086581290"><ele>87.04</ele><time>2024-09-13T03:08:32Z</time></trkpt><trkpt lat="-39.4095604308" lon="-72.7085910738"><ele>87.38</ele><time>2024-09-13T03:08:34Z</time></trkpt><trkpt lat="-39.4095402304" lon="-72.7085415367"><ele>87.38</ele><time>2024-09-13T03:08:35Z</time></trkpt><trkpt lat="-39.4095077924" lon="-72.7084902395"><ele>87.36</ele><time>2024-09-13T03:08:36Z</time></trkpt><trkpt lat="-39.4094670564" lon="-72.7084412891"><ele>87.47</ele><time>2024-09-13T03:08:37Z</time></trkpt><trkpt lat="-39.4094227161" lon="-72.7083899919"><ele>87.49</ele><time>2024-09-13T03:08:38Z</time></trkpt><trkpt lat="-39.4089195505" lon="-72.7078709844"><ele>88.82</ele><time>2024-09-13T03:08:46Z</time></trkpt><trkpt lat="-39.4088358153" lon="-72.7078232914"><ele>89.01</ele><time>2024-09-13T03:08:47Z</time></trkpt><trkpt lat="-39.4086587895" lon="-72.7077552304"><ele>88.85</ele><time>2024-09-13T03:08:49Z</time></trkpt><trkpt lat="-39.4085620623" lon="-72.7077377122"><ele>88.57</ele><time>2024-09-13T03:08:50Z</time></trkpt><trkpt lat="-39.4081826974" lon="-72.7076778654"><ele>88.31</ele><time>2024-09-13T03:08:54Z</time></trkpt><trkpt lat="-39.4080972020" lon="-72.7076357882"><ele>88.41</ele><time>2024-09-13T03:08:55Z</time></trkpt><trkpt lat="-39.4080243632" lon="-72.7075692359"><ele>88.46</ele><time>2024-09-13T03:08:56Z</time></trkpt><trkpt lat="-39.4079692941" lon="-72.7074837405"><ele>88.48</ele><time>2024-09-13T03:08:57Z</time></trkpt><trkpt lat="-39.4079306535" lon="-72.7073913720"><ele>88.58</ele><time>2024-09-13T03:08:58Z</time></trkpt><trkpt lat="-39.4079126325" lon="-72.7072957344"><ele>88.42</ele><time>2024-09-13T03:08:59Z</time></trkpt><trkpt lat="-39.4079257920" lon="-72.7072081435"><ele>88.54</ele><time>2024-09-13T03:09:00Z</time></trkpt><trkpt lat="-39.4079622533" lon="-72.7071409207"><ele>88.62</ele><time>2024-09-13T03:09:01Z</time></trkpt><trkpt lat="-39.4080114551" lon="-72.7070926409"><ele>88.72</ele><time>2024-09-13T03:09:02Z</time></trkpt><trkpt lat="-39.4080739841" lon="-72.7070690040"><ele>88.77</ele><time>2024-09-13T03:09:03Z</time></trkpt><trkpt lat="-39.4081474096" lon="-72.7070577722"><ele>88.70</ele><time>2024-09-13T03:09:04Z</time></trkpt><trkpt lat="-39.4082326535" lon="-72.7070484683"><ele>88.59</ele><time>2024-09-13T03:09:05Z</time></trkpt><trkpt lat="-39.4083184842" lon="-72.7070268430"><ele>88.70</ele><time>2024-09-13T03:09:06Z</time></trkpt><trkpt lat="-39.4084006269" lon="-72.7069927286"><ele>88.72</ele><time>2024-09-13T03:09:07Z</time></trkpt><trkpt lat="-39.4084815122" lon="-72.7069493942"><ele>88.73</ele><time>2024-09-13T03:09:08Z</time></trkpt><trkpt lat="-39.4086989388" lon="-72.7067752182"><ele>88.92</ele><time>2024-09-13T03:09:11Z</time></trkpt><trkpt lat="-39.4087276049" lon="-72.7066709474"><ele>88.93</ele><time>2024-09-13T03:09:12Z</time></trkpt><trkpt lat="-39.4087024592" lon="-72.7065334003"><ele>89.08</ele><time>2024-09-13T03:09:13Z</time></trkpt><trkpt lat="-39.4086856116" lon="-72.7064094320"><ele>89.12</ele><time>2024-09-13T03:09:14Z</time></trkpt><trkpt lat="-39.4086568616" lon="-72.7062908281"><ele>89.16</ele><time>2024-09-13T03:09:15Z</time></trkpt><trkpt lat="-39.4086095877" lon="-72.7061743196"><ele>89.36</ele><time>2024-09-13T03:09:16Z</time></trkpt><trkpt lat="-39.4085501600" lon="-72.7060548775"><ele>89.22</ele><time>2024-09-13T03:09:17Z</time></trkpt><trkpt lat="-39.4084898103" lon="-72.7059445716"><ele>89.17</ele><time>2024-09-13T03:09:18Z</time></trkpt><trkpt lat="-39.4084365014" lon="-72.7058429830"><ele>89.00</ele><time>2024-09-13T03:09:19Z</time></trkpt><trkpt lat="-39.4083989505" lon="-72.7057575714"><ele>89.13</ele><time>2024-09-13T03:09:20Z</time></trkpt><trkpt lat="-39.4083562866" lon="-72.7056948747"><ele>89.13</ele><time>2024-09-13T03:09:21Z</time></trkpt><trkpt lat="-39.4083193224" lon="-72.7056409791"><ele>89.09</ele><time>2024-09-13T03:09:22Z</time></trkpt><trkpt lat="-39.4082950149" lon="-72.7056055237"><ele>89.16</ele><time>2024-09-13T03:09:23Z</time></trkpt><trkpt lat="-39.4082837831" lon="-72.7055864129"><ele>89.01</ele><time>2024-09-13T03:09:24Z</time></trkpt><trkpt lat="-39.4082704559" lon="-72.7055972256"><ele>89.79</ele><time>2024-09-13T03:09:39Z</time></trkpt><trkpt lat="-39.4082676060" lon="-72.7055866644"><ele>89.07</ele><time>2024-09-13T03:10:13Z</time></trkpt><trkpt lat="-39.4082683604" lon="-72.7055981476"><ele>89.32</ele><time>2024-09-13T03:10:41Z</time></trkpt></trkseg></trk></gpx>