<?xml version="1.0" encoding="UTF-8" standalone="no" ?><gpx xmlns="http://www.topografix.com/GPX/1/1" xmlns:gpxx="http://www.garmin.com/xmlschemas/GpxExtensions/v3" xmlns:gpxtrkx="http://www.garmin.com/xmlschemas/TrackStatsExtension/v1" xmlns:wptx1="http://www.garmin.com/xmlschemas/WaypointExtension/v1" xmlns:gpxtpx="http://www.garmin.com/xmlschemas/TrackPointExtension/v1" creator="GPSMAP 64sx" version="1.1" xmlns:xsi="http://www.w3.org/2001/XMLSchema-instance" xsi:schemaLocation="http://www.topografix.com/GPX/1/1 http://www.topografix.com/GPX/1/1/gpx.xsd http://www.garmin.com/xmlschemas/GpxExtensions/v3 http://www8.garmin.com/xmlschemas/GpxExtensionsv3.xsd http://www.garmin.com/xmlschemas/TrackStatsExtension/v1 http://www8.garmin.com/xmlschemas/TrackStatsExtension.xsd http://www.garmin.com/xmlschemas/WaypointExtension/v1 http://www8.garmin.com/xmlschemas/WaypointExtensionv1.xsd http://www.garmin.com/xmlschemas/TrackPointExtension/v1 http://www.garmin.com/xmlschemas/TrackPointExtensionv1.xsd"><metadata><link href="http://www.garmin.com"><text>Garmin International</text></link><time>2024-08-15T01:23:17Z</time></metadata><trk><name>GPS HUISCAPI 240814</name><extensions><gpxx:TrackExtension><gpxx:DisplayColor>Cyan</gpxx:DisplayColor></gpxx:TrackExtension><gpxtrkx:TrackStatsExtension><gpxtrkx:Distance>12775.000</gpxtrkx:Distance><gpxtrkx:TotalElapsedTime>2033</gpxtrkx:TotalElapsedTime><gpxtrkx:MovingTime>1825</gpxtrkx:MovingTime><gpxtrkx:StoppedTime>208</gpxtrkx:StoppedTime><gpxtrkx:MovingSpeed>7.000</gpxtrkx:MovingSpeed><gpxtrkx:MaxSpeed>18.370</gpxtrkx:MaxSpeed><gpxtrkx:MaxElevation>273.871</gpxtrkx:MaxElevation><gpxtrkx:MinElevation>212.501</gpxtrkx:MinElevation><gpxtrkx:Ascent>250.000</gpxtrkx:Ascent><gpxtrkx:Descent>249.826</gpxtrkx:Descent><gpxtrkx:AvgAscentRate>0.175</gpxtrkx:AvgAscentRate><gpxtrkx:MaxAscentRate>1.685</gpxtrkx:MaxAscentRate><gpxtrkx:AvgDescentRate>0.155</gpxtrkx:AvgDescentRate><gpxtrkx:MaxDescentRate>-1.778</gpxtrkx:MaxDescentRate></gpxtrkx:TrackStatsExtension></extensions><trkseg><trkpt lat="-39.2730250955" lon="-72.4093442224"><ele>249.53</ele><time>2024-08-15T00:49:24Z</time></trkpt><trkpt lat="-39.2730239220" lon="-72.4093434680"><ele>249.53</ele><time>2024-08-15T00:49:25Z</time></trkpt><trkpt lat="-39.2730226647" lon="-72.4093401991"><ele>247.44</ele><time>2024-08-15T00:49:29Z</time></trkpt><trkpt lat="-39.2730702739" lon="-72.4093179032"><ele>247.66</ele><time>2024-08-15T00:49:55Z</time></trkpt><trkpt lat="-39.2731144466" lon="-72.4093130417"><ele>247.13</ele><time>2024-08-15T00:49:57Z</time></trkpt><trkpt lat="-39.2731523328" lon="-72.4093143828"><ele>241.38</ele><time>2024-08-15T00:49:58Z</time></trkpt><trkpt lat="-39.2732005287" lon="-72.4093239382"><ele>240.61</ele><time>2024-08-15T00:49:59Z</time></trkpt><trkpt lat="-39.2732545920" lon="-72.4093414564"><ele>247.74</ele><time>2024-08-15T00:50:00Z</time></trkpt><trkpt lat="-39.2733136844" lon="-72.4093602318"><ele>243.68</ele><time>2024-08-15T00:50:01Z</time></trkpt><trkpt lat="-39.2733787280" lon="-72.4093837850"><ele>248.43</ele><time>2024-08-15T00:50:02Z</time></trkpt><trkpt lat="-39.2741636094" lon="-72.4096423667"><ele>248.11</ele><time>2024-08-15T00:50:10Z</time></trkpt><trkpt lat="-39.2754953261" lon="-72.4100926425"><ele>248.65</ele><time>2024-08-15T00:50:20Z</time></trkpt><trkpt lat="-39.2759371363" lon="-72.4102151860"><ele>250.12</ele><time>2024-08-15T00:50:23Z</time></trkpt><trkpt lat="-39.2763672117" lon="-72.4102391582"><ele>250.82</ele><time>2024-08-15T00:50:26Z</time></trkpt><trkpt lat="-39.2765110452" lon="-72.4102185387"><ele>249.27</ele><time>2024-08-15T00:50:27Z</time></trkpt><trkpt lat="-39.2776565999" lon="-72.4097913131"><ele>248.08</ele><time>2024-08-15T00:50:36Z</time></trkpt><trkpt lat="-39.2779254913" lon="-72.4097264372"><ele>243.15</ele><time>2024-08-15T00:50:38Z</time></trkpt><trkpt lat="-39.2780587636" lon="-72.4097163789"><ele>244.75</ele><time>2024-08-15T00:50:39Z</time></trkpt><trkpt lat="-39.2781890184" lon="-72.4097187258"><ele>252.74</ele><time>2024-08-15T00:50:40Z</time></trkpt><trkpt lat="-39.2783217877" lon="-72.4097328912"><ele>238.36</ele><time>2024-08-15T00:50:41Z</time></trkpt><trkpt lat="-39.2784557305" lon="-72.4097607192"><ele>236.16</ele><time>2024-08-15T00:50:42Z</time></trkpt><trkpt lat="-39.2785901763" lon="-72.4098012876"><ele>241.45</ele><time>2024-08-15T00:50:43Z</time></trkpt><trkpt lat="-39.2789942678" lon="-72.4099956639"><ele>242.17</ele><time>2024-08-15T00:50:46Z</time></trkpt><trkpt lat="-39.2791229300" lon="-72.4100856017"><ele>240.72</ele><time>2024-08-15T00:50:47Z</time></trkpt><trkpt lat="-39.2792465631" lon="-72.4101902079"><ele>239.33</ele><time>2024-08-15T00:50:48Z</time></trkpt><trkpt lat="-39.2793774884" lon="-72.4103070516"><ele>239.92</ele><time>2024-08-15T00:50:49Z</time></trkpt><trkpt lat="-39.2795136105" lon="-72.4104300141"><ele>236.62</ele><time>2024-08-15T00:50:50Z</time></trkpt><trkpt lat="-39.2797654029" lon="-72.4107053597"><ele>235.07</ele><time>2024-08-15T00:50:52Z</time></trkpt><trkpt lat="-39.2799732741" lon="-72.4110061023"><ele>231.60</ele><time>2024-08-15T00:50:54Z</time></trkpt><trkpt lat="-39.2803361267" lon="-72.4114102777"><ele>231.08</ele><time>2024-08-15T00:50:57Z</time></trkpt><trkpt lat="-39.2804636993" lon="-72.4115175661"><ele>223.14</ele><time>2024-08-15T00:50:58Z</time></trkpt><trkpt lat="-39.2805874161" lon="-72.4116031453"><ele>221.81</ele><time>2024-08-15T00:50:59Z</time></trkpt><trkpt lat="-39.2809666134" lon="-72.4118088372"><ele>218.79</ele><time>2024-08-15T00:51:02Z</time></trkpt><trkpt lat="-39.2814330664" lon="-72.4120147806"><ele>218.43</ele><time>2024-08-15T00:51:06Z</time></trkpt><trkpt lat="-39.2816023808" lon="-72.4120851047"><ele>215.14</ele><time>2024-08-15T00:51:08Z</time></trkpt><trkpt lat="-39.2818696797" lon="-72.4121837597"><ele>216.43</ele><time>2024-08-15T00:51:12Z</time></trkpt><trkpt lat="-39.2827906832" lon="-72.4125373922"><ele>215.85</ele><time>2024-08-15T00:51:23Z</time></trkpt><trkpt lat="-39.2840265948" lon="-72.4129504524"><ele>216.40</ele><time>2024-08-15T00:51:38Z</time></trkpt><trkpt lat="-39.2851433158" lon="-72.4133429769"><ele>219.47</ele><time>2024-08-15T00:51:52Z</time></trkpt><trkpt lat="-39.2862837575" lon="-72.4137382675"><ele>220.75</ele><time>2024-08-15T00:52:04Z</time></trkpt><trkpt lat="-39.2874987982" lon="-72.4141535070"><ele>220.06</ele><time>2024-08-15T00:52:18Z</time></trkpt><trkpt lat="-39.2888926249" lon="-72.4143938161"><ele>217.60</ele><time>2024-08-15T00:52:33Z</time></trkpt><trkpt lat="-39.2897537816" lon="-72.4141328875"><ele>215.39</ele><time>2024-08-15T00:52:42Z</time></trkpt><trkpt lat="-39.2905588634" lon="-72.4135365989"><ele>214.65</ele><time>2024-08-15T00:52:53Z</time></trkpt><trkpt lat="-39.2911883444" lon="-72.4125925452"><ele>216.79</ele><time>2024-08-15T00:53:06Z</time></trkpt><trkpt lat="-39.2912215367" lon="-72.4125137553"><ele>216.79</ele><time>2024-08-15T00:53:07Z</time></trkpt><trkpt lat="-39.2913897615" lon="-72.4120742083"><ele>218.41</ele><time>2024-08-15T00:53:12Z</time></trkpt><trkpt lat="-39.2916295677" lon="-72.4113872275"><ele>221.90</ele><time>2024-08-15T00:53:19Z</time></trkpt><trkpt lat="-39.2916635145" lon="-72.4112894945"><ele>221.90</ele><time>2024-08-15T00:53:20Z</time></trkpt><trkpt lat="-39.2920562904" lon="-72.4101804849"><ele>225.12</ele><time>2024-08-15T00:53:32Z</time></trkpt><trkpt lat="-39.2920898180" lon="-72.4100868590"><ele>224.95</ele><time>2024-08-15T00:53:33Z</time></trkpt><trkpt lat="-39.2923077475" lon="-72.4094820209"><ele>230.99</ele><time>2024-08-15T00:53:41Z</time></trkpt><trkpt lat="-39.2923182249" lon="-72.4094173964"><ele>231.92</ele><time>2024-08-15T00:53:42Z</time></trkpt><trkpt lat="-39.2923177220" lon="-72.4093655124"><ele>226.62</ele><time>2024-08-15T00:53:43Z</time></trkpt><trkpt lat="-39.2923111841" lon="-72.4093310628"><ele>226.61</ele><time>2024-08-15T00:53:44Z</time></trkpt><trkpt lat="-39.2923020478" lon="-72.4093076773"><ele>226.61</ele><time>2024-08-15T00:53:45Z</time></trkpt><trkpt lat="-39.2922900617" lon="-72.4092850462"><ele>226.61</ele><time>2024-08-15T00:53:46Z</time></trkpt><trkpt lat="-39.2922413629" lon="-72.4092369340"><ele>226.62</ele><time>2024-08-15T00:53:48Z</time></trkpt><trkpt lat="-39.2915411387" lon="-72.4088788591"><ele>224.80</ele><time>2024-08-15T00:53:59Z</time></trkpt><trkpt lat="-39.2910144199" lon="-72.4086076207"><ele>223.08</ele><time>2024-08-15T00:54:08Z</time></trkpt><trkpt lat="-39.2909532320" lon="-72.4082081392"><ele>223.04</ele><time>2024-08-15T00:54:15Z</time></trkpt><trkpt lat="-39.2911117338" lon="-72.4077928159"><ele>223.00</ele><time>2024-08-15T00:54:21Z</time></trkpt><trkpt lat="-39.2914032564" lon="-72.4077089969"><ele>222.95</ele><time>2024-08-15T00:54:28Z</time></trkpt><trkpt lat="-39.2914506141" lon="-72.4077480566"><ele>222.94</ele><time>2024-08-15T00:54:29Z</time></trkpt><trkpt lat="-39.2921304703" lon="-72.4082515575"><ele>227.26</ele><time>2024-08-15T00:54:41Z</time></trkpt><trkpt lat="-39.2922862060" lon="-72.4083652999"><ele>223.33</ele><time>2024-08-15T00:54:44Z</time></trkpt><trkpt lat="-39.2923794128" lon="-72.4084382225"><ele>228.22</ele><time>2024-08-15T00:54:46Z</time></trkpt><trkpt lat="-39.2924240883" lon="-72.4084745999"><ele>228.46</ele><time>2024-08-15T00:54:47Z</time></trkpt><trkpt lat="-39.2925498169" lon="-72.4085999094"><ele>225.79</ele><time>2024-08-15T00:54:52Z</time></trkpt><trkpt lat="-39.2924245913" lon="-72.4090704694"><ele>228.78</ele><time>2024-08-15T00:55:00Z</time></trkpt><trkpt lat="-39.2923815083" lon="-72.4091998022"><ele>234.72</ele><time>2024-08-15T00:55:02Z</time></trkpt><trkpt lat="-39.2923686840" lon="-72.4092583917"><ele>235.19</ele><time>2024-08-15T00:55:03Z</time></trkpt><trkpt lat="-39.2923675943" lon="-72.4093027320"><ele>226.92</ele><time>2024-08-15T00:55:04Z</time></trkpt><trkpt lat="-39.2923756409" lon="-72.4093298893"><ele>224.52</ele><time>2024-08-15T00:55:05Z</time></trkpt><trkpt lat="-39.2923875432" lon="-72.4093467370"><ele>228.17</ele><time>2024-08-15T00:55:06Z</time></trkpt><trkpt lat="-39.2924005352" lon="-72.4093619082"><ele>228.77</ele><time>2024-08-15T00:55:07Z</time></trkpt><trkpt lat="-39.2925613001" lon="-72.4094614014"><ele>225.70</ele><time>2024-08-15T00:55:12Z</time></trkpt><trkpt lat="-39.2927912995" lon="-72.4095831066"><ele>223.08</ele><time>2024-08-15T00:55:16Z</time></trkpt><trkpt lat="-39.2929394078" lon="-72.4096774869"><ele>228.07</ele><time>2024-08-15T00:55:19Z</time></trkpt><trkpt lat="-39.2930835765" lon="-72.4097619765"><ele>232.85</ele><time>2024-08-15T00:55:22Z</time></trkpt><trkpt lat="-39.2931284197" lon="-72.4097890500"><ele>241.00</ele><time>2024-08-15T00:55:23Z</time></trkpt><trkpt lat="-39.2931710836" lon="-72.4098167941"><ele>229.49</ele><time>2024-08-15T00:55:24Z</time></trkpt><trkpt lat="-39.2932149209" lon="-72.4098403472"><ele>223.87</ele><time>2024-08-15T00:55:25Z</time></trkpt><trkpt lat="-39.2932590097" lon="-72.4098638166"><ele>225.92</ele><time>2024-08-15T00:55:26Z</time></trkpt><trkpt lat="-39.2933545634" lon="-72.4099155329"><ele>228.70</ele><time>2024-08-15T00:55:28Z</time></trkpt><trkpt lat="-39.2934029270" lon="-72.4099409301"><ele>232.07</ele><time>2024-08-15T00:55:29Z</time></trkpt><trkpt lat="-39.2934554815" lon="-72.4099691771"><ele>231.85</ele><time>2024-08-15T00:55:30Z</time></trkpt><trkpt lat="-39.2939216830" lon="-72.4102279264"><ele>239.56</ele><time>2024-08-15T00:55:40Z</time></trkpt><trkpt lat="-39.2939648498" lon="-72.4102337938"><ele>240.25</ele><time>2024-08-15T00:55:41Z</time></trkpt><trkpt lat="-39.2940103635" lon="-72.4102183711"><ele>242.65</ele><time>2024-08-15T00:55:42Z</time></trkpt><trkpt lat="-39.2940571345" lon="-72.4101873580"><ele>240.91</ele><time>2024-08-15T00:55:43Z</time></trkpt><trkpt lat="-39.2941036541" lon="-72.4101498071"><ele>234.25</ele><time>2024-08-15T00:55:44Z</time></trkpt><trkpt lat="-39.2941480782" lon="-72.4101135973"><ele>236.51</ele><time>2024-08-15T00:55:45Z</time></trkpt><trkpt lat="-39.2942657601" lon="-72.4100145232"><ele>239.52</ele><time>2024-08-15T00:55:48Z</time></trkpt><trkpt lat="-39.2943007126" lon="-72.4099870306"><ele>239.75</ele><time>2024-08-15T00:55:49Z</time></trkpt><trkpt lat="-39.2943335697" lon="-72.4099572748"><ele>241.83</ele><time>2024-08-15T00:55:50Z</time></trkpt><trkpt lat="-39.2943598051" lon="-72.4099210650"><ele>241.45</ele><time>2024-08-15T00:55:51Z</time></trkpt><trkpt lat="-39.2943776585" lon="-72.4098791555"><ele>240.40</ele><time>2024-08-15T00:55:52Z</time></trkpt><trkpt lat="-39.2943839449" lon="-72.4098338094"><ele>241.76</ele><time>2024-08-15T00:55:53Z</time></trkpt><trkpt lat="-39.2943741381" lon="-72.4097872898"><ele>241.53</ele><time>2024-08-15T00:55:54Z</time></trkpt><trkpt lat="-39.2943536863" lon="-72.4097393453"><ele>239.40</ele><time>2024-08-15T00:55:55Z</time></trkpt><trkpt lat="-39.2943244334" lon="-72.4096833542"><ele>240.60</ele><time>2024-08-15T00:55:56Z</time></trkpt><trkpt lat="-39.2941824440" lon="-72.4094205815"><ele>237.44</ele><time>2024-08-15T00:56:00Z</time></trkpt><trkpt lat="-39.2939033266" lon="-72.4088977184"><ele>234.35</ele><time>2024-08-15T00:56:08Z</time></trkpt><trkpt lat="-39.2937401310" lon="-72.4086573254"><ele>228.80</ele><time>2024-08-15T00:56:15Z</time></trkpt><trkpt lat="-39.2937010713" lon="-72.4086268991"><ele>236.80</ele><time>2024-08-15T00:56:16Z</time></trkpt><trkpt lat="-39.2936486006" lon="-72.4085924495"><ele>232.29</ele><time>2024-08-15T00:56:17Z</time></trkpt><trkpt lat="-39.2929951474" lon="-72.4081974104"><ele>232.96</ele><time>2024-08-15T00:56:28Z</time></trkpt><trkpt lat="-39.2928739451" lon="-72.4081082270"><ele>229.17</ele><time>2024-08-15T00:56:32Z</time></trkpt><trkpt lat="-39.2928465363" lon="-72.4080414232"><ele>225.54</ele><time>2024-08-15T00:56:36Z</time></trkpt><trkpt lat="-39.2928519845" lon="-72.4079174548"><ele>229.33</ele><time>2024-08-15T00:56:39Z</time></trkpt><trkpt lat="-39.2928667367" lon="-72.4078550097"><ele>230.75</ele><time>2024-08-15T00:56:40Z</time></trkpt><trkpt lat="-39.2928849254" lon="-72.4077939894"><ele>231.77</ele><time>2024-08-15T00:56:41Z</time></trkpt><trkpt lat="-39.2930576764" lon="-72.4073260278"><ele>233.50</ele><time>2024-08-15T00:56:47Z</time></trkpt><trkpt lat="-39.2932722531" lon="-72.4067239556"><ele>235.56</ele><time>2024-08-15T00:56:54Z</time></trkpt><trkpt lat="-39.2934210319" lon="-72.4063462671"><ele>240.19</ele><time>2024-08-15T00:57:02Z</time></trkpt><trkpt lat="-39.2934341915" lon="-72.4063352030"><ele>236.68</ele><time>2024-08-15T00:57:03Z</time></trkpt><trkpt lat="-39.2934517097" lon="-72.4063263182"><ele>232.25</ele><time>2024-08-15T00:57:04Z</time></trkpt><trkpt lat="-39.2934736703" lon="-72.4063219596"><ele>232.22</ele><time>2024-08-15T00:57:05Z</time></trkpt><trkpt lat="-39.2935392167" lon="-72.4063338619"><ele>232.15</ele><time>2024-08-15T00:57:07Z</time></trkpt><trkpt lat="-39.2935853172" lon="-72.4063545652"><ele>232.14</ele><time>2024-08-15T00:57:08Z</time></trkpt><trkpt lat="-39.2936328426" lon="-72.4063792080"><ele>232.13</ele><time>2024-08-15T00:57:09Z</time></trkpt><trkpt lat="-39.2937807832" lon="-72.4064659607"><ele>241.93</ele><time>2024-08-15T00:57:12Z</time></trkpt><trkpt lat="-39.2939640116" lon="-72.4065756798"><ele>243.56</ele><time>2024-08-15T00:57:15Z</time></trkpt><trkpt lat="-39.2943587992" lon="-72.4068389554"><ele>240.17</ele><time>2024-08-15T00:57:23Z</time></trkpt><trkpt lat="-39.2944080848" lon="-72.4068977125"><ele>237.50</ele><time>2024-08-15T00:57:25Z</time></trkpt><trkpt lat="-39.2944214959" lon="-72.4069424719"><ele>237.50</ele><time>2024-08-15T00:57:26Z</time></trkpt><trkpt lat="-39.2944222502" lon="-72.4069972895"><ele>237.50</ele><time>2024-08-15T00:57:27Z</time></trkpt><trkpt lat="-39.2944126111" lon="-72.4070601538"><ele>237.50</ele><time>2024-08-15T00:57:28Z</time></trkpt><trkpt lat="-39.2943933327" lon="-72.4071288016"><ele>237.50</ele><time>2024-08-15T00:57:29Z</time></trkpt><trkpt lat="-39.2943670135" lon="-72.4072002154"><ele>237.50</ele><time>2024-08-15T00:57:30Z</time></trkpt><trkpt lat="-39.2943423707" lon="-72.4072724674"><ele>240.68</ele><time>2024-08-15T00:57:31Z</time></trkpt><trkpt lat="-39.2943180632" lon="-72.4073443003"><ele>240.98</ele><time>2024-08-15T00:57:32Z</time></trkpt><trkpt lat="-39.2941558734" lon="-72.4077905528"><ele>237.14</ele><time>2024-08-15T00:57:39Z</time></trkpt><trkpt lat="-39.2941083480" lon="-72.4079103302"><ele>236.27</ele><time>2024-08-15T00:57:41Z</time></trkpt><trkpt lat="-39.2940298095" lon="-72.4081064668"><ele>236.04</ele><time>2024-08-15T00:57:44Z</time></trkpt><trkpt lat="-39.2938465811" lon="-72.4085928686"><ele>242.05</ele><time>2024-08-15T00:57:52Z</time></trkpt><trkpt lat="-39.2938475870" lon="-72.4086336046"><ele>237.41</ele><time>2024-08-15T00:57:53Z</time></trkpt><trkpt lat="-39.2938595731" lon="-72.4086687248"><ele>233.32</ele><time>2024-08-15T00:57:54Z</time></trkpt><trkpt lat="-39.2938808631" lon="-72.4086957145"><ele>234.45</ele><time>2024-08-15T00:57:55Z</time></trkpt><trkpt lat="-39.2939122953" lon="-72.4087023363"><ele>231.44</ele><time>2024-08-15T00:57:56Z</time></trkpt><trkpt lat="-39.2939511035" lon="-72.4086917751"><ele>235.48</ele><time>2024-08-15T00:57:57Z</time></trkpt><trkpt lat="-39.2939977907" lon="-72.4086657912"><ele>231.79</ele><time>2024-08-15T00:57:58Z</time></trkpt><trkpt lat="-39.2940503452" lon="-72.4086268991"><ele>234.46</ele><time>2024-08-15T00:57:59Z</time></trkpt><trkpt lat="-39.2941062525" lon="-72.4085810501"><ele>235.84</ele><time>2024-08-15T00:58:00Z</time></trkpt><trkpt lat="-39.2941609863" lon="-72.4085342791"><ele>235.80</ele><time>2024-08-15T00:58:01Z</time></trkpt><trkpt lat="-39.2943884712" lon="-72.4083249830"><ele>238.15</ele><time>2024-08-15T00:58:05Z</time></trkpt><trkpt lat="-39.2944489047" lon="-72.4082736857"><ele>242.04</ele><time>2024-08-15T00:58:06Z</time></trkpt><trkpt lat="-39.2945105955" lon="-72.4082223885"><ele>241.76</ele><time>2024-08-15T00:58:07Z</time></trkpt><trkpt lat="-39.2951437645" lon="-72.4076824263"><ele>245.69</ele><time>2024-08-15T00:58:18Z</time></trkpt><trkpt lat="-39.2952765338" lon="-72.4075614754"><ele>249.86</ele><time>2024-08-15T00:58:21Z</time></trkpt><trkpt lat="-39.2953002546" lon="-72.4075254332"><ele>249.70</ele><time>2024-08-15T00:58:22Z</time></trkpt><trkpt lat="-39.2953124084" lon="-72.4074870441"><ele>243.98</ele><time>2024-08-15T00:58:23Z</time></trkpt><trkpt lat="-39.2953096423" lon="-72.4074523430"><ele>246.76</ele><time>2024-08-15T00:58:24Z</time></trkpt><trkpt lat="-39.2952914536" lon="-72.4074201565"><ele>246.78</ele><time>2024-08-15T00:58:25Z</time></trkpt><trkpt lat="-39.2952612787" lon="-72.4073927477"><ele>246.35</ele><time>2024-08-15T00:58:26Z</time></trkpt><trkpt lat="-39.2952158488" lon="-72.4073679373"><ele>246.85</ele><time>2024-08-15T00:58:27Z</time></trkpt><trkpt lat="-39.2951578461" lon="-72.4073364213"><ele>246.14</ele><time>2024-08-15T00:58:28Z</time></trkpt><trkpt lat="-39.2946317140" lon="-72.4070112873"><ele>242.95</ele><time>2024-08-15T00:58:36Z</time></trkpt><trkpt lat="-39.2945494875" lon="-72.4069541227"><ele>238.93</ele><time>2024-08-15T00:58:38Z</time></trkpt><trkpt lat="-39.2945230007" lon="-72.4069267977"><ele>234.27</ele><time>2024-08-15T00:58:39Z</time></trkpt><trkpt lat="-39.2945046443" lon="-72.4068888277"><ele>234.28</ele><time>2024-08-15T00:58:40Z</time></trkpt><trkpt lat="-39.2944997828" lon="-72.4067892507"><ele>234.27</ele><time>2024-08-15T00:58:42Z</time></trkpt><trkpt lat="-39.2945100088" lon="-72.4067278113"><ele>234.23</ele><time>2024-08-15T00:58:43Z</time></trkpt><trkpt lat="-39.2945302092" lon="-72.4066558946"><ele>234.31</ele><time>2024-08-15T00:58:44Z</time></trkpt><trkpt lat="-39.2945604678" lon="-72.4065794516"><ele>234.31</ele><time>2024-08-15T00:58:45Z</time></trkpt><trkpt lat="-39.2945913132" lon="-72.4065044336"><ele>234.37</ele><time>2024-08-15T00:58:46Z</time></trkpt><trkpt lat="-39.2946825083" lon="-72.4062821455"><ele>244.24</ele><time>2024-08-15T00:58:49Z</time></trkpt><trkpt lat="-39.2948722746" lon="-72.4057338014"><ele>256.22</ele><time>2024-08-15T00:58:57Z</time></trkpt><trkpt lat="-39.2948943190" lon="-72.4056750443"><ele>249.02</ele><time>2024-08-15T00:58:58Z</time></trkpt><trkpt lat="-39.2949183751" lon="-72.4056156166"><ele>242.77</ele><time>2024-08-15T00:58:59Z</time></trkpt><trkpt lat="-39.2949436046" lon="-72.4055515788"><ele>245.47</ele><time>2024-08-15T00:59:00Z</time></trkpt><trkpt lat="-39.2949904595" lon="-72.4053643271"><ele>245.36</ele><time>2024-08-15T00:59:03Z</time></trkpt><trkpt lat="-39.2949941475" lon="-72.4053066596"><ele>244.95</ele><time>2024-08-15T00:59:04Z</time></trkpt><trkpt lat="-39.2949905433" lon="-72.4052511714"><ele>246.57</ele><time>2024-08-15T00:59:05Z</time></trkpt><trkpt lat="-39.2949732766" lon="-72.4051275384"><ele>245.62</ele><time>2024-08-15T00:59:07Z</time></trkpt><trkpt lat="-39.2949258350" lon="-72.4047544599"><ele>241.87</ele><time>2024-08-15T00:59:14Z</time></trkpt><trkpt lat="-39.2949276790" lon="-72.4047420546"><ele>246.87</ele><time>2024-08-15T00:59:15Z</time></trkpt><trkpt lat="-39.2949991766" lon="-72.4046440702"><ele>244.17</ele><time>2024-08-15T00:59:19Z</time></trkpt><trkpt lat="-39.2950410023" lon="-72.4046270549"><ele>244.17</ele><time>2024-08-15T00:59:20Z</time></trkpt><trkpt lat="-39.2952617817" lon="-72.4045577366"><ele>248.43</ele><time>2024-08-15T00:59:24Z</time></trkpt><trkpt lat="-39.2953319382" lon="-72.4045376200"><ele>248.31</ele><time>2024-08-15T00:59:25Z</time></trkpt><trkpt lat="-39.2957978044" lon="-72.4044037610"><ele>251.86</ele><time>2024-08-15T00:59:32Z</time></trkpt><trkpt lat="-39.2958368640" lon="-72.4043898471"><ele>260.56</ele><time>2024-08-15T00:59:33Z</time></trkpt><trkpt lat="-39.2958569806" lon="-72.4043821357"><ele>248.17</ele><time>2024-08-15T00:59:34Z</time></trkpt><trkpt lat="-39.2958951183" lon="-72.4043812137"><ele>243.27</ele><time>2024-08-15T00:59:36Z</time></trkpt><trkpt lat="-39.2959216051" lon="-72.4043884221"><ele>243.82</ele><time>2024-08-15T00:59:37Z</time></trkpt><trkpt lat="-39.2959761713" lon="-72.4044376239"><ele>248.15</ele><time>2024-08-15T00:59:39Z</time></trkpt><trkpt lat="-39.2959998921" lon="-72.4044822156"><ele>248.64</ele><time>2024-08-15T00:59:40Z</time></trkpt><trkpt lat="-39.2960191704" lon="-72.4045484327"><ele>248.97</ele><time>2024-08-15T00:59:41Z</time></trkpt><trkpt lat="-39.2960343417" lon="-72.4046315812"><ele>251.13</ele><time>2024-08-15T00:59:42Z</time></trkpt><trkpt lat="-39.2960502673" lon="-72.4047191720"><ele>252.74</ele><time>2024-08-15T00:59:43Z</time></trkpt><trkpt lat="-39.2960640974" lon="-72.4048062600"><ele>250.24</ele><time>2024-08-15T00:59:44Z</time></trkpt><trkpt lat="-39.2960770894" lon="-72.4048920907"><ele>249.14</ele><time>2024-08-15T00:59:45Z</time></trkpt><trkpt lat="-39.2960914224" lon="-72.4049824476"><ele>248.85</ele><time>2024-08-15T00:59:46Z</time></trkpt><trkpt lat="-39.2961903289" lon="-72.4055544287"><ele>248.42</ele><time>2024-08-15T00:59:53Z</time></trkpt><trkpt lat="-39.2961960286" lon="-72.4056117609"><ele>247.53</ele><time>2024-08-15T00:59:54Z</time></trkpt><trkpt lat="-39.2961934302" lon="-72.4056621362"><ele>245.46</ele><time>2024-08-15T00:59:55Z</time></trkpt><trkpt lat="-39.2961818632" lon="-72.4057055544"><ele>245.45</ele><time>2024-08-15T00:59:56Z</time></trkpt><trkpt lat="-39.2961553764" lon="-72.4057436083"><ele>245.44</ele><time>2024-08-15T00:59:57Z</time></trkpt><trkpt lat="-39.2961124610" lon="-72.4057753757"><ele>245.43</ele><time>2024-08-15T00:59:58Z</time></trkpt><trkpt lat="-39.2960583139" lon="-72.4058000185"><ele>245.43</ele><time>2024-08-15T00:59:59Z</time></trkpt><trkpt lat="-39.2959949467" lon="-72.4058214761"><ele>245.43</ele><time>2024-08-15T01:00:00Z</time></trkpt><trkpt lat="-39.2958664522" lon="-72.4058541656"><ele>254.62</ele><time>2024-08-15T01:00:02Z</time></trkpt><trkpt lat="-39.2958050128" lon="-72.4058687501"><ele>253.72</ele><time>2024-08-15T01:00:03Z</time></trkpt><trkpt lat="-39.2957444116" lon="-72.4058856815"><ele>249.63</ele><time>2024-08-15T01:00:04Z</time></trkpt><trkpt lat="-39.2956284899" lon="-72.4059192929"><ele>248.75</ele><time>2024-08-15T01:00:06Z</time></trkpt><trkpt lat="-39.2955205310" lon="-72.4059517309"><ele>247.10</ele><time>2024-08-15T01:00:08Z</time></trkpt><trkpt lat="-39.2952041142" lon="-72.4060934689"><ele>246.49</ele><time>2024-08-15T01:00:16Z</time></trkpt><trkpt lat="-39.2951953970" lon="-72.4061477836"><ele>245.40</ele><time>2024-08-15T01:00:17Z</time></trkpt><trkpt lat="-39.2951983307" lon="-72.4062101450"><ele>246.42</ele><time>2024-08-15T01:00:18Z</time></trkpt><trkpt lat="-39.2952065449" lon="-72.4062763620"><ele>246.55</ele><time>2024-08-15T01:00:19Z</time></trkpt><trkpt lat="-39.2952151783" lon="-72.4063433334"><ele>245.46</ele><time>2024-08-15T01:00:20Z</time></trkpt><trkpt lat="-39.2953483667" lon="-72.4072196614"><ele>246.40</ele><time>2024-08-15T01:00:33Z</time></trkpt><trkpt lat="-39.2953766976" lon="-72.4073422886"><ele>249.36</ele><time>2024-08-15T01:00:36Z</time></trkpt><trkpt lat="-39.2954204511" lon="-72.4074051529"><ele>247.46</ele><time>2024-08-15T01:00:38Z</time></trkpt><trkpt lat="-39.2954568285" lon="-72.4074218329"><ele>246.51</ele><time>2024-08-15T01:00:39Z</time></trkpt><trkpt lat="-39.2955048569" lon="-72.4074210785"><ele>247.73</ele><time>2024-08-15T01:00:40Z</time></trkpt><trkpt lat="-39.2955633625" lon="-72.4074064102"><ele>245.59</ele><time>2024-08-15T01:00:41Z</time></trkpt><trkpt lat="-39.2961077671" lon="-72.4072240200"><ele>248.29</ele><time>2024-08-15T01:00:49Z</time></trkpt><trkpt lat="-39.2967302911" lon="-72.4070291407"><ele>249.52</ele><time>2024-08-15T01:00:59Z</time></trkpt><trkpt lat="-39.2967917304" lon="-72.4070039950"><ele>246.33</ele><time>2024-08-15T01:01:01Z</time></trkpt><trkpt lat="-39.2968592048" lon="-72.4068944436"><ele>240.48</ele><time>2024-08-15T01:01:06Z</time></trkpt><trkpt lat="-39.2968701012" lon="-72.4068530370"><ele>241.89</ele><time>2024-08-15T01:01:07Z</time></trkpt><trkpt lat="-39.2969442811" lon="-72.4067659490"><ele>250.05</ele><time>2024-08-15T01:01:10Z</time></trkpt><trkpt lat="-39.2969667446" lon="-72.4067254644"><ele>253.12</ele><time>2024-08-15T01:01:11Z</time></trkpt><trkpt lat="-39.2970027030" lon="-72.4066284858"><ele>243.48</ele><time>2024-08-15T01:01:13Z</time></trkpt><trkpt lat="-39.2970172036" lon="-72.4065753445"><ele>247.55</ele><time>2024-08-15T01:01:14Z</time></trkpt><trkpt lat="-39.2970345542" lon="-72.4064561538"><ele>254.17</ele><time>2024-08-15T01:01:16Z</time></trkpt><trkpt lat="-39.2970304471" lon="-72.4064035155"><ele>253.55</ele><time>2024-08-15T01:01:17Z</time></trkpt><trkpt lat="-39.2970169522" lon="-72.4063569959"><ele>247.14</ele><time>2024-08-15T01:01:18Z</time></trkpt><trkpt lat="-39.2969974224" lon="-72.4063111469"><ele>243.53</ele><time>2024-08-15T01:01:19Z</time></trkpt><trkpt lat="-39.2969560996" lon="-72.4062122405"><ele>248.33</ele><time>2024-08-15T01:01:21Z</time></trkpt><trkpt lat="-39.2969419342" lon="-72.4061616976"><ele>248.06</ele><time>2024-08-15T01:01:22Z</time></trkpt><trkpt lat="-39.2968949955" lon="-72.4059634656"><ele>255.55</ele><time>2024-08-15T01:01:26Z</time></trkpt><trkpt lat="-39.2968887929" lon="-72.4059142638"><ele>244.47</ele><time>2024-08-15T01:01:27Z</time></trkpt><trkpt lat="-39.2968856078" lon="-72.4058655649"><ele>246.47</ele><time>2024-08-15T01:01:28Z</time></trkpt><trkpt lat="-39.2969024554" lon="-72.4057754595"><ele>243.14</ele><time>2024-08-15T01:01:30Z</time></trkpt><trkpt lat="-39.2969217338" lon="-72.4057374056"><ele>246.94</ele><time>2024-08-15T01:01:31Z</time></trkpt><trkpt lat="-39.2971374001" lon="-72.4056429416"><ele>250.24</ele><time>2024-08-15T01:01:39Z</time></trkpt><trkpt lat="-39.2971603666" lon="-72.4056233279"><ele>254.06</ele><time>2024-08-15T01:01:40Z</time></trkpt><trkpt lat="-39.2971881106" lon="-72.4055471364"><ele>249.35</ele><time>2024-08-15T01:01:42Z</time></trkpt><trkpt lat="-39.2971845064" lon="-72.4054462183"><ele>245.37</ele><time>2024-08-15T01:01:44Z</time></trkpt><trkpt lat="-39.2971252464" lon="-72.4051585514"><ele>249.20</ele><time>2024-08-15T01:01:50Z</time></trkpt><trkpt lat="-39.2971160263" lon="-72.4051154684"><ele>254.25</ele><time>2024-08-15T01:01:51Z</time></trkpt><trkpt lat="-39.2971097399" lon="-72.4050722178"><ele>245.30</ele><time>2024-08-15T01:01:52Z</time></trkpt><trkpt lat="-39.2971079797" lon="-72.4050274584"><ele>245.30</ele><time>2024-08-15T01:01:53Z</time></trkpt><trkpt lat="-39.2971485481" lon="-72.4048614129"><ele>250.27</ele><time>2024-08-15T01:01:57Z</time></trkpt><trkpt lat="-39.2971860152" lon="-72.4047947768"><ele>254.48</ele><time>2024-08-15T01:02:00Z</time></trkpt><trkpt lat="-39.2971985880" lon="-72.4047622550"><ele>251.45</ele><time>2024-08-15T01:02:01Z</time></trkpt><trkpt lat="-39.2972009350" lon="-72.4047155678"><ele>252.32</ele><time>2024-08-15T01:02:02Z</time></trkpt><trkpt lat="-39.2971951514" lon="-72.4046563916"><ele>250.94</ele><time>2024-08-15T01:02:03Z</time></trkpt><trkpt lat="-39.2971737776" lon="-72.4045067746"><ele>250.21</ele><time>2024-08-15T01:02:05Z</time></trkpt><trkpt lat="-39.2970702611" lon="-72.4038713425"><ele>257.56</ele><time>2024-08-15T01:02:14Z</time></trkpt><trkpt lat="-39.2970626336" lon="-72.4038446043"><ele>247.43</ele><time>2024-08-15T01:02:15Z</time></trkpt><trkpt lat="-39.2970592808" lon="-72.4038163573"><ele>247.44</ele><time>2024-08-15T01:02:16Z</time></trkpt><trkpt lat="-39.2970634717" lon="-72.4037836678"><ele>248.33</ele><time>2024-08-15T01:02:17Z</time></trkpt><trkpt lat="-39.2970792297" lon="-72.4037526548"><ele>244.08</ele><time>2024-08-15T01:02:18Z</time></trkpt><trkpt lat="-39.2971101590" lon="-72.4037279282"><ele>249.20</ele><time>2024-08-15T01:02:19Z</time></trkpt><trkpt lat="-39.2971520685" lon="-72.4037108291"><ele>252.35</ele><time>2024-08-15T01:02:20Z</time></trkpt><trkpt lat="-39.2971968278" lon="-72.4037001003"><ele>252.97</ele><time>2024-08-15T01:02:21Z</time></trkpt><trkpt lat="-39.2972512264" lon="-72.4036882818"><ele>253.86</ele><time>2024-08-15T01:02:22Z</time></trkpt><trkpt lat="-39.2977800407" lon="-72.4035446998"><ele>251.74</ele><time>2024-08-15T01:02:31Z</time></trkpt><trkpt lat="-39.2978263926" lon="-72.4035505671"><ele>250.68</ele><time>2024-08-15T01:02:32Z</time></trkpt><trkpt lat="-39.2978705652" lon="-72.4035745393"><ele>249.37</ele><time>2024-08-15T01:02:33Z</time></trkpt><trkpt lat="-39.2979102954" lon="-72.4036132637"><ele>250.40</ele><time>2024-08-15T01:02:34Z</time></trkpt><trkpt lat="-39.2979475111" lon="-72.4036634713"><ele>252.71</ele><time>2024-08-15T01:02:35Z</time></trkpt><trkpt lat="-39.2979826313" lon="-72.4037250783"><ele>254.09</ele><time>2024-08-15T01:02:36Z</time></trkpt><trkpt lat="-39.2980177514" lon="-72.4037911277"><ele>252.22</ele><time>2024-08-15T01:02:37Z</time></trkpt><trkpt lat="-39.2984839529" lon="-72.4045952875"><ele>253.89</ele><time>2024-08-15T01:02:50Z</time></trkpt><trkpt lat="-39.2985202465" lon="-72.4046380352"><ele>256.68</ele><time>2024-08-15T01:02:51Z</time></trkpt><trkpt lat="-39.2985614855" lon="-72.4046687968"><ele>248.23</ele><time>2024-08-15T01:02:52Z</time></trkpt><trkpt lat="-39.2986062448" lon="-72.4046866503"><ele>250.08</ele><time>2024-08-15T01:02:53Z</time></trkpt><trkpt lat="-39.2986554466" lon="-72.4046912603"><ele>250.49</ele><time>2024-08-15T01:02:54Z</time></trkpt><trkpt lat="-39.2987063248" lon="-72.4046857283"><ele>248.44</ele><time>2024-08-15T01:02:55Z</time></trkpt><trkpt lat="-39.2987620644" lon="-72.4046755023"><ele>248.29</ele><time>2024-08-15T01:02:56Z</time></trkpt><trkpt lat="-39.2994808964" lon="-72.4044601712"><ele>248.30</ele><time>2024-08-15T01:03:10Z</time></trkpt><trkpt lat="-39.3001711462" lon="-72.4042867497"><ele>249.48</ele><time>2024-08-15T01:03:20Z</time></trkpt><trkpt lat="-39.3003437296" lon="-72.4042281602"><ele>254.21</ele><time>2024-08-15T01:03:23Z</time></trkpt><trkpt lat="-39.3003818672" lon="-72.4041898549"><ele>252.61</ele><time>2024-08-15T01:03:24Z</time></trkpt><trkpt lat="-39.3004013132" lon="-72.4041298404"><ele>252.00</ele><time>2024-08-15T01:03:25Z</time></trkpt><trkpt lat="-39.3004092760" lon="-72.4040568341"><ele>250.25</ele><time>2024-08-15T01:03:26Z</time></trkpt><trkpt lat="-39.3004074320" lon="-72.4039787147"><ele>247.93</ele><time>2024-08-15T01:03:27Z</time></trkpt><trkpt lat="-39.3003991339" lon="-72.4038946442"><ele>250.08</ele><time>2024-08-15T01:03:28Z</time></trkpt><trkpt lat="-39.3003832083" lon="-72.4038067181"><ele>247.66</ele><time>2024-08-15T01:03:29Z</time></trkpt><trkpt lat="-39.3003641814" lon="-72.4037162773"><ele>250.65</ele><time>2024-08-15T01:03:30Z</time></trkpt><trkpt lat="-39.3003058434" lon="-72.4034468830"><ele>252.73</ele><time>2024-08-15T01:03:33Z</time></trkpt><trkpt lat="-39.3002556358" lon="-72.4031877145"><ele>255.36</ele><time>2024-08-15T01:03:36Z</time></trkpt><trkpt lat="-39.3002277240" lon="-72.4030442163"><ele>256.41</ele><time>2024-08-15T01:03:38Z</time></trkpt><trkpt lat="-39.3002154864" lon="-72.4029812682"><ele>259.48</ele><time>2024-08-15T01:03:39Z</time></trkpt><trkpt lat="-39.3002036680" lon="-72.4029303901"><ele>259.42</ele><time>2024-08-15T01:03:40Z</time></trkpt><trkpt lat="-39.3001636025" lon="-72.4028558750"><ele>255.25</ele><time>2024-08-15T01:03:42Z</time></trkpt><trkpt lat="-39.3001327571" lon="-72.4028336629"><ele>265.09</ele><time>2024-08-15T01:03:43Z</time></trkpt><trkpt lat="-39.3000977207" lon="-72.4028223474"><ele>256.93</ele><time>2024-08-15T01:03:44Z</time></trkpt><trkpt lat="-39.3000552244" lon="-72.4028215092"><ele>260.13</ele><time>2024-08-15T01:03:45Z</time></trkpt><trkpt lat="-39.3000055198" lon="-72.4028327409"><ele>259.42</ele><time>2024-08-15T01:03:46Z</time></trkpt><trkpt lat="-39.2999521270" lon="-72.4028488342"><ele>257.64</ele><time>2024-08-15T01:03:47Z</time></trkpt><trkpt lat="-39.2998977285" lon="-72.4028648436"><ele>257.48</ele><time>2024-08-15T01:03:48Z</time></trkpt><trkpt lat="-39.2998446710" lon="-72.4028829485"><ele>254.45</ele><time>2024-08-15T01:03:49Z</time></trkpt><trkpt lat="-39.2997867521" lon="-72.4029071722"><ele>254.28</ele><time>2024-08-15T01:03:50Z</time></trkpt><trkpt lat="-39.2996144202" lon="-72.4029643368"><ele>252.61</ele><time>2024-08-15T01:03:53Z</time></trkpt><trkpt lat="-39.2991485540" lon="-72.4031151272"><ele>250.06</ele><time>2024-08-15T01:04:02Z</time></trkpt><trkpt lat="-39.2986143753" lon="-72.4033028819"><ele>251.43</ele><time>2024-08-15T01:04:13Z</time></trkpt><trkpt lat="-39.2981321644" lon="-72.4034179654"><ele>249.90</ele><time>2024-08-15T01:04:24Z</time></trkpt><trkpt lat="-39.2980233673" lon="-72.4033337273"><ele>254.27</ele><time>2024-08-15T01:04:28Z</time></trkpt><trkpt lat="-39.2980033346" lon="-72.4032895546"><ele>250.74</ele><time>2024-08-15T01:04:29Z</time></trkpt><trkpt lat="-39.2979852296" lon="-72.4032350723"><ele>251.95</ele><time>2024-08-15T01:04:30Z</time></trkpt><trkpt lat="-39.2979678791" lon="-72.4031680170"><ele>251.21</ele><time>2024-08-15T01:04:31Z</time></trkpt><trkpt lat="-39.2979532946" lon="-72.4030875508"><ele>252.66</ele><time>2024-08-15T01:04:32Z</time></trkpt><trkpt lat="-39.2979420628" lon="-72.4029984511"><ele>253.80</ele><time>2024-08-15T01:04:33Z</time></trkpt><trkpt lat="-39.2979309987" lon="-72.4029061664"><ele>256.04</ele><time>2024-08-15T01:04:34Z</time></trkpt><trkpt lat="-39.2978913523" lon="-72.4026322458"><ele>254.31</ele><time>2024-08-15T01:04:37Z</time></trkpt><trkpt lat="-39.2978323437" lon="-72.4022873305"><ele>251.21</ele><time>2024-08-15T01:04:42Z</time></trkpt><trkpt lat="-39.2978273984" lon="-72.4022317585"><ele>249.86</ele><time>2024-08-15T01:04:43Z</time></trkpt><trkpt lat="-39.2978294939" lon="-72.4021774437"><ele>252.63</ele><time>2024-08-15T01:04:44Z</time></trkpt><trkpt lat="-39.2978381272" lon="-72.4021288287"><ele>248.99</ele><time>2024-08-15T01:04:45Z</time></trkpt><trkpt lat="-39.2978558131" lon="-72.4020875897"><ele>249.14</ele><time>2024-08-15T01:04:46Z</time></trkpt><trkpt lat="-39.2978854850" lon="-72.4020543974"><ele>253.81</ele><time>2024-08-15T01:04:47Z</time></trkpt><trkpt lat="-39.2979299091" lon="-72.4020265695"><ele>253.55</ele><time>2024-08-15T01:04:48Z</time></trkpt><trkpt lat="-39.2979838047" lon="-72.4020051118"><ele>254.04</ele><time>2024-08-15T01:04:49Z</time></trkpt><trkpt lat="-39.2980439868" lon="-72.4019861687"><ele>254.77</ele><time>2024-08-15T01:04:50Z</time></trkpt><trkpt lat="-39.2981093656" lon="-72.4019711651"><ele>254.82</ele><time>2024-08-15T01:04:51Z</time></trkpt><trkpt lat="-39.2982424702" lon="-72.4019415770"><ele>258.32</ele><time>2024-08-15T01:04:53Z</time></trkpt><trkpt lat="-39.2983685341" lon="-72.4019145034"><ele>255.06</ele><time>2024-08-15T01:04:55Z</time></trkpt><trkpt lat="-39.2991058901" lon="-72.4016639683"><ele>256.30</ele><time>2024-08-15T01:05:07Z</time></trkpt><trkpt lat="-39.2993401643" lon="-72.4016098212"><ele>261.26</ele><time>2024-08-15T01:05:10Z</time></trkpt><trkpt lat="-39.2994162720" lon="-72.4015914649"><ele>264.62</ele><time>2024-08-15T01:05:11Z</time></trkpt><trkpt lat="-39.2994886916" lon="-72.4015729409"><ele>258.99</ele><time>2024-08-15T01:05:12Z</time></trkpt><trkpt lat="-39.2995584290" lon="-72.4015534949"><ele>259.64</ele><time>2024-08-15T01:05:13Z</time></trkpt><trkpt lat="-39.2997899372" lon="-72.4014978390"><ele>260.51</ele><time>2024-08-15T01:05:17Z</time></trkpt><trkpt lat="-39.2998644523" lon="-72.4014740344"><ele>263.90</ele><time>2024-08-15T01:05:19Z</time></trkpt><trkpt lat="-39.2998890951" lon="-72.4014616292"><ele>257.79</ele><time>2024-08-15T01:05:20Z</time></trkpt><trkpt lat="-39.2999098822" lon="-72.4014407583"><ele>260.35</ele><time>2024-08-15T01:05:21Z</time></trkpt><trkpt lat="-39.2999287415" lon="-72.4014072306"><ele>263.79</ele><time>2024-08-15T01:05:22Z</time></trkpt><trkpt lat="-39.2999413982" lon="-72.4013617169"><ele>261.46</ele><time>2024-08-15T01:05:23Z</time></trkpt><trkpt lat="-39.2999444157" lon="-72.4013037980"><ele>263.42</ele><time>2024-08-15T01:05:24Z</time></trkpt><trkpt lat="-39.2999383807" lon="-72.4012395088"><ele>260.52</ele><time>2024-08-15T01:05:25Z</time></trkpt><trkpt lat="-39.2998932861" lon="-72.4010018818"><ele>257.20</ele><time>2024-08-15T01:05:28Z</time></trkpt><trkpt lat="-39.2998767737" lon="-72.4009104352"><ele>258.39</ele><time>2024-08-15T01:05:29Z</time></trkpt><trkpt lat="-39.2998471856" lon="-72.4007255305"><ele>259.89</ele><time>2024-08-15T01:05:31Z</time></trkpt><trkpt lat="-39.2998248897" lon="-72.4005547073"><ele>259.17</ele><time>2024-08-15T01:05:33Z</time></trkpt><trkpt lat="-39.2997651268" lon="-72.4002113845"><ele>261.73</ele><time>2024-08-15T01:05:38Z</time></trkpt><trkpt lat="-39.2997424118" lon="-72.4001642782"><ele>261.85</ele><time>2024-08-15T01:05:39Z</time></trkpt><trkpt lat="-39.2997119017" lon="-72.4001260567"><ele>259.17</ele><time>2024-08-15T01:05:40Z</time></trkpt><trkpt lat="-39.2996716686" lon="-72.4001040123"><ele>260.20</ele><time>2024-08-15T01:05:41Z</time></trkpt><trkpt lat="-39.2996227182" lon="-72.4000976421"><ele>255.87</ele><time>2024-08-15T01:05:42Z</time></trkpt><trkpt lat="-39.2995640449" lon="-72.4001040962"><ele>254.89</ele><time>2024-08-15T01:05:43Z</time></trkpt><trkpt lat="-39.2994979955" lon="-72.4001199380"><ele>254.77</ele><time>2024-08-15T01:05:44Z</time></trkpt><trkpt lat="-39.2994294316" lon="-72.4001401383"><ele>265.34</ele><time>2024-08-15T01:05:45Z</time></trkpt><trkpt lat="-39.2993603647" lon="-72.4001652841"><ele>261.11</ele><time>2024-08-15T01:05:46Z</time></trkpt><trkpt lat="-39.2992928065" lon="-72.4001880828"><ele>257.97</ele><time>2024-08-15T01:05:47Z</time></trkpt><trkpt lat="-39.2991694249" lon="-72.4002325069"><ele>256.43</ele><time>2024-08-15T01:05:49Z</time></trkpt><trkpt lat="-39.2989210691" lon="-72.4003082793"><ele>255.59</ele><time>2024-08-15T01:05:53Z</time></trkpt><trkpt lat="-39.2984223459" lon="-72.4004528672"><ele>254.78</ele><time>2024-08-15T01:06:02Z</time></trkpt><trkpt lat="-39.2974327784" lon="-72.4006790947"><ele>252.78</ele><time>2024-08-15T01:06:15Z</time></trkpt><trkpt lat="-39.2971561756" lon="-72.4006992113"><ele>249.30</ele><time>2024-08-15T01:06:18Z</time></trkpt><trkpt lat="-39.2967995256" lon="-72.4007224292"><ele>247.34</ele><time>2024-08-15T01:06:22Z</time></trkpt><trkpt lat="-39.2964450549" lon="-72.4007391930"><ele>246.79</ele><time>2024-08-15T01:06:29Z</time></trkpt><trkpt lat="-39.2964137066" lon="-72.4007101916"><ele>246.21</ele><time>2024-08-15T01:06:30Z</time></trkpt><trkpt lat="-39.2963856272" lon="-72.4006575532"><ele>246.23</ele><time>2024-08-15T01:06:31Z</time></trkpt><trkpt lat="-39.2963601463" lon="-72.4005898274"><ele>245.66</ele><time>2024-08-15T01:06:32Z</time></trkpt><trkpt lat="-39.2962990422" lon="-72.4004258774"><ele>244.97</ele><time>2024-08-15T01:06:34Z</time></trkpt><trkpt lat="-39.2962282989" lon="-72.4002649449"><ele>246.18</ele><time>2024-08-15T01:06:36Z</time></trkpt><trkpt lat="-39.2961838748" lon="-72.4001942016"><ele>246.14</ele><time>2024-08-15T01:06:37Z</time></trkpt><trkpt lat="-39.2961352598" lon="-72.4001298286"><ele>247.11</ele><time>2024-08-15T01:06:38Z</time></trkpt><trkpt lat="-39.2960842140" lon="-72.4000715744"><ele>247.19</ele><time>2024-08-15T01:06:39Z</time></trkpt><trkpt lat="-39.2960310727" lon="-72.4000203609"><ele>246.04</ele><time>2024-08-15T01:06:40Z</time></trkpt><trkpt lat="-39.2959761713" lon="-72.3999746796"><ele>245.86</ele><time>2024-08-15T01:06:41Z</time></trkpt><trkpt lat="-39.2959229462" lon="-72.3999341950"><ele>246.61</ele><time>2024-08-15T01:06:42Z</time></trkpt><trkpt lat="-39.2958672903" lon="-72.3999045230"><ele>247.09</ele><time>2024-08-15T01:06:43Z</time></trkpt><trkpt lat="-39.2958169151" lon="-72.3998847418"><ele>246.48</ele><time>2024-08-15T01:06:44Z</time></trkpt><trkpt lat="-39.2957708985" lon="-72.3998751026"><ele>247.36</ele><time>2024-08-15T01:06:45Z</time></trkpt><trkpt lat="-39.2957363650" lon="-72.3998734262"><ele>248.62</ele><time>2024-08-15T01:06:46Z</time></trkpt><trkpt lat="-39.2957110517" lon="-72.3998742644"><ele>246.04</ele><time>2024-08-15T01:06:47Z</time></trkpt><trkpt lat="-39.2956530489" lon="-72.3998766951"><ele>249.94</ele><time>2024-08-15T01:06:50Z</time></trkpt><trkpt lat="-39.2956367042" lon="-72.3998746835"><ele>246.49</ele><time>2024-08-15T01:06:51Z</time></trkpt><trkpt lat="-39.2955838144" lon="-72.3998166807"><ele>240.21</ele><time>2024-08-15T01:06:54Z</time></trkpt><trkpt lat="-39.2955718283" lon="-72.3997636233"><ele>241.92</ele><time>2024-08-15T01:06:55Z</time></trkpt><trkpt lat="-39.2955621891" lon="-72.3997071292"><ele>250.02</ele><time>2024-08-15T01:06:56Z</time></trkpt><trkpt lat="-39.2955522984" lon="-72.3996493779"><ele>246.65</ele><time>2024-08-15T01:06:57Z</time></trkpt><trkpt lat="-39.2955265660" lon="-72.3995030299"><ele>250.36</ele><time>2024-08-15T01:06:59Z</time></trkpt><trkpt lat="-39.2954900209" lon="-72.3993119225"><ele>251.09</ele><time>2024-08-15T01:07:01Z</time></trkpt><trkpt lat="-39.2954531405" lon="-72.3991074041"><ele>249.86</ele><time>2024-08-15T01:07:03Z</time></trkpt><trkpt lat="-39.2951803096" lon="-72.3978103045"><ele>250.64</ele><time>2024-08-15T01:07:17Z</time></trkpt><trkpt lat="-39.2950473726" lon="-72.3972098250"><ele>253.03</ele><time>2024-08-15T01:07:23Z</time></trkpt><trkpt lat="-39.2949398328" lon="-72.3962920066"><ele>256.55</ele><time>2024-08-15T01:07:32Z</time></trkpt><trkpt lat="-39.2949373182" lon="-72.3955118190"><ele>259.57</ele><time>2024-08-15T01:07:38Z</time></trkpt><trkpt lat="-39.2949389108" lon="-72.3948478047"><ele>260.16</ele><time>2024-08-15T01:07:43Z</time></trkpt><trkpt lat="-39.2949425988" lon="-72.3943158053"><ele>261.73</ele><time>2024-08-15T01:07:47Z</time></trkpt><trkpt lat="-39.2949487176" lon="-72.3940529488"><ele>260.50</ele><time>2024-08-15T01:07:49Z</time></trkpt><trkpt lat="-39.2949530762" lon="-72.3937899247"><ele>263.65</ele><time>2024-08-15T01:07:51Z</time></trkpt><trkpt lat="-39.2949505616" lon="-72.3936646152"><ele>262.83</ele><time>2024-08-15T01:07:52Z</time></trkpt><trkpt lat="-39.2948445305" lon="-72.3926674202"><ele>262.50</ele><time>2024-08-15T01:08:01Z</time></trkpt><trkpt lat="-39.2947669141" lon="-72.3923297133"><ele>260.97</ele><time>2024-08-15T01:08:04Z</time></trkpt><trkpt lat="-39.2943024728" lon="-72.3910063785"><ele>261.85</ele><time>2024-08-15T01:08:17Z</time></trkpt><trkpt lat="-39.2936610896" lon="-72.3897671141"><ele>261.20</ele><time>2024-08-15T01:08:30Z</time></trkpt><trkpt lat="-39.2934349459" lon="-72.3892866634"><ele>260.96</ele><time>2024-08-15T01:08:36Z</time></trkpt><trkpt lat="-39.2934144102" lon="-72.3891989887"><ele>260.57</ele><time>2024-08-15T01:08:37Z</time></trkpt><trkpt lat="-39.2934005801" lon="-72.3891095538"><ele>260.12</ele><time>2024-08-15T01:08:38Z</time></trkpt><trkpt lat="-39.2933949642" lon="-72.3890169337"><ele>260.28</ele><time>2024-08-15T01:08:39Z</time></trkpt><trkpt lat="-39.2934025917" lon="-72.3889212962"><ele>261.12</ele><time>2024-08-15T01:08:40Z</time></trkpt><trkpt lat="-39.2934191879" lon="-72.3888250720"><ele>262.86</ele><time>2024-08-15T01:08:41Z</time></trkpt><trkpt lat="-39.2934377957" lon="-72.3887270037"><ele>262.55</ele><time>2024-08-15T01:08:42Z</time></trkpt><trkpt lat="-39.2937492672" lon="-72.3872563150"><ele>262.20</ele><time>2024-08-15T01:08:56Z</time></trkpt><trkpt lat="-39.2940865550" lon="-72.3855715524"><ele>265.30</ele><time>2024-08-15T01:09:11Z</time></trkpt><trkpt lat="-39.2943059932" lon="-72.3844718467"><ele>268.62</ele><time>2024-08-15T01:09:22Z</time></trkpt><trkpt lat="-39.2944819294" lon="-72.3835132085"><ele>272.14</ele><time>2024-08-15T01:09:31Z</time></trkpt><trkpt lat="-39.2945020460" lon="-72.3834074289"><ele>271.59</ele><time>2024-08-15T01:09:32Z</time></trkpt><trkpt lat="-39.2947819177" lon="-72.3818749655"><ele>271.48</ele><time>2024-08-15T01:09:46Z</time></trkpt><trkpt lat="-39.2950732727" lon="-72.3804007564"><ele>269.71</ele><time>2024-08-15T01:10:00Z</time></trkpt><trkpt lat="-39.2951529007" lon="-72.3800234869"><ele>268.15</ele><time>2024-08-15T01:10:04Z</time></trkpt><trkpt lat="-39.2953228857" lon="-72.3792654276"><ele>264.00</ele><time>2024-08-15T01:10:12Z</time></trkpt><trkpt lat="-39.2953438405" lon="-72.3791601509"><ele>268.16</ele><time>2024-08-15T01:10:13Z</time></trkpt><trkpt lat="-39.2954307608" lon="-72.3787242919"><ele>265.02</ele><time>2024-08-15T01:10:17Z</time></trkpt><trkpt lat="-39.2958221957" lon="-72.3767778464"><ele>262.42</ele><time>2024-08-15T01:10:35Z</time></trkpt><trkpt lat="-39.2961471621" lon="-72.3752111010"><ele>260.90</ele><time>2024-08-15T01:10:51Z</time></trkpt><trkpt lat="-39.2962844577" lon="-72.3745629285"><ele>259.35</ele><time>2024-08-15T01:11:01Z</time></trkpt><trkpt lat="-39.2962801829" lon="-72.3745753337"><ele>259.30</ele><time>2024-08-15T01:11:06Z</time></trkpt><trkpt lat="-39.2962689511" lon="-72.3746191710"><ele>259.91</ele><time>2024-08-15T01:11:08Z</time></trkpt><trkpt lat="-39.2962630000" lon="-72.3746398743"><ele>259.42</ele><time>2024-08-15T01:11:09Z</time></trkpt><trkpt lat="-39.2962567136" lon="-72.3746573925"><ele>259.52</ele><time>2024-08-15T01:11:10Z</time></trkpt><trkpt lat="-39.2962164804" lon="-72.3747103661"><ele>251.72</ele><time>2024-08-15T01:11:20Z</time></trkpt><trkpt lat="-39.2962135468" lon="-72.3747128807"><ele>254.37</ele><time>2024-08-15T01:11:21Z</time></trkpt><trkpt lat="-39.2962093558" lon="-72.3747159820"><ele>258.83</ele><time>2024-08-15T01:11:23Z</time></trkpt><trkpt lat="-39.2962097749" lon="-72.3747179098"><ele>258.92</ele><time>2024-08-15T01:11:24Z</time></trkpt><trkpt lat="-39.2962294724" lon="-72.3747356795"><ele>257.62</ele><time>2024-08-15T01:11:37Z</time></trkpt><trkpt lat="-39.2962523550" lon="-72.3748637550"><ele>260.57</ele><time>2024-08-15T01:11:41Z</time></trkpt><trkpt lat="-39.2962356750" lon="-72.3749878909"><ele>261.88</ele><time>2024-08-15T01:11:43Z</time></trkpt><trkpt lat="-39.2962004710" lon="-72.3751479853"><ele>260.44</ele><time>2024-08-15T01:11:45Z</time></trkpt><trkpt lat="-39.2960184161" lon="-72.3759555817"><ele>264.92</ele><time>2024-08-15T01:11:52Z</time></trkpt><trkpt lat="-39.2959677055" lon="-72.3762049433"><ele>261.56</ele><time>2024-08-15T01:11:54Z</time></trkpt><trkpt lat="-39.2958666198" lon="-72.3767236993"><ele>262.49</ele><time>2024-08-15T01:11:58Z</time></trkpt><trkpt lat="-39.2954562418" lon="-72.3786123097"><ele>265.12</ele><time>2024-08-15T01:12:10Z</time></trkpt><trkpt lat="-39.2953519709" lon="-72.3791040760"><ele>266.42</ele><time>2024-08-15T01:12:13Z</time></trkpt><trkpt lat="-39.2952738516" lon="-72.3794436269"><ele>264.24</ele><time>2024-08-15T01:12:16Z</time></trkpt><trkpt lat="-39.2952113226" lon="-72.3797312099"><ele>273.94</ele><time>2024-08-15T01:12:19Z</time></trkpt><trkpt lat="-39.2951912060" lon="-72.3798224889"><ele>270.17</ele><time>2024-08-15T01:12:20Z</time></trkpt><trkpt lat="-39.2949757911" lon="-72.3810020741"><ele>270.51</ele><time>2024-08-15T01:12:33Z</time></trkpt><trkpt lat="-39.2947327159" lon="-72.3823444359"><ele>271.77</ele><time>2024-08-15T01:12:47Z</time></trkpt><trkpt lat="-39.2944136169" lon="-72.3840882070"><ele>268.98</ele><time>2024-08-15T01:13:04Z</time></trkpt><trkpt lat="-39.2942624073" lon="-72.3851002380"><ele>265.90</ele><time>2024-08-15T01:13:15Z</time></trkpt><trkpt lat="-39.2939715553" lon="-72.3865850084"><ele>262.83</ele><time>2024-08-15T01:13:28Z</time></trkpt><trkpt lat="-39.2934981454" lon="-72.3885272630"><ele>262.32</ele><time>2024-08-15T01:13:44Z</time></trkpt><trkpt lat="-39.2933945451" lon="-72.3890789598"><ele>261.23</ele><time>2024-08-15T01:13:49Z</time></trkpt><trkpt lat="-39.2933956347" lon="-72.3891743459"><ele>261.01</ele><time>2024-08-15T01:13:50Z</time></trkpt><trkpt lat="-39.2934044357" lon="-72.3892648704"><ele>260.65</ele><time>2024-08-15T01:13:51Z</time></trkpt><trkpt lat="-39.2934191041" lon="-72.3893519584"><ele>261.79</ele><time>2024-08-15T01:13:52Z</time></trkpt><trkpt lat="-39.2934413999" lon="-72.3894372024"><ele>261.18</ele><time>2024-08-15T01:13:53Z</time></trkpt><trkpt lat="-39.2934668809" lon="-72.3895232007"><ele>261.03</ele><time>2024-08-15T01:13:54Z</time></trkpt><trkpt lat="-39.2935413960" lon="-72.3896945268"><ele>261.44</ele><time>2024-08-15T01:13:56Z</time></trkpt><trkpt lat="-39.2941930052" lon="-72.3908786383"><ele>260.94</ele><time>2024-08-15T01:14:10Z</time></trkpt><trkpt lat="-39.2947389185" lon="-72.3922365904"><ele>261.61</ele><time>2024-08-15T01:14:23Z</time></trkpt><trkpt lat="-39.2947992682" lon="-72.3924471438"><ele>260.90</ele><time>2024-08-15T01:14:25Z</time></trkpt><trkpt lat="-39.2949871067" lon="-72.3936517071"><ele>261.28</ele><time>2024-08-15T01:14:37Z</time></trkpt><trkpt lat="-39.2949885316" lon="-72.3952058796"><ele>258.95</ele><time>2024-08-15T01:14:52Z</time></trkpt><trkpt lat="-39.2949802335" lon="-72.3964488320"><ele>253.62</ele><time>2024-08-15T01:15:06Z</time></trkpt><trkpt lat="-39.2949750368" lon="-72.3964954354"><ele>254.27</ele><time>2024-08-15T01:15:07Z</time></trkpt><trkpt lat="-39.2949615419" lon="-72.3965356685"><ele>251.14</ele><time>2024-08-15T01:15:08Z</time></trkpt><trkpt lat="-39.2949395813" lon="-72.3965671845"><ele>250.98</ele><time>2024-08-15T01:15:09Z</time></trkpt><trkpt lat="-39.2949078139" lon="-72.3965877201"><ele>251.48</ele><time>2024-08-15T01:15:10Z</time></trkpt><trkpt lat="-39.2948672455" lon="-72.3965938389"><ele>252.85</ele><time>2024-08-15T01:15:11Z</time></trkpt><trkpt lat="-39.2948215641" lon="-72.3965898156"><ele>256.92</ele><time>2024-08-15T01:15:12Z</time></trkpt><trkpt lat="-39.2947686743" lon="-72.3965736385"><ele>258.23</ele><time>2024-08-15T01:15:13Z</time></trkpt><trkpt lat="-39.2947136890" lon="-72.3965532705"><ele>257.44</ele><time>2024-08-15T01:15:14Z</time></trkpt><trkpt lat="-39.2946102563" lon="-72.3965111934"><ele>256.04</ele><time>2024-08-15T01:15:16Z</time></trkpt><trkpt lat="-39.2938552145" lon="-72.3961893283"><ele>258.32</ele><time>2024-08-15T01:15:32Z</time></trkpt><trkpt lat="-39.2938145623" lon="-72.3961703014"><ele>258.52</ele><time>2024-08-15T01:15:33Z</time></trkpt><trkpt lat="-39.2932994943" lon="-72.3959420621"><ele>260.37</ele><time>2024-08-15T01:15:45Z</time></trkpt><trkpt lat="-39.2924897186" lon="-72.3955684807"><ele>262.63</ele><time>2024-08-15T01:16:00Z</time></trkpt><trkpt lat="-39.2922042310" lon="-72.3954461049"><ele>269.52</ele><time>2024-08-15T01:16:09Z</time></trkpt><trkpt lat="-39.2921782471" lon="-72.3954402376"><ele>266.47</ele><time>2024-08-15T01:16:10Z</time></trkpt><trkpt lat="-39.2921604775" lon="-72.3954435065"><ele>262.91</ele><time>2024-08-15T01:16:11Z</time></trkpt><trkpt lat="-39.2921481561" lon="-72.3954501282"><ele>257.95</ele><time>2024-08-15T01:16:12Z</time></trkpt><trkpt lat="-39.2921397742" lon="-72.3954523914"><ele>263.18</ele><time>2024-08-15T01:16:13Z</time></trkpt><trkpt lat="-39.2921350803" lon="-72.3954650480"><ele>267.49</ele><time>2024-08-15T01:16:18Z</time></trkpt><trkpt lat="-39.2921334878" lon="-72.3954778723"><ele>267.48</ele><time>2024-08-15T01:16:19Z</time></trkpt><trkpt lat="-39.2921255250" lon="-72.3954878468"><ele>264.22</ele><time>2024-08-15T01:16:21Z</time></trkpt><trkpt lat="-39.2921439651" lon="-72.3954604380"><ele>262.38</ele><time>2024-08-15T01:16:28Z</time></trkpt><trkpt lat="-39.2921445519" lon="-72.3954388127"><ele>263.91</ele><time>2024-08-15T01:16:32Z</time></trkpt><trkpt lat="-39.2921622377" lon="-72.3954466917"><ele>267.38</ele><time>2024-08-15T01:16:33Z</time></trkpt><trkpt lat="-39.2921779118" lon="-72.3954585940"><ele>269.54</ele><time>2024-08-15T01:16:35Z</time></trkpt><trkpt lat="-39.2922136188" lon="-72.3954666406"><ele>265.17</ele><time>2024-08-15T01:16:37Z</time></trkpt><trkpt lat="-39.2922420334" lon="-72.3954715859"><ele>261.97</ele><time>2024-08-15T01:16:38Z</time></trkpt><trkpt lat="-39.2922721244" lon="-72.3954790458"><ele>263.93</ele><time>2024-08-15T01:16:39Z</time></trkpt><trkpt lat="-39.2922936659" lon="-72.3954880144"><ele>263.86</ele><time>2024-08-15T01:16:40Z</time></trkpt><trkpt lat="-39.2923442926" lon="-72.3955057841"><ele>262.26</ele><time>2024-08-15T01:16:42Z</time></trkpt><trkpt lat="-39.2924923170" lon="-72.3955546506"><ele>266.34</ele><time>2024-08-15T01:16:47Z</time></trkpt><trkpt lat="-39.2925255932" lon="-72.3955686484"><ele>262.66</ele><time>2024-08-15T01:16:48Z</time></trkpt><trkpt lat="-39.2931374721" lon="-72.3958123103"><ele>259.19</ele><time>2024-08-15T01:17:01Z</time></trkpt><trkpt lat="-39.2939202581" lon="-72.3961668648"><ele>257.55</ele><time>2024-08-15T01:17:17Z</time></trkpt><trkpt lat="-39.2943913210" lon="-72.3963613249"><ele>255.39</ele><time>2024-08-15T01:17:26Z</time></trkpt><trkpt lat="-39.2948845122" lon="-72.3965634964"><ele>256.76</ele><time>2024-08-15T01:17:38Z</time></trkpt><trkpt lat="-39.2949473765" lon="-72.3966032267"><ele>254.04</ele><time>2024-08-15T01:17:41Z</time></trkpt><trkpt lat="-39.2950065527" lon="-72.3967245966"><ele>253.35</ele><time>2024-08-15T01:17:44Z</time></trkpt><trkpt lat="-39.2950214725" lon="-72.3967882153"><ele>253.34</ele><time>2024-08-15T01:17:45Z</time></trkpt><trkpt lat="-39.2950850073" lon="-72.3971654009"><ele>252.98</ele><time>2024-08-15T01:17:51Z</time></trkpt><trkpt lat="-39.2951994203" lon="-72.3977314308"><ele>250.24</ele><time>2024-08-15T01:18:00Z</time></trkpt><trkpt lat="-39.2952166032" lon="-72.3978013359"><ele>250.49</ele><time>2024-08-15T01:18:01Z</time></trkpt><trkpt lat="-39.2954120692" lon="-72.3987532686"><ele>248.40</ele><time>2024-08-15T01:18:14Z</time></trkpt><trkpt lat="-39.2956138216" lon="-72.3997853324"><ele>245.00</ele><time>2024-08-15T01:18:29Z</time></trkpt><trkpt lat="-39.2956133187" lon="-72.3998543154"><ele>245.92</ele><time>2024-08-15T01:18:30Z</time></trkpt><trkpt lat="-39.2956076190" lon="-72.3999225441"><ele>245.40</ele><time>2024-08-15T01:18:31Z</time></trkpt><trkpt lat="-39.2955970578" lon="-72.3999929521"><ele>246.30</ele><time>2024-08-15T01:18:32Z</time></trkpt><trkpt lat="-39.2955777794" lon="-72.4000676349"><ele>247.14</ele><time>2024-08-15T01:18:33Z</time></trkpt><trkpt lat="-39.2955549806" lon="-72.4001443293"><ele>247.36</ele><time>2024-08-15T01:18:34Z</time></trkpt><trkpt lat="-39.2955102213" lon="-72.4003000651"><ele>245.91</ele><time>2024-08-15T01:18:36Z</time></trkpt><trkpt lat="-39.2954046931" lon="-72.4007682782"><ele>244.19</ele><time>2024-08-15T01:18:42Z</time></trkpt><trkpt lat="-39.2953968979" lon="-72.4008505046"><ele>243.67</ele><time>2024-08-15T01:18:43Z</time></trkpt><trkpt lat="-39.2953871749" lon="-72.4009370059"><ele>247.69</ele><time>2024-08-15T01:18:44Z</time></trkpt><trkpt lat="-39.2953814752" lon="-72.4010255188"><ele>244.83</ele><time>2024-08-15T01:18:45Z</time></trkpt><trkpt lat="-39.2953814752" lon="-72.4011108465"><ele>243.70</ele><time>2024-08-15T01:18:46Z</time></trkpt><trkpt lat="-39.2953875102" lon="-72.4011932407"><ele>243.42</ele><time>2024-08-15T01:18:47Z</time></trkpt><trkpt lat="-39.2956003267" lon="-72.4024756718"><ele>243.65</ele><time>2024-08-15T01:19:01Z</time></trkpt><trkpt lat="-39.2956527136" lon="-72.4027585611"><ele>245.12</ele><time>2024-08-15T01:19:04Z</time></trkpt><trkpt lat="-39.2958074436" lon="-72.4035706837"><ele>249.14</ele><time>2024-08-15T01:19:13Z</time></trkpt><trkpt lat="-39.2958226148" lon="-72.4036511499"><ele>248.92</ele><time>2024-08-15T01:19:14Z</time></trkpt><trkpt lat="-39.2958478443" lon="-72.4037980847"><ele>247.19</ele><time>2024-08-15T01:19:16Z</time></trkpt><trkpt lat="-39.2958695535" lon="-72.4039240647"><ele>242.75</ele><time>2024-08-15T01:19:18Z</time></trkpt><trkpt lat="-39.2958822940" lon="-72.4039840791"><ele>245.71</ele><time>2024-08-15T01:19:19Z</time></trkpt><trkpt lat="-39.2959130555" lon="-72.4041967280"><ele>249.34</ele><time>2024-08-15T01:19:23Z</time></trkpt><trkpt lat="-39.2959167436" lon="-72.4042314291"><ele>248.80</ele><time>2024-08-15T01:19:24Z</time></trkpt><trkpt lat="-39.2959200125" lon="-72.4042550661"><ele>243.39</ele><time>2024-08-15T01:19:25Z</time></trkpt><trkpt lat="-39.2959163245" lon="-72.4042745959"><ele>244.01</ele><time>2024-08-15T01:19:26Z</time></trkpt><trkpt lat="-39.2959076073" lon="-72.4042947125"><ele>242.10</ele><time>2024-08-15T01:19:27Z</time></trkpt><trkpt lat="-39.2958917655" lon="-72.4043110572"><ele>246.11</ele><time>2024-08-15T01:19:28Z</time></trkpt><trkpt lat="-39.2958741635" lon="-72.4043185171"><ele>246.01</ele><time>2024-08-15T01:19:29Z</time></trkpt><trkpt lat="-39.2958563939" lon="-72.4043201096"><ele>248.19</ele><time>2024-08-15T01:19:30Z</time></trkpt><trkpt lat="-39.2958463356" lon="-72.4043182656"><ele>254.44</ele><time>2024-08-15T01:19:31Z</time></trkpt><trkpt lat="-39.2958407197" lon="-72.4043178465"><ele>246.96</ele><time>2024-08-15T01:19:32Z</time></trkpt><trkpt lat="-39.2958397977" lon="-72.4043190200"><ele>243.19</ele><time>2024-08-15T01:19:36Z</time></trkpt><trkpt lat="-39.2958408035" lon="-72.4043182656"><ele>248.94</ele><time>2024-08-15T01:19:37Z</time></trkpt><trkpt lat="-39.2958599143" lon="-72.4043143261"><ele>245.68</ele><time>2024-08-15T01:19:44Z</time></trkpt><trkpt lat="-39.2958621774" lon="-72.4043144099"><ele>245.63</ele><time>2024-08-15T01:19:45Z</time></trkpt><trkpt lat="-39.2958783545" lon="-72.4042965565"><ele>246.66</ele><time>2024-08-15T01:20:16Z</time></trkpt><trkpt lat="-39.2958895024" lon="-72.4043077044"><ele>250.47</ele><time>2024-08-15T01:20:40Z</time></trkpt><trkpt lat="-39.2958893348" lon="-72.4043061957"><ele>250.75</ele><time>2024-08-15T01:20:41Z</time></trkpt><trkpt lat="-39.2958921008" lon="-72.4043142423"><ele>247.19</ele><time>2024-08-15T01:20:45Z</time></trkpt><trkpt lat="-39.2958554719" lon="-72.4043181818"><ele>246.65</ele><time>2024-08-15T01:21:18Z</time></trkpt><trkpt lat="-39.2958536278" lon="-72.4043095484"><ele>247.11</ele><time>2024-08-15T01:22:07Z</time></trkpt><trkpt lat="-39.2958539631" lon="-72.4042828102"><ele>246.60</ele><time>2024-08-15T01:22:57Z</time></trkpt></trkseg></trk></gpx>