<?xml version="1.0" encoding="UTF-8" standalone="no" ?><gpx xmlns="http://www.topografix.com/GPX/1/1" xmlns:gpxx="http://www.garmin.com/xmlschemas/GpxExtensions/v3" xmlns:gpxtrkx="http://www.garmin.com/xmlschemas/TrackStatsExtension/v1" xmlns:wptx1="http://www.garmin.com/xmlschemas/WaypointExtension/v1" xmlns:gpxtpx="http://www.garmin.com/xmlschemas/TrackPointExtension/v1" creator="GPSMAP 64sx" version="1.1" xmlns:xsi="http://www.w3.org/2001/XMLSchema-instance" xsi:schemaLocation="http://www.topografix.com/GPX/1/1 http://www.topografix.com/GPX/1/1/gpx.xsd http://www.garmin.com/xmlschemas/GpxExtensions/v3 http://www8.garmin.com/xmlschemas/GpxExtensionsv3.xsd http://www.garmin.com/xmlschemas/TrackStatsExtension/v1 http://www8.garmin.com/xmlschemas/TrackStatsExtension.xsd http://www.garmin.com/xmlschemas/WaypointExtension/v1 http://www8.garmin.com/xmlschemas/WaypointExtensionv1.xsd http://www.garmin.com/xmlschemas/TrackPointExtension/v1 http://www.garmin.com/xmlschemas/TrackPointExtensionv1.xsd"><metadata><link href="http://www.garmin.com"><text>Garmin International</text></link><time>2024-07-28T03:52:21Z</time></metadata><trk><name>2024-07-27 23:52:18</name><extensions><gpxx:TrackExtension><gpxx:DisplayColor>Cyan</gpxx:DisplayColor></gpxx:TrackExtension><gpxtrkx:TrackStatsExtension><gpxtrkx:Distance>2888.000</gpxtrkx:Distance><gpxtrkx:TotalElapsedTime>560</gpxtrkx:TotalElapsedTime><gpxtrkx:MovingTime>534</gpxtrkx:MovingTime><gpxtrkx:StoppedTime>26</gpxtrkx:StoppedTime><gpxtrkx:MovingSpeed>5.410</gpxtrkx:MovingSpeed><gpxtrkx:MaxSpeed>12.775</gpxtrkx:MaxSpeed><gpxtrkx:MaxElevation>99.303</gpxtrkx:MaxElevation><gpxtrkx:MinElevation>85.107</gpxtrkx:MinElevation><gpxtrkx:Ascent>2.000</gpxtrkx:Ascent><gpxtrkx:Descent>15.088</gpxtrkx:Descent><gpxtrkx:AvgAscentRate>0.077</gpxtrkx:AvgAscentRate><gpxtrkx:MaxAscentRate>0.023</gpxtrkx:MaxAscentRate><gpxtrkx:AvgDescentRate>0.086</gpxtrkx:AvgDescentRate><gpxtrkx:MaxDescentRate>-0.119</gpxtrkx:MaxDescentRate></gpxtrkx:TrackStatsExtension></extensions><trkseg><trkpt lat="-39.4073799625" lon="-72.7058573999"><ele>99.30</ele><time>2024-07-28T03:43:01Z</time></trkpt><trkpt lat="-39.4074272364" lon="-72.7059812844"><ele>99.30</ele><time>2024-07-28T03:43:02Z</time></trkpt><trkpt lat="-39.4075300824" lon="-72.7061985433"><ele>99.30</ele><time>2024-07-28T03:43:04Z</time></trkpt><trkpt lat="-39.4075815473" lon="-72.7062887326"><ele>91.00</ele><time>2024-07-28T03:43:05Z</time></trkpt><trkpt lat="-39.4076231215" lon="-72.7063692827"><ele>91.00</ele><time>2024-07-28T03:43:06Z</time></trkpt><trkpt lat="-39.4076867402" lon="-72.7065136191"><ele>89.33</ele><time>2024-07-28T03:43:08Z</time></trkpt><trkpt lat="-39.4077106286" lon="-72.7065907326"><ele>89.38</ele><time>2024-07-28T03:43:09Z</time></trkpt><trkpt lat="-39.4077283982" lon="-72.7066781558"><ele>89.35</ele><time>2024-07-28T03:43:10Z</time></trkpt><trkpt lat="-39.4078641851" lon="-72.7071974147"><ele>89.34</ele><time>2024-07-28T03:43:19Z</time></trkpt><trkpt lat="-39.4078795239" lon="-72.7072783839"><ele>89.03</ele><time>2024-07-28T03:43:31Z</time></trkpt><trkpt lat="-39.4078823738" lon="-72.7072881907"><ele>89.09</ele><time>2024-07-28T03:43:35Z</time></trkpt><trkpt lat="-39.4079015683" lon="-72.7074024361"><ele>89.34</ele><time>2024-07-28T03:43:38Z</time></trkpt><trkpt lat="-39.4079156499" lon="-72.7074579243"><ele>89.52</ele><time>2024-07-28T03:43:39Z</time></trkpt><trkpt lat="-39.4079377782" lon="-72.7075260691"><ele>89.44</ele><time>2024-07-28T03:43:40Z</time></trkpt><trkpt lat="-39.4079713896" lon="-72.7076023445"><ele>89.47</ele><time>2024-07-28T03:43:41Z</time></trkpt><trkpt lat="-39.4080176577" lon="-72.7076765243"><ele>89.33</ele><time>2024-07-28T03:43:42Z</time></trkpt><trkpt lat="-39.4080739003" lon="-72.7077408135"><ele>89.17</ele><time>2024-07-28T03:43:43Z</time></trkpt><trkpt lat="-39.4081395306" lon="-72.7077907696"><ele>89.06</ele><time>2024-07-28T03:43:44Z</time></trkpt><trkpt lat="-39.4082113635" lon="-72.7078282367"><ele>89.08</ele><time>2024-07-28T03:43:45Z</time></trkpt><trkpt lat="-39.4082874712" lon="-72.7078472637"><ele>89.04</ele><time>2024-07-28T03:43:46Z</time></trkpt><trkpt lat="-39.4083655067" lon="-72.7078571543"><ele>89.05</ele><time>2024-07-28T03:43:47Z</time></trkpt><trkpt lat="-39.4084460568" lon="-72.7078622673"><ele>89.03</ele><time>2024-07-28T03:43:48Z</time></trkpt><trkpt lat="-39.4088453706" lon="-72.7079397161"><ele>89.45</ele><time>2024-07-28T03:43:53Z</time></trkpt><trkpt lat="-39.4089188799" lon="-72.7079781052"><ele>89.47</ele><time>2024-07-28T03:43:54Z</time></trkpt><trkpt lat="-39.4089897908" lon="-72.7080286480"><ele>89.39</ele><time>2024-07-28T03:43:55Z</time></trkpt><trkpt lat="-39.4090576842" lon="-72.7080887463"><ele>89.39</ele><time>2024-07-28T03:43:56Z</time></trkpt><trkpt lat="-39.4091233984" lon="-72.7081514429"><ele>89.23</ele><time>2024-07-28T03:43:57Z</time></trkpt><trkpt lat="-39.4096154161" lon="-72.7086727973"><ele>88.12</ele><time>2024-07-28T03:44:07Z</time></trkpt><trkpt lat="-39.4096173439" lon="-72.7087107673"><ele>88.11</ele><time>2024-07-28T03:44:08Z</time></trkpt><trkpt lat="-39.4096076209" lon="-72.7087493241"><ele>88.12</ele><time>2024-07-28T03:44:09Z</time></trkpt><trkpt lat="-39.4095884264" lon="-72.7087878808"><ele>87.93</ele><time>2024-07-28T03:44:10Z</time></trkpt><trkpt lat="-39.4095623586" lon="-72.7088292036"><ele>87.87</ele><time>2024-07-28T03:44:11Z</time></trkpt><trkpt lat="-39.4095336087" lon="-72.7088724542"><ele>87.67</ele><time>2024-07-28T03:44:12Z</time></trkpt><trkpt lat="-39.4089717697" lon="-72.7096775360"><ele>87.01</ele><time>2024-07-28T03:44:28Z</time></trkpt><trkpt lat="-39.4088373240" lon="-72.7097771131"><ele>87.09</ele><time>2024-07-28T03:44:33Z</time></trkpt><trkpt lat="-39.4088071492" lon="-72.7097601816"><ele>87.18</ele><time>2024-07-28T03:44:34Z</time></trkpt><trkpt lat="-39.4087748788" lon="-72.7097310126"><ele>87.18</ele><time>2024-07-28T03:44:35Z</time></trkpt><trkpt lat="-39.4087416027" lon="-72.7096926235"><ele>87.15</ele><time>2024-07-28T03:44:36Z</time></trkpt><trkpt lat="-39.4087085780" lon="-72.7096523065"><ele>87.22</ele><time>2024-07-28T03:44:37Z</time></trkpt><trkpt lat="-39.4085053168" lon="-72.7094067167"><ele>87.36</ele><time>2024-07-28T03:44:48Z</time></trkpt><trkpt lat="-39.4082168117" lon="-72.7090992685"><ele>87.65</ele><time>2024-07-28T03:44:56Z</time></trkpt><trkpt lat="-39.4079551287" lon="-72.7087827679"><ele>87.47</ele><time>2024-07-28T03:45:05Z</time></trkpt><trkpt lat="-39.4074243028" lon="-72.7081899159"><ele>86.94</ele><time>2024-07-28T03:45:20Z</time></trkpt><trkpt lat="-39.4073028490" lon="-72.7080645226"><ele>86.71</ele><time>2024-07-28T03:45:24Z</time></trkpt><trkpt lat="-39.4071338698" lon="-72.7083354257"><ele>86.64</ele><time>2024-07-28T03:45:32Z</time></trkpt><trkpt lat="-39.4072038587" lon="-72.7091978397"><ele>86.82</ele><time>2024-07-28T03:45:47Z</time></trkpt><trkpt lat="-39.4072157610" lon="-72.7093122527"><ele>87.03</ele><time>2024-07-28T03:45:49Z</time></trkpt><trkpt lat="-39.4072180241" lon="-72.7094336227"><ele>86.98</ele><time>2024-07-28T03:45:51Z</time></trkpt><trkpt lat="-39.4072412420" lon="-72.7096067090"><ele>87.06</ele><time>2024-07-28T03:45:54Z</time></trkpt><trkpt lat="-39.4072988257" lon="-72.7098123170"><ele>87.10</ele><time>2024-07-28T03:45:58Z</time></trkpt><trkpt lat="-39.4077864848" lon="-72.7104455698"><ele>87.40</ele><time>2024-07-28T03:46:14Z</time></trkpt><trkpt lat="-39.4081541989" lon="-72.7108453028"><ele>87.54</ele><time>2024-07-28T03:46:28Z</time></trkpt><trkpt lat="-39.4083054084" lon="-72.7110449597"><ele>88.25</ele><time>2024-07-28T03:46:36Z</time></trkpt><trkpt lat="-39.4087514095" lon="-72.7115088981"><ele>88.09</ele><time>2024-07-28T03:46:49Z</time></trkpt><trkpt lat="-39.4089679141" lon="-72.7117565833"><ele>87.48</ele><time>2024-07-28T03:46:55Z</time></trkpt><trkpt lat="-39.4090038724" lon="-72.7117766999"><ele>87.57</ele><time>2024-07-28T03:46:56Z</time></trkpt><trkpt lat="-39.4090388250" lon="-72.7117821481"><ele>87.47</ele><time>2024-07-28T03:46:57Z</time></trkpt><trkpt lat="-39.4090724364" lon="-72.7117725927"><ele>87.41</ele><time>2024-07-28T03:46:58Z</time></trkpt><trkpt lat="-39.4091048744" lon="-72.7117460221"><ele>87.35</ele><time>2024-07-28T03:46:59Z</time></trkpt><trkpt lat="-39.4091373123" lon="-72.7117083035"><ele>87.32</ele><time>2024-07-28T03:47:00Z</time></trkpt><trkpt lat="-39.4091669843" lon="-72.7116658073"><ele>87.36</ele><time>2024-07-28T03:47:01Z</time></trkpt><trkpt lat="-39.4091964886" lon="-72.7116228919"><ele>87.34</ele><time>2024-07-28T03:47:02Z</time></trkpt><trkpt lat="-39.4096156675" lon="-72.7109849453"><ele>87.93</ele><time>2024-07-28T03:47:17Z</time></trkpt><trkpt lat="-39.4099443220" lon="-72.7104587294"><ele>87.64</ele><time>2024-07-28T03:47:30Z</time></trkpt><trkpt lat="-39.4104163069" lon="-72.7097286656"><ele>86.95</ele><time>2024-07-28T03:47:44Z</time></trkpt><trkpt lat="-39.4104421232" lon="-72.7096968982"><ele>87.04</ele><time>2024-07-28T03:47:45Z</time></trkpt><trkpt lat="-39.4104674365" lon="-72.7096764464"><ele>87.11</ele><time>2024-07-28T03:47:46Z</time></trkpt><trkpt lat="-39.4104956836" lon="-72.7096699923"><ele>87.27</ele><time>2024-07-28T03:47:47Z</time></trkpt><trkpt lat="-39.4105271995" lon="-72.7096797992"><ele>87.31</ele><time>2024-07-28T03:47:48Z</time></trkpt><trkpt lat="-39.4105618168" lon="-72.7097066212"><ele>87.41</ele><time>2024-07-28T03:47:49Z</time></trkpt><trkpt lat="-39.4106017146" lon="-72.7097504586"><ele>87.30</ele><time>2024-07-28T03:47:50Z</time></trkpt><trkpt lat="-39.4106453843" lon="-72.7098023426"><ele>87.38</ele><time>2024-07-28T03:47:51Z</time></trkpt><trkpt lat="-39.4112441037" lon="-72.7104838751"><ele>87.00</ele><time>2024-07-28T03:48:03Z</time></trkpt><trkpt lat="-39.4112603646" lon="-72.7105317358"><ele>87.07</ele><time>2024-07-28T03:48:04Z</time></trkpt><trkpt lat="-39.4112601131" lon="-72.7105790097"><ele>86.99</ele><time>2024-07-28T03:48:05Z</time></trkpt><trkpt lat="-39.4112470374" lon="-72.7106216736"><ele>86.81</ele><time>2024-07-28T03:48:06Z</time></trkpt><trkpt lat="-39.4112258311" lon="-72.7106630802"><ele>86.65</ele><time>2024-07-28T03:48:07Z</time></trkpt><trkpt lat="-39.4111975841" lon="-72.7107073367"><ele>86.46</ele><time>2024-07-28T03:48:08Z</time></trkpt><trkpt lat="-39.4111655653" lon="-72.7107552812"><ele>86.55</ele><time>2024-07-28T03:48:09Z</time></trkpt><trkpt lat="-39.4105907343" lon="-72.7115789708"><ele>87.30</ele><time>2024-07-28T03:48:23Z</time></trkpt><trkpt lat="-39.4099277258" lon="-72.7125941031"><ele>87.82</ele><time>2024-07-28T03:48:39Z</time></trkpt><trkpt lat="-39.4098715670" lon="-72.7126910817"><ele>87.65</ele><time>2024-07-28T03:48:41Z</time></trkpt><trkpt lat="-39.4098574016" lon="-72.7127320692"><ele>87.67</ele><time>2024-07-28T03:48:42Z</time></trkpt><trkpt lat="-39.4098540489" lon="-72.7127657644"><ele>87.59</ele><time>2024-07-28T03:48:43Z</time></trkpt><trkpt lat="-39.4098605867" lon="-72.7127975319"><ele>87.58</ele><time>2024-07-28T03:48:44Z</time></trkpt><trkpt lat="-39.4098738302" lon="-72.7128295507"><ele>87.51</ele><time>2024-07-28T03:48:45Z</time></trkpt><trkpt lat="-39.4099000655" lon="-72.7128674369"><ele>87.50</ele><time>2024-07-28T03:48:46Z</time></trkpt><trkpt lat="-39.4099395443" lon="-72.7129075862"><ele>87.55</ele><time>2024-07-28T03:48:47Z</time></trkpt><trkpt lat="-39.4099880755" lon="-72.7129548602"><ele>87.49</ele><time>2024-07-28T03:48:48Z</time></trkpt><trkpt lat="-39.4106001221" lon="-72.7135696728"><ele>86.82</ele><time>2024-07-28T03:49:00Z</time></trkpt><trkpt lat="-39.4106367510" lon="-72.7135941479"><ele>86.90</ele><time>2024-07-28T03:49:01Z</time></trkpt><trkpt lat="-39.4106751401" lon="-72.7135973331"><ele>86.76</ele><time>2024-07-28T03:49:02Z</time></trkpt><trkpt lat="-39.4107100088" lon="-72.7135814074"><ele>86.65</ele><time>2024-07-28T03:49:03Z</time></trkpt><trkpt lat="-39.4107451290" lon="-72.7135479636"><ele>86.60</ele><time>2024-07-28T03:49:04Z</time></trkpt><trkpt lat="-39.4107805844" lon="-72.7135030366"><ele>86.65</ele><time>2024-07-28T03:49:05Z</time></trkpt><trkpt lat="-39.4108181354" lon="-72.7134500630"><ele>86.63</ele><time>2024-07-28T03:49:06Z</time></trkpt><trkpt lat="-39.4114139210" lon="-72.7125838771"><ele>86.39</ele><time>2024-07-28T03:49:19Z</time></trkpt><trkpt lat="-39.4120331760" lon="-72.7116769552"><ele>86.35</ele><time>2024-07-28T03:49:33Z</time></trkpt><trkpt lat="-39.4122226071" lon="-72.7115406655"><ele>86.57</ele><time>2024-07-28T03:49:39Z</time></trkpt><trkpt lat="-39.4122632593" lon="-72.7115751989"><ele>86.40</ele><time>2024-07-28T03:49:40Z</time></trkpt><trkpt lat="-39.4123070966" lon="-72.7116224729"><ele>86.54</ele><time>2024-07-28T03:49:41Z</time></trkpt><trkpt lat="-39.4129202329" lon="-72.7123614214"><ele>85.89</ele><time>2024-07-28T03:49:53Z</time></trkpt><trkpt lat="-39.4129333086" lon="-72.7124085277"><ele>85.87</ele><time>2024-07-28T03:49:54Z</time></trkpt><trkpt lat="-39.4129299559" lon="-72.7124527004"><ele>85.76</ele><time>2024-07-28T03:49:55Z</time></trkpt><trkpt lat="-39.4129119348" lon="-72.7124971244"><ele>85.77</ele><time>2024-07-28T03:49:56Z</time></trkpt><trkpt lat="-39.4128846098" lon="-72.7125443984"><ele>85.52</ele><time>2024-07-28T03:49:57Z</time></trkpt><trkpt lat="-39.4128489867" lon="-72.7125910018"><ele>85.21</ele><time>2024-07-28T03:49:58Z</time></trkpt><trkpt lat="-39.4128086697" lon="-72.7126462385"><ele>85.17</ele><time>2024-07-28T03:49:59Z</time></trkpt><trkpt lat="-39.4127648324" lon="-72.7127062529"><ele>85.15</ele><time>2024-07-28T03:50:00Z</time></trkpt><trkpt lat="-39.4122683723" lon="-72.7133932337"><ele>85.59</ele><time>2024-07-28T03:50:11Z</time></trkpt><trkpt lat="-39.4122293126" lon="-72.7134234924"><ele>85.65</ele><time>2024-07-28T03:50:12Z</time></trkpt><trkpt lat="-39.4121895824" lon="-72.7134363167"><ele>85.63</ele><time>2024-07-28T03:50:13Z</time></trkpt><trkpt lat="-39.4121483434" lon="-72.7134312037"><ele>85.87</ele><time>2024-07-28T03:50:14Z</time></trkpt><trkpt lat="-39.4121082779" lon="-72.7134108357"><ele>85.87</ele><time>2024-07-28T03:50:15Z</time></trkpt><trkpt lat="-39.4120671228" lon="-72.7133813314"><ele>86.07</ele><time>2024-07-28T03:50:16Z</time></trkpt><trkpt lat="-39.4120226149" lon="-72.7133349795"><ele>86.07</ele><time>2024-07-28T03:50:17Z</time></trkpt><trkpt lat="-39.4119776040" lon="-72.7132833470"><ele>86.13</ele><time>2024-07-28T03:50:18Z</time></trkpt><trkpt lat="-39.4113685749" lon="-72.7125505172"><ele>85.71</ele><time>2024-07-28T03:50:31Z</time></trkpt><trkpt lat="-39.4109581970" lon="-72.7120748442"><ele>86.43</ele><time>2024-07-28T03:50:40Z</time></trkpt><trkpt lat="-39.4104880560" lon="-72.7115565911"><ele>87.40</ele><time>2024-07-28T03:50:51Z</time></trkpt><trkpt lat="-39.4100270513" lon="-72.7110659145"><ele>88.64</ele><time>2024-07-28T03:51:01Z</time></trkpt><trkpt lat="-39.4095636997" lon="-72.7105400339"><ele>88.09</ele><time>2024-07-28T03:51:13Z</time></trkpt><trkpt lat="-39.4089559279" lon="-72.7098870836"><ele>87.29</ele><time>2024-07-28T03:51:25Z</time></trkpt><trkpt lat="-39.4089119229" lon="-72.7097425796"><ele>87.14</ele><time>2024-07-28T03:51:29Z</time></trkpt><trkpt lat="-39.4089257531" lon="-72.7097169310"><ele>87.13</ele><time>2024-07-28T03:51:30Z</time></trkpt><trkpt lat="-39.4090155233" lon="-72.7096311003"><ele>86.69</ele><time>2024-07-28T03:51:42Z</time></trkpt><trkpt lat="-39.4090407528" lon="-72.7096534800"><ele>86.48</ele><time>2024-07-28T03:52:10Z</time></trkpt></trkseg></trk></gpx>