<?xml version="1.0" encoding="UTF-8" standalone="no" ?><gpx xmlns="http://www.topografix.com/GPX/1/1" xmlns:gpxx="http://www.garmin.com/xmlschemas/GpxExtensions/v3" xmlns:gpxtrkx="http://www.garmin.com/xmlschemas/TrackStatsExtension/v1" xmlns:wptx1="http://www.garmin.com/xmlschemas/WaypointExtension/v1" xmlns:gpxtpx="http://www.garmin.com/xmlschemas/TrackPointExtension/v1" creator="GPSMAP 64sx" version="1.1" xmlns:xsi="http://www.w3.org/2001/XMLSchema-instance" xsi:schemaLocation="http://www.topografix.com/GPX/1/1 http://www.topografix.com/GPX/1/1/gpx.xsd http://www.garmin.com/xmlschemas/GpxExtensions/v3 http://www8.garmin.com/xmlschemas/GpxExtensionsv3.xsd http://www.garmin.com/xmlschemas/TrackStatsExtension/v1 http://www8.garmin.com/xmlschemas/TrackStatsExtension.xsd http://www.garmin.com/xmlschemas/WaypointExtension/v1 http://www8.garmin.com/xmlschemas/WaypointExtensionv1.xsd http://www.garmin.com/xmlschemas/TrackPointExtension/v1 http://www.garmin.com/xmlschemas/TrackPointExtensionv1.xsd"><metadata><link href="http://www.garmin.com"><text>Garmin International</text></link><time>2024-08-17T04:34:03Z</time></metadata><trk><name>GPS LAPAZ 240816</name><extensions><gpxx:TrackExtension><gpxx:DisplayColor>Cyan</gpxx:DisplayColor></gpxx:TrackExtension><gpxtrkx:TrackStatsExtension><gpxtrkx:Distance>3674.000</gpxtrkx:Distance><gpxtrkx:TotalElapsedTime>760</gpxtrkx:TotalElapsedTime><gpxtrkx:MovingTime>647</gpxtrkx:MovingTime><gpxtrkx:StoppedTime>112</gpxtrkx:StoppedTime><gpxtrkx:MovingSpeed>5.679</gpxtrkx:MovingSpeed><gpxtrkx:MaxSpeed>9.683</gpxtrkx:MaxSpeed><gpxtrkx:MaxElevation>87.394</gpxtrkx:MaxElevation><gpxtrkx:MinElevation>78.515</gpxtrkx:MinElevation><gpxtrkx:Ascent>11.000</gpxtrkx:Ascent><gpxtrkx:Descent>9.852</gpxtrkx:Descent><gpxtrkx:AvgAscentRate>0.037</gpxtrkx:AvgAscentRate><gpxtrkx:MaxAscentRate>0.079</gpxtrkx:MaxAscentRate><gpxtrkx:AvgDescentRate>0.056</gpxtrkx:AvgDescentRate><gpxtrkx:MaxDescentRate>-0.038</gpxtrkx:MaxDescentRate></gpxtrkx:TrackStatsExtension></extensions><trkseg><trkpt lat="-39.4063099287" lon="-72.7035443299"><ele>83.28</ele><time>2024-08-17T04:21:23Z</time></trkpt><trkpt lat="-39.4063114375" lon="-72.7035426535"><ele>83.28</ele><time>2024-08-17T04:21:24Z</time></trkpt><trkpt lat="-39.4063008763" lon="-72.7035125624"><ele>83.86</ele><time>2024-08-17T04:22:02Z</time></trkpt><trkpt lat="-39.4063100964" lon="-72.7035175078"><ele>83.89</ele><time>2024-08-17T04:22:16Z</time></trkpt><trkpt lat="-39.4063311350" lon="-72.7035331819"><ele>83.90</ele><time>2024-08-17T04:22:17Z</time></trkpt><trkpt lat="-39.4063624833" lon="-72.7035583276"><ele>84.08</ele><time>2024-08-17T04:22:18Z</time></trkpt><trkpt lat="-39.4063963462" lon="-72.7035916876"><ele>84.16</ele><time>2024-08-17T04:22:19Z</time></trkpt><trkpt lat="-39.4064303767" lon="-72.7036325075"><ele>84.34</ele><time>2024-08-17T04:22:20Z</time></trkpt><trkpt lat="-39.4064696040" lon="-72.7036822960"><ele>84.44</ele><time>2024-08-17T04:22:21Z</time></trkpt><trkpt lat="-39.4069902040" lon="-72.7045490686"><ele>86.88</ele><time>2024-08-17T04:22:32Z</time></trkpt><trkpt lat="-39.4071054552" lon="-72.7049376536"><ele>87.23</ele><time>2024-08-17T04:22:36Z</time></trkpt><trkpt lat="-39.4071288407" lon="-72.7050363086"><ele>86.89</ele><time>2024-08-17T04:22:37Z</time></trkpt><trkpt lat="-39.4071509689" lon="-72.7051358018"><ele>86.73</ele><time>2024-08-17T04:22:38Z</time></trkpt><trkpt lat="-39.4071721751" lon="-72.7052397374"><ele>86.23</ele><time>2024-08-17T04:22:39Z</time></trkpt><trkpt lat="-39.4071975723" lon="-72.7053416613"><ele>85.92</ele><time>2024-08-17T04:22:40Z</time></trkpt><trkpt lat="-39.4072220474" lon="-72.7054392267"><ele>85.65</ele><time>2024-08-17T04:22:41Z</time></trkpt><trkpt lat="-39.4072533119" lon="-72.7055296674"><ele>84.94</ele><time>2024-08-17T04:22:42Z</time></trkpt><trkpt lat="-39.4072829839" lon="-72.7056255564"><ele>84.61</ele><time>2024-08-17T04:22:43Z</time></trkpt><trkpt lat="-39.4076337665" lon="-72.7063277084"><ele>84.12</ele><time>2024-08-17T04:22:52Z</time></trkpt><trkpt lat="-39.4076575711" lon="-72.7063925005"><ele>84.05</ele><time>2024-08-17T04:22:53Z</time></trkpt><trkpt lat="-39.4076730777" lon="-72.7064640820"><ele>83.88</ele><time>2024-08-17T04:22:54Z</time></trkpt><trkpt lat="-39.4076823816" lon="-72.7065433748"><ele>83.99</ele><time>2024-08-17T04:22:55Z</time></trkpt><trkpt lat="-39.4076913502" lon="-72.7066295408"><ele>84.02</ele><time>2024-08-17T04:22:56Z</time></trkpt><trkpt lat="-39.4077066053" lon="-72.7067204006"><ele>84.20</ele><time>2024-08-17T04:22:57Z</time></trkpt><trkpt lat="-39.4077327568" lon="-72.7068108413"><ele>84.35</ele><time>2024-08-17T04:22:58Z</time></trkpt><trkpt lat="-39.4077677093" lon="-72.7068941575"><ele>84.43</ele><time>2024-08-17T04:22:59Z</time></trkpt><trkpt lat="-39.4078726508" lon="-72.7071344666"><ele>84.42</ele><time>2024-08-17T04:23:02Z</time></trkpt><trkpt lat="-39.4078877382" lon="-72.7072214708"><ele>84.40</ele><time>2024-08-17T04:23:03Z</time></trkpt><trkpt lat="-39.4079102855" lon="-72.7073910367"><ele>84.31</ele><time>2024-08-17T04:23:05Z</time></trkpt><trkpt lat="-39.4079320785" lon="-72.7074741852"><ele>84.21</ele><time>2024-08-17T04:23:06Z</time></trkpt><trkpt lat="-39.4079646841" lon="-72.7075508796"><ele>84.05</ele><time>2024-08-17T04:23:07Z</time></trkpt><trkpt lat="-39.4080070127" lon="-72.7076194435"><ele>84.04</ele><time>2024-08-17T04:23:08Z</time></trkpt><trkpt lat="-39.4080568850" lon="-72.7076808829"><ele>83.98</ele><time>2024-08-17T04:23:09Z</time></trkpt><trkpt lat="-39.4081146363" lon="-72.7077305876"><ele>83.89</ele><time>2024-08-17T04:23:10Z</time></trkpt><trkpt lat="-39.4081795122" lon="-72.7077652887"><ele>83.86</ele><time>2024-08-17T04:23:11Z</time></trkpt><trkpt lat="-39.4082495850" lon="-72.7077858243"><ele>83.82</ele><time>2024-08-17T04:23:12Z</time></trkpt><trkpt lat="-39.4083194900" lon="-72.7078010794"><ele>83.74</ele><time>2024-08-17T04:23:13Z</time></trkpt><trkpt lat="-39.4083926640" lon="-72.7078082878"><ele>83.68</ele><time>2024-08-17T04:23:14Z</time></trkpt><trkpt lat="-39.4086859468" lon="-72.7078419831"><ele>83.84</ele><time>2024-08-17T04:23:18Z</time></trkpt><trkpt lat="-39.4087530859" lon="-72.7078642789"><ele>83.90</ele><time>2024-08-17T04:23:19Z</time></trkpt><trkpt lat="-39.4088185485" lon="-72.7078912687"><ele>84.01</ele><time>2024-08-17T04:23:20Z</time></trkpt><trkpt lat="-39.4088839274" lon="-72.7079249639"><ele>83.98</ele><time>2024-08-17T04:23:21Z</time></trkpt><trkpt lat="-39.4089483004" lon="-72.7079653647"><ele>84.02</ele><time>2024-08-17T04:23:22Z</time></trkpt><trkpt lat="-39.4090115838" lon="-72.7080128063"><ele>83.95</ele><time>2024-08-17T04:23:23Z</time></trkpt><trkpt lat="-39.4090724364" lon="-72.7080649417"><ele>83.78</ele><time>2024-08-17T04:23:24Z</time></trkpt><trkpt lat="-39.4091311097" lon="-72.7081201784"><ele>83.91</ele><time>2024-08-17T04:23:25Z</time></trkpt><trkpt lat="-39.4095744286" lon="-72.7085923310"><ele>82.33</ele><time>2024-08-17T04:23:34Z</time></trkpt><trkpt lat="-39.4095952157" lon="-72.7086313069"><ele>82.18</ele><time>2024-08-17T04:23:35Z</time></trkpt><trkpt lat="-39.4096053578" lon="-72.7086682711"><ele>82.57</ele><time>2024-08-17T04:23:36Z</time></trkpt><trkpt lat="-39.4096046872" lon="-72.7087038942"><ele>82.42</ele><time>2024-08-17T04:23:37Z</time></trkpt><trkpt lat="-39.4095885940" lon="-72.7087445464"><ele>82.23</ele><time>2024-08-17T04:23:38Z</time></trkpt><trkpt lat="-39.4095573295" lon="-72.7087911498"><ele>81.96</ele><time>2024-08-17T04:23:39Z</time></trkpt><trkpt lat="-39.4095222931" lon="-72.7088411059"><ele>81.94</ele><time>2024-08-17T04:23:40Z</time></trkpt><trkpt lat="-39.4091751985" lon="-72.7093880251"><ele>81.55</ele><time>2024-08-17T04:23:50Z</time></trkpt><trkpt lat="-39.4088508189" lon="-72.7097673900"><ele>81.31</ele><time>2024-08-17T04:24:00Z</time></trkpt><trkpt lat="-39.4088199735" lon="-72.7097575832"><ele>81.42</ele><time>2024-08-17T04:24:01Z</time></trkpt><trkpt lat="-39.4087857753" lon="-72.7097347006"><ele>81.41</ele><time>2024-08-17T04:24:02Z</time></trkpt><trkpt lat="-39.4087480567" lon="-72.7096996643"><ele>81.49</ele><time>2024-08-17T04:24:03Z</time></trkpt><trkpt lat="-39.4081600662" lon="-72.7090492286"><ele>81.77</ele><time>2024-08-17T04:24:16Z</time></trkpt><trkpt lat="-39.4077014085" lon="-72.7085194085"><ele>81.05</ele><time>2024-08-17T04:24:27Z</time></trkpt><trkpt lat="-39.4072343688" lon="-72.7080653608"><ele>81.04</ele><time>2024-08-17T04:24:40Z</time></trkpt><trkpt lat="-39.4070724305" lon="-72.7082775906"><ele>80.50</ele><time>2024-08-17T04:24:47Z</time></trkpt><trkpt lat="-39.4070879370" lon="-72.7085734718"><ele>80.91</ele><time>2024-08-17T04:24:52Z</time></trkpt><trkpt lat="-39.4071988296" lon="-72.7094997559"><ele>81.20</ele><time>2024-08-17T04:25:06Z</time></trkpt><trkpt lat="-39.4072216284" lon="-72.7096332796"><ele>81.16</ele><time>2024-08-17T04:25:08Z</time></trkpt><trkpt lat="-39.4072540663" lon="-72.7097515482"><ele>81.15</ele><time>2024-08-17T04:25:10Z</time></trkpt><trkpt lat="-39.4074261468" lon="-72.7100646123"><ele>81.17</ele><time>2024-08-17T04:25:16Z</time></trkpt><trkpt lat="-39.4080042467" lon="-72.7106971107"><ele>81.62</ele><time>2024-08-17T04:25:31Z</time></trkpt><trkpt lat="-39.4081763271" lon="-72.7108951751"><ele>81.62</ele><time>2024-08-17T04:25:37Z</time></trkpt><trkpt lat="-39.4086045586" lon="-72.7113529947"><ele>81.83</ele><time>2024-08-17T04:25:50Z</time></trkpt><trkpt lat="-39.4089984242" lon="-72.7117758617"><ele>81.40</ele><time>2024-08-17T04:26:04Z</time></trkpt><trkpt lat="-39.4090564270" lon="-72.7117466927"><ele>81.45</ele><time>2024-08-17T04:26:06Z</time></trkpt><trkpt lat="-39.4090874400" lon="-72.7117119078"><ele>81.47</ele><time>2024-08-17T04:26:07Z</time></trkpt><trkpt lat="-39.4091163576" lon="-72.7116721775"><ele>81.37</ele><time>2024-08-17T04:26:08Z</time></trkpt><trkpt lat="-39.4095346145" lon="-72.7109922376"><ele>81.70</ele><time>2024-08-17T04:26:22Z</time></trkpt><trkpt lat="-39.4098051824" lon="-72.7105453145"><ele>81.68</ele><time>2024-08-17T04:26:34Z</time></trkpt><trkpt lat="-39.4102924224" lon="-72.7097833157"><ele>81.07</ele><time>2024-08-17T04:26:47Z</time></trkpt><trkpt lat="-39.4105092622" lon="-72.7095943037"><ele>81.26</ele><time>2024-08-17T04:26:56Z</time></trkpt><trkpt lat="-39.4105432089" lon="-72.7096274123"><ele>81.26</ele><time>2024-08-17T04:26:57Z</time></trkpt><trkpt lat="-39.4105836097" lon="-72.7096763626"><ele>81.22</ele><time>2024-08-17T04:26:58Z</time></trkpt><trkpt lat="-39.4111867715" lon="-72.7103610802"><ele>80.95</ele><time>2024-08-17T04:27:10Z</time></trkpt><trkpt lat="-39.4112127554" lon="-72.7104066778"><ele>80.82</ele><time>2024-08-17T04:27:11Z</time></trkpt><trkpt lat="-39.4112287648" lon="-72.7104527783"><ele>80.76</ele><time>2024-08-17T04:27:12Z</time></trkpt><trkpt lat="-39.4112330396" lon="-72.7105009742"><ele>80.65</ele><time>2024-08-17T04:27:13Z</time></trkpt><trkpt lat="-39.4112276752" lon="-72.7105455659"><ele>80.63</ele><time>2024-08-17T04:27:14Z</time></trkpt><trkpt lat="-39.4112073071" lon="-72.7105907444"><ele>80.46</ele><time>2024-08-17T04:27:15Z</time></trkpt><trkpt lat="-39.4111836702" lon="-72.7106317319"><ele>80.30</ele><time>2024-08-17T04:27:16Z</time></trkpt><trkpt lat="-39.4111550879" lon="-72.7106774971"><ele>80.28</ele><time>2024-08-17T04:27:17Z</time></trkpt><trkpt lat="-39.4111234043" lon="-72.7107260283"><ele>80.23</ele><time>2024-08-17T04:27:18Z</time></trkpt><trkpt lat="-39.4105981104" lon="-72.7115267515"><ele>81.18</ele><time>2024-08-17T04:27:33Z</time></trkpt><trkpt lat="-39.4100895803" lon="-72.7123138960"><ele>81.56</ele><time>2024-08-17T04:27:46Z</time></trkpt><trkpt lat="-39.4100184180" lon="-72.7124233637"><ele>81.49</ele><time>2024-08-17T04:27:48Z</time></trkpt><trkpt lat="-39.4098441582" lon="-72.7127545327"><ele>81.44</ele><time>2024-08-17T04:27:56Z</time></trkpt><trkpt lat="-39.4098564796" lon="-72.7127954364"><ele>81.25</ele><time>2024-08-17T04:27:57Z</time></trkpt><trkpt lat="-39.4098770153" lon="-72.7128334064"><ele>81.24</ele><time>2024-08-17T04:27:58Z</time></trkpt><trkpt lat="-39.4099089503" lon="-72.7128748968"><ele>81.28</ele><time>2024-08-17T04:27:59Z</time></trkpt><trkpt lat="-39.4099516142" lon="-72.7129220031"><ele>81.37</ele><time>2024-08-17T04:28:00Z</time></trkpt><trkpt lat="-39.4105808437" lon="-72.7135595307"><ele>80.41</ele><time>2024-08-17T04:28:13Z</time></trkpt><trkpt lat="-39.4106214959" lon="-72.7135659847"><ele>80.36</ele><time>2024-08-17T04:28:14Z</time></trkpt><trkpt lat="-39.4106655009" lon="-72.7135544177"><ele>80.49</ele><time>2024-08-17T04:28:15Z</time></trkpt><trkpt lat="-39.4107085001" lon="-72.7135214768"><ele>80.35</ele><time>2024-08-17T04:28:16Z</time></trkpt><trkpt lat="-39.4107468054" lon="-72.7134726942"><ele>80.32</ele><time>2024-08-17T04:28:17Z</time></trkpt><trkpt lat="-39.4107854459" lon="-72.7134130150"><ele>80.09</ele><time>2024-08-17T04:28:18Z</time></trkpt><trkpt lat="-39.4108255114" lon="-72.7133496478"><ele>79.99</ele><time>2024-08-17T04:28:19Z</time></trkpt><trkpt lat="-39.4115192816" lon="-72.7122833021"><ele>80.12</ele><time>2024-08-17T04:28:35Z</time></trkpt><trkpt lat="-39.4120804500" lon="-72.7114714310"><ele>78.74</ele><time>2024-08-17T04:28:49Z</time></trkpt><trkpt lat="-39.4121734891" lon="-72.7114589419"><ele>81.06</ele><time>2024-08-17T04:28:52Z</time></trkpt><trkpt lat="-39.4122162368" lon="-72.7114924695"><ele>82.26</ele><time>2024-08-17T04:28:53Z</time></trkpt><trkpt lat="-39.4122665282" lon="-72.7115461137"><ele>81.24</ele><time>2024-08-17T04:28:54Z</time></trkpt><trkpt lat="-39.4123841263" lon="-72.7116844151"><ele>80.63</ele><time>2024-08-17T04:28:56Z</time></trkpt><trkpt lat="-39.4126556162" lon="-72.7119934559"><ele>80.18</ele><time>2024-08-17T04:29:01Z</time></trkpt><trkpt lat="-39.4127546903" lon="-72.7121081203"><ele>79.97</ele><time>2024-08-17T04:29:03Z</time></trkpt><trkpt lat="-39.4128350727" lon="-72.7122129779"><ele>79.25</ele><time>2024-08-17T04:29:05Z</time></trkpt><trkpt lat="-39.4128592126" lon="-72.7122676279"><ele>78.52</ele><time>2024-08-17T04:29:06Z</time></trkpt><trkpt lat="-39.4128689356" lon="-72.7123211883"><ele>78.55</ele><time>2024-08-17T04:29:07Z</time></trkpt><trkpt lat="-39.4128711149" lon="-72.7123722341"><ele>79.64</ele><time>2024-08-17T04:29:08Z</time></trkpt><trkpt lat="-39.4128627330" lon="-72.7124184184"><ele>80.27</ele><time>2024-08-17T04:29:09Z</time></trkpt><trkpt lat="-39.4128464721" lon="-72.7124561369"><ele>80.34</ele><time>2024-08-17T04:29:10Z</time></trkpt><trkpt lat="-39.4128152914" lon="-72.7125003096"><ele>80.34</ele><time>2024-08-17T04:29:11Z</time></trkpt><trkpt lat="-39.4127768185" lon="-72.7125528641"><ele>80.22</ele><time>2024-08-17T04:29:12Z</time></trkpt><trkpt lat="-39.4122387003" lon="-72.7133494802"><ele>79.10</ele><time>2024-08-17T04:29:25Z</time></trkpt><trkpt lat="-39.4122051727" lon="-72.7133820020"><ele>79.29</ele><time>2024-08-17T04:29:26Z</time></trkpt><trkpt lat="-39.4121687114" lon="-72.7134025376"><ele>79.44</ele><time>2024-08-17T04:29:27Z</time></trkpt><trkpt lat="-39.4121443201" lon="-72.7133945748"><ele>79.98</ele><time>2024-08-17T04:29:28Z</time></trkpt><trkpt lat="-39.4121076073" lon="-72.7133659087"><ele>80.82</ele><time>2024-08-17T04:29:29Z</time></trkpt><trkpt lat="-39.4120655302" lon="-72.7133256756"><ele>80.72</ele><time>2024-08-17T04:29:30Z</time></trkpt><trkpt lat="-39.4120252132" lon="-72.7132793237"><ele>80.56</ele><time>2024-08-17T04:29:31Z</time></trkpt><trkpt lat="-39.4119853154" lon="-72.7132296190"><ele>80.55</ele><time>2024-08-17T04:29:32Z</time></trkpt><trkpt lat="-39.4113642164" lon="-72.7125119604"><ele>80.08</ele><time>2024-08-17T04:29:47Z</time></trkpt><trkpt lat="-39.4113244861" lon="-72.7124661952"><ele>80.04</ele><time>2024-08-17T04:29:48Z</time></trkpt><trkpt lat="-39.4112777151" lon="-72.7124101203"><ele>80.62</ele><time>2024-08-17T04:29:49Z</time></trkpt><trkpt lat="-39.4106349908" lon="-72.7116793022"><ele>81.36</ele><time>2024-08-17T04:30:01Z</time></trkpt><trkpt lat="-39.4104779139" lon="-72.7115376480"><ele>81.86</ele><time>2024-08-17T04:30:08Z</time></trkpt><trkpt lat="-39.4101033267" lon="-72.7111335564"><ele>82.83</ele><time>2024-08-17T04:30:19Z</time></trkpt><trkpt lat="-39.4097268954" lon="-72.7107155509"><ele>82.71</ele><time>2024-08-17T04:30:32Z</time></trkpt><trkpt lat="-39.4092901144" lon="-72.7102651075"><ele>82.66</ele><time>2024-08-17T04:30:44Z</time></trkpt><trkpt lat="-39.4088860229" lon="-72.7097624447"><ele>81.53</ele><time>2024-08-17T04:30:56Z</time></trkpt><trkpt lat="-39.4088900462" lon="-72.7097225469"><ele>81.72</ele><time>2024-08-17T04:30:57Z</time></trkpt><trkpt lat="-39.4089076482" lon="-72.7096805535"><ele>82.64</ele><time>2024-08-17T04:30:58Z</time></trkpt><trkpt lat="-39.4089400861" lon="-72.7096328605"><ele>82.85</ele><time>2024-08-17T04:30:59Z</time></trkpt><trkpt lat="-39.4094508793" lon="-72.7088429499"><ele>82.89</ele><time>2024-08-17T04:31:13Z</time></trkpt><trkpt lat="-39.4095675554" lon="-72.7085411176"><ele>83.48</ele><time>2024-08-17T04:31:21Z</time></trkpt><trkpt lat="-39.4095360395" lon="-72.7084855456"><ele>83.36</ele><time>2024-08-17T04:31:22Z</time></trkpt><trkpt lat="-39.4094898552" lon="-72.7084302250"><ele>83.49</ele><time>2024-08-17T04:31:23Z</time></trkpt><trkpt lat="-39.4094347022" lon="-72.7083715517"><ele>83.61</ele><time>2024-08-17T04:31:24Z</time></trkpt><trkpt lat="-39.4093732629" lon="-72.7083112858"><ele>83.81</ele><time>2024-08-17T04:31:25Z</time></trkpt><trkpt lat="-39.4089495577" lon="-72.7078975551"><ele>84.75</ele><time>2024-08-17T04:31:32Z</time></trkpt><trkpt lat="-39.4087593723" lon="-72.7077715751"><ele>85.04</ele><time>2024-08-17T04:31:35Z</time></trkpt><trkpt lat="-39.4086896349" lon="-72.7077455074"><ele>85.08</ele><time>2024-08-17T04:31:36Z</time></trkpt><trkpt lat="-39.4086162932" lon="-72.7077296656"><ele>85.03</ele><time>2024-08-17T04:31:37Z</time></trkpt><trkpt lat="-39.4081661850" lon="-72.7076519653"><ele>84.53</ele><time>2024-08-17T04:31:43Z</time></trkpt><trkpt lat="-39.4081013091" lon="-72.7076165937"><ele>84.51</ele><time>2024-08-17T04:31:44Z</time></trkpt><trkpt lat="-39.4080427196" lon="-72.7075689007"><ele>84.31</ele><time>2024-08-17T04:31:45Z</time></trkpt><trkpt lat="-39.4079917576" lon="-72.7075109817"><ele>84.61</ele><time>2024-08-17T04:31:46Z</time></trkpt><trkpt lat="-39.4079503510" lon="-72.7074496262"><ele>84.54</ele><time>2024-08-17T04:31:47Z</time></trkpt><trkpt lat="-39.4079173263" lon="-72.7073815651"><ele>84.65</ele><time>2024-08-17T04:31:48Z</time></trkpt><trkpt lat="-39.4079009816" lon="-72.7073158510"><ele>84.73</ele><time>2024-08-17T04:31:49Z</time></trkpt><trkpt lat="-39.4079054240" lon="-72.7072587702"><ele>84.69</ele><time>2024-08-17T04:31:50Z</time></trkpt><trkpt lat="-39.4079194218" lon="-72.7072148491"><ele>85.08</ele><time>2024-08-17T04:31:51Z</time></trkpt><trkpt lat="-39.4079326652" lon="-72.7071876079"><ele>85.23</ele><time>2024-08-17T04:31:52Z</time></trkpt><trkpt lat="-39.4079457410" lon="-72.7071681619"><ele>85.15</ele><time>2024-08-17T04:31:53Z</time></trkpt><trkpt lat="-39.4080824498" lon="-72.7071040403"><ele>85.13</ele><time>2024-08-17T04:31:58Z</time></trkpt><trkpt lat="-39.4081366807" lon="-72.7071065549"><ele>85.48</ele><time>2024-08-17T04:31:59Z</time></trkpt><trkpt lat="-39.4082051609" lon="-72.7071076445"><ele>85.56</ele><time>2024-08-17T04:32:00Z</time></trkpt><trkpt lat="-39.4082790893" lon="-72.7070888691"><ele>85.46</ele><time>2024-08-17T04:32:01Z</time></trkpt><trkpt lat="-39.4083513413" lon="-72.7070576046"><ele>85.47</ele><time>2024-08-17T04:32:02Z</time></trkpt><trkpt lat="-39.4084226713" lon="-72.7070230711"><ele>85.35</ele><time>2024-08-17T04:32:03Z</time></trkpt><trkpt lat="-39.4086121861" lon="-72.7068933193"><ele>85.48</ele><time>2024-08-17T04:32:06Z</time></trkpt><trkpt lat="-39.4086257648" lon="-72.7067737933"><ele>85.52</ele><time>2024-08-17T04:32:07Z</time></trkpt><trkpt lat="-39.4086378347" lon="-72.7066756412"><ele>85.55</ele><time>2024-08-17T04:32:08Z</time></trkpt><trkpt lat="-39.4086442050" lon="-72.7065778244"><ele>85.52</ele><time>2024-08-17T04:32:09Z</time></trkpt><trkpt lat="-39.4086411875" lon="-72.7064739726"><ele>85.61</ele><time>2024-08-17T04:32:10Z</time></trkpt><trkpt lat="-39.4086279441" lon="-72.7063677739"><ele>85.69</ele><time>2024-08-17T04:32:11Z</time></trkpt><trkpt lat="-39.4086073246" lon="-72.7062623296"><ele>85.85</ele><time>2024-08-17T04:32:12Z</time></trkpt><trkpt lat="-39.4085791614" lon="-72.7061680332"><ele>85.80</ele><time>2024-08-17T04:32:13Z</time></trkpt><trkpt lat="-39.4085457176" lon="-72.7060829569"><ele>85.78</ele><time>2024-08-17T04:32:14Z</time></trkpt><trkpt lat="-39.4085105136" lon="-72.7060050890"><ele>85.69</ele><time>2024-08-17T04:32:15Z</time></trkpt><trkpt lat="-39.4084126968" lon="-72.7058288176"><ele>85.90</ele><time>2024-08-17T04:32:18Z</time></trkpt><trkpt lat="-39.4083642494" lon="-72.7057599183"><ele>85.63</ele><time>2024-08-17T04:32:25Z</time></trkpt><trkpt lat="-39.4083645009" lon="-72.7057802025"><ele>85.76</ele><time>2024-08-17T04:33:00Z</time></trkpt><trkpt lat="-39.4083520956" lon="-72.7057586610"><ele>86.12</ele><time>2024-08-17T04:33:32Z</time></trkpt><trkpt lat="-39.4083764870" lon="-72.7057418972"><ele>86.27</ele><time>2024-08-17T04:34:02Z</time></trkpt></trkseg></trk></gpx>