<?xml version="1.0" encoding="UTF-8" standalone="no" ?><gpx xmlns="http://www.topografix.com/GPX/1/1" xmlns:gpxx="http://www.garmin.com/xmlschemas/GpxExtensions/v3" xmlns:gpxtrkx="http://www.garmin.com/xmlschemas/TrackStatsExtension/v1" xmlns:wptx1="http://www.garmin.com/xmlschemas/WaypointExtension/v1" xmlns:gpxtpx="http://www.garmin.com/xmlschemas/TrackPointExtension/v1" creator="GPSMAP 64sx" version="1.1" xmlns:xsi="http://www.w3.org/2001/XMLSchema-instance" xsi:schemaLocation="http://www.topografix.com/GPX/1/1 http://www.topografix.com/GPX/1/1/gpx.xsd http://www.garmin.com/xmlschemas/GpxExtensions/v3 http://www8.garmin.com/xmlschemas/GpxExtensionsv3.xsd http://www.garmin.com/xmlschemas/TrackStatsExtension/v1 http://www8.garmin.com/xmlschemas/TrackStatsExtension.xsd http://www.garmin.com/xmlschemas/WaypointExtension/v1 http://www8.garmin.com/xmlschemas/WaypointExtensionv1.xsd http://www.garmin.com/xmlschemas/TrackPointExtension/v1 http://www.garmin.com/xmlschemas/TrackPointExtensionv1.xsd"><metadata><link href="http://www.garmin.com"><text>Garmin International</text></link><time>2024-07-31T04:06:08Z</time></metadata><trk><name>LAPAZ 240730</name><extensions><gpxx:TrackExtension><gpxx:DisplayColor>Cyan</gpxx:DisplayColor></gpxx:TrackExtension><gpxtrkx:TrackStatsExtension><gpxtrkx:Distance>3422.000</gpxtrkx:Distance><gpxtrkx:TotalElapsedTime>701</gpxtrkx:TotalElapsedTime><gpxtrkx:MovingTime>603</gpxtrkx:MovingTime><gpxtrkx:StoppedTime>97</gpxtrkx:StoppedTime><gpxtrkx:MovingSpeed>5.676</gpxtrkx:MovingSpeed><gpxtrkx:MaxSpeed>14.428</gpxtrkx:MaxSpeed><gpxtrkx:MaxElevation>94.510</gpxtrkx:MaxElevation><gpxtrkx:MinElevation>87.621</gpxtrkx:MinElevation><gpxtrkx:Ascent>14.000</gpxtrkx:Ascent><gpxtrkx:Descent>11.423</gpxtrkx:Descent><gpxtrkx:AvgAscentRate>0.048</gpxtrkx:AvgAscentRate><gpxtrkx:MaxAscentRate>0.194</gpxtrkx:MaxAscentRate><gpxtrkx:AvgDescentRate>0.034</gpxtrkx:AvgDescentRate><gpxtrkx:MaxDescentRate>-0.056</gpxtrkx:MaxDescentRate></gpxtrkx:TrackStatsExtension></extensions><trkseg><trkpt lat="-39.4074016716" lon="-72.7060525306"><ele>89.93</ele><time>2024-07-31T03:54:27Z</time></trkpt><trkpt lat="-39.4074021745" lon="-72.7060520276"><ele>89.93</ele><time>2024-07-31T03:54:28Z</time></trkpt><trkpt lat="-39.4074067008" lon="-72.7060147282"><ele>90.49</ele><time>2024-07-31T03:54:51Z</time></trkpt><trkpt lat="-39.4074294996" lon="-72.7060319949"><ele>90.49</ele><time>2024-07-31T03:55:19Z</time></trkpt><trkpt lat="-39.4074813835" lon="-72.7060879860"><ele>90.51</ele><time>2024-07-31T03:55:21Z</time></trkpt><trkpt lat="-39.4076698925" lon="-72.7063060831"><ele>90.94</ele><time>2024-07-31T03:55:25Z</time></trkpt><trkpt lat="-39.4077081140" lon="-72.7063932549"><ele>91.02</ele><time>2024-07-31T03:55:26Z</time></trkpt><trkpt lat="-39.4077232014" lon="-72.7065011300"><ele>91.14</ele><time>2024-07-31T03:55:27Z</time></trkpt><trkpt lat="-39.4077843055" lon="-72.7068426926"><ele>91.74</ele><time>2024-07-31T03:55:30Z</time></trkpt><trkpt lat="-39.4078290649" lon="-72.7069538366"><ele>91.90</ele><time>2024-07-31T03:55:31Z</time></trkpt><trkpt lat="-39.4079392869" lon="-72.7072805632"><ele>91.89</ele><time>2024-07-31T03:55:34Z</time></trkpt><trkpt lat="-39.4079744071" lon="-72.7075020969"><ele>91.72</ele><time>2024-07-31T03:55:36Z</time></trkpt><trkpt lat="-39.4080112036" lon="-72.7075999975"><ele>91.63</ele><time>2024-07-31T03:55:37Z</time></trkpt><trkpt lat="-39.4080619141" lon="-72.7076850738"><ele>91.47</ele><time>2024-07-31T03:55:38Z</time></trkpt><trkpt lat="-39.4081257004" lon="-72.7077564038"><ele>91.58</ele><time>2024-07-31T03:55:39Z</time></trkpt><trkpt lat="-39.4081993774" lon="-72.7078080364"><ele>91.32</ele><time>2024-07-31T03:55:40Z</time></trkpt><trkpt lat="-39.4082847890" lon="-72.7078384627"><ele>91.27</ele><time>2024-07-31T03:55:41Z</time></trkpt><trkpt lat="-39.4083788339" lon="-72.7078507841"><ele>91.15</ele><time>2024-07-31T03:55:42Z</time></trkpt><trkpt lat="-39.4084731303" lon="-72.7078565676"><ele>91.23</ele><time>2024-07-31T03:55:43Z</time></trkpt><trkpt lat="-39.4087513257" lon="-72.7078992315"><ele>91.32</ele><time>2024-07-31T03:55:46Z</time></trkpt><trkpt lat="-39.4088362344" lon="-72.7079323400"><ele>91.25</ele><time>2024-07-31T03:55:47Z</time></trkpt><trkpt lat="-39.4089165330" lon="-72.7079773508"><ele>91.46</ele><time>2024-07-31T03:55:48Z</time></trkpt><trkpt lat="-39.4089898746" lon="-72.7080312464"><ele>91.45</ele><time>2024-07-31T03:55:49Z</time></trkpt><trkpt lat="-39.4090620428" lon="-72.7080880757"><ele>91.40</ele><time>2024-07-31T03:55:50Z</time></trkpt><trkpt lat="-39.4094986562" lon="-72.7085191570"><ele>89.98</ele><time>2024-07-31T03:55:59Z</time></trkpt><trkpt lat="-39.4096058607" lon="-72.7086589672"><ele>89.63</ele><time>2024-07-31T03:56:02Z</time></trkpt><trkpt lat="-39.4096162543" lon="-72.7087052353"><ele>89.55</ele><time>2024-07-31T03:56:03Z</time></trkpt><trkpt lat="-39.4096075371" lon="-72.7087519225"><ele>89.58</ele><time>2024-07-31T03:56:04Z</time></trkpt><trkpt lat="-39.4095868338" lon="-72.7087989450"><ele>89.32</ele><time>2024-07-31T03:56:05Z</time></trkpt><trkpt lat="-39.4095572457" lon="-72.7088443749"><ele>89.19</ele><time>2024-07-31T03:56:06Z</time></trkpt><trkpt lat="-39.4095230475" lon="-72.7088950854"><ele>89.35</ele><time>2024-07-31T03:56:07Z</time></trkpt><trkpt lat="-39.4090719335" lon="-72.7095608599"><ele>88.45</ele><time>2024-07-31T03:56:19Z</time></trkpt><trkpt lat="-39.4089555927" lon="-72.7097495366"><ele>88.40</ele><time>2024-07-31T03:56:23Z</time></trkpt><trkpt lat="-39.4089407567" lon="-72.7097918652"><ele>88.38</ele><time>2024-07-31T03:56:24Z</time></trkpt><trkpt lat="-39.4089349732" lon="-72.7098199446"><ele>88.24</ele><time>2024-07-31T03:56:25Z</time></trkpt><trkpt lat="-39.4088987634" lon="-72.7098610159"><ele>88.01</ele><time>2024-07-31T03:56:32Z</time></trkpt><trkpt lat="-39.4088482205" lon="-72.7098564897"><ele>88.12</ele><time>2024-07-31T03:56:35Z</time></trkpt><trkpt lat="-39.4088377431" lon="-72.7098469343"><ele>88.19</ele><time>2024-07-31T03:56:36Z</time></trkpt><trkpt lat="-39.4088247512" lon="-72.7098011691"><ele>88.17</ele><time>2024-07-31T03:56:40Z</time></trkpt><trkpt lat="-39.4087991863" lon="-72.7097277436"><ele>88.50</ele><time>2024-07-31T03:56:44Z</time></trkpt><trkpt lat="-39.4087895472" lon="-72.7097152546"><ele>88.51</ele><time>2024-07-31T03:56:45Z</time></trkpt><trkpt lat="-39.4087527506" lon="-72.7096624486"><ele>88.61</ele><time>2024-07-31T03:56:54Z</time></trkpt><trkpt lat="-39.4086594600" lon="-72.7095690742"><ele>89.11</ele><time>2024-07-31T03:56:57Z</time></trkpt><trkpt lat="-39.4081539474" lon="-72.7090308722"><ele>90.74</ele><time>2024-07-31T03:57:06Z</time></trkpt><trkpt lat="-39.4080438092" lon="-72.7089272719"><ele>90.46</ele><time>2024-07-31T03:57:08Z</time></trkpt><trkpt lat="-39.4080005586" lon="-72.7088858653"><ele>90.02</ele><time>2024-07-31T03:57:09Z</time></trkpt><trkpt lat="-39.4074626919" lon="-72.7082767524"><ele>88.68</ele><time>2024-07-31T03:57:23Z</time></trkpt><trkpt lat="-39.4072720036" lon="-72.7080752514"><ele>88.58</ele><time>2024-07-31T03:57:30Z</time></trkpt><trkpt lat="-39.4071101490" lon="-72.7083312348"><ele>88.38</ele><time>2024-07-31T03:57:38Z</time></trkpt><trkpt lat="-39.4072096422" lon="-72.7092805691"><ele>88.64</ele><time>2024-07-31T03:57:54Z</time></trkpt><trkpt lat="-39.4072207063" lon="-72.7094447706"><ele>88.73</ele><time>2024-07-31T03:57:57Z</time></trkpt><trkpt lat="-39.4072682317" lon="-72.7096771169"><ele>89.01</ele><time>2024-07-31T03:58:01Z</time></trkpt><trkpt lat="-39.4075465109" lon="-72.7101749182"><ele>88.70</ele><time>2024-07-31T03:58:14Z</time></trkpt><trkpt lat="-39.4079973735" lon="-72.7106582187"><ele>89.21</ele><time>2024-07-31T03:58:28Z</time></trkpt><trkpt lat="-39.4082728028" lon="-72.7109446283"><ele>89.56</ele><time>2024-07-31T03:58:38Z</time></trkpt><trkpt lat="-39.4086004514" lon="-72.7113092411"><ele>89.53</ele><time>2024-07-31T03:58:50Z</time></trkpt><trkpt lat="-39.4088706840" lon="-72.7115922142"><ele>89.56</ele><time>2024-07-31T03:59:02Z</time></trkpt><trkpt lat="-39.4091025274" lon="-72.7117370535"><ele>89.63</ele><time>2024-07-31T03:59:12Z</time></trkpt><trkpt lat="-39.4091274217" lon="-72.7117067948"><ele>89.69</ele><time>2024-07-31T03:59:13Z</time></trkpt><trkpt lat="-39.4094643742" lon="-72.7111794893"><ele>90.12</ele><time>2024-07-31T03:59:26Z</time></trkpt><trkpt lat="-39.4097620156" lon="-72.7106515970"><ele>90.32</ele><time>2024-07-31T03:59:37Z</time></trkpt><trkpt lat="-39.4097926933" lon="-72.7106053289"><ele>90.15</ele><time>2024-07-31T03:59:38Z</time></trkpt><trkpt lat="-39.4098255504" lon="-72.7105579711"><ele>90.09</ele><time>2024-07-31T03:59:39Z</time></trkpt><trkpt lat="-39.4103414565" lon="-72.7097624447"><ele>89.87</ele><time>2024-07-31T03:59:51Z</time></trkpt><trkpt lat="-39.4104759023" lon="-72.7096034400"><ele>89.28</ele><time>2024-07-31T03:59:56Z</time></trkpt><trkpt lat="-39.4105111063" lon="-72.7096066251"><ele>89.23</ele><time>2024-07-31T03:59:57Z</time></trkpt><trkpt lat="-39.4105515070" lon="-72.7096315194"><ele>89.36</ele><time>2024-07-31T03:59:58Z</time></trkpt><trkpt lat="-39.4105950091" lon="-72.7096768655"><ele>89.53</ele><time>2024-07-31T03:59:59Z</time></trkpt><trkpt lat="-39.4106451329" lon="-72.7097332757"><ele>89.59</ele><time>2024-07-31T04:00:00Z</time></trkpt><trkpt lat="-39.4112322014" lon="-72.7104027383"><ele>89.54</ele><time>2024-07-31T04:00:10Z</time></trkpt><trkpt lat="-39.4112637173" lon="-72.7104567178"><ele>89.36</ele><time>2024-07-31T04:00:11Z</time></trkpt><trkpt lat="-39.4112746976" lon="-72.7105110325"><ele>89.20</ele><time>2024-07-31T04:00:12Z</time></trkpt><trkpt lat="-39.4112645555" lon="-72.7105691191"><ele>89.15</ele><time>2024-07-31T04:00:13Z</time></trkpt><trkpt lat="-39.4112430140" lon="-72.7106181532"><ele>88.94</ele><time>2024-07-31T04:00:14Z</time></trkpt><trkpt lat="-39.4112137612" lon="-72.7106704563"><ele>88.77</ele><time>2024-07-31T04:00:15Z</time></trkpt><trkpt lat="-39.4107059017" lon="-72.7114430163"><ele>89.74</ele><time>2024-07-31T04:00:27Z</time></trkpt><trkpt lat="-39.4100561365" lon="-72.7124392893"><ele>90.54</ele><time>2024-07-31T04:00:40Z</time></trkpt><trkpt lat="-39.4098777696" lon="-72.7127429657"><ele>89.66</ele><time>2024-07-31T04:00:45Z</time></trkpt><trkpt lat="-39.4098755065" lon="-72.7127842046"><ele>89.49</ele><time>2024-07-31T04:00:46Z</time></trkpt><trkpt lat="-39.4098853972" lon="-72.7128295507"><ele>89.45</ele><time>2024-07-31T04:00:47Z</time></trkpt><trkpt lat="-39.4099147338" lon="-72.7128717117"><ele>89.43</ele><time>2024-07-31T04:00:48Z</time></trkpt><trkpt lat="-39.4099568948" lon="-72.7129194885"><ele>89.39</ele><time>2024-07-31T04:00:49Z</time></trkpt><trkpt lat="-39.4100047555" lon="-72.7129683550"><ele>89.43</ele><time>2024-07-31T04:00:50Z</time></trkpt><trkpt lat="-39.4105883036" lon="-72.7135830000"><ele>88.87</ele><time>2024-07-31T04:01:00Z</time></trkpt><trkpt lat="-39.4106435403" lon="-72.7136057150"><ele>88.85</ele><time>2024-07-31T04:01:01Z</time></trkpt><trkpt lat="-39.4107043929" lon="-72.7135971654"><ele>88.75</ele><time>2024-07-31T04:01:02Z</time></trkpt><trkpt lat="-39.4107635692" lon="-72.7135612071"><ele>88.85</ele><time>2024-07-31T04:01:03Z</time></trkpt><trkpt lat="-39.4108170457" lon="-72.7135027852"><ele>88.83</ele><time>2024-07-31T04:01:04Z</time></trkpt><trkpt lat="-39.4108684268" lon="-72.7134299465"><ele>88.87</ele><time>2024-07-31T04:01:05Z</time></trkpt><trkpt lat="-39.4109193049" lon="-72.7133520786"><ele>88.89</ele><time>2024-07-31T04:01:06Z</time></trkpt><trkpt lat="-39.4117209502" lon="-72.7121269796"><ele>89.25</ele><time>2024-07-31T04:01:20Z</time></trkpt><trkpt lat="-39.4121252093" lon="-72.7115363069"><ele>88.23</ele><time>2024-07-31T04:01:29Z</time></trkpt><trkpt lat="-39.4121890794" lon="-72.7115270868"><ele>88.13</ele><time>2024-07-31T04:01:31Z</time></trkpt><trkpt lat="-39.4122272171" lon="-72.7115573455"><ele>88.22</ele><time>2024-07-31T04:01:32Z</time></trkpt><trkpt lat="-39.4122756645" lon="-72.7116070502"><ele>88.32</ele><time>2024-07-31T04:01:33Z</time></trkpt><trkpt lat="-39.4128900580" lon="-72.7122879121"><ele>88.31</ele><time>2024-07-31T04:01:43Z</time></trkpt><trkpt lat="-39.4129148684" lon="-72.7123451605"><ele>87.91</ele><time>2024-07-31T04:01:44Z</time></trkpt><trkpt lat="-39.4129175507" lon="-72.7123967931"><ele>87.83</ele><time>2024-07-31T04:01:45Z</time></trkpt><trkpt lat="-39.4129033014" lon="-72.7124388702"><ele>87.87</ele><time>2024-07-31T04:01:46Z</time></trkpt><trkpt lat="-39.4128797483" lon="-72.7124760859"><ele>87.68</ele><time>2024-07-31T04:01:47Z</time></trkpt><trkpt lat="-39.4128499925" lon="-72.7125181630"><ele>87.61</ele><time>2024-07-31T04:01:48Z</time></trkpt><trkpt lat="-39.4123283867" lon="-72.7132889628"><ele>88.45</ele><time>2024-07-31T04:02:00Z</time></trkpt><trkpt lat="-39.4122424722" lon="-72.7133926470"><ele>88.25</ele><time>2024-07-31T04:02:02Z</time></trkpt><trkpt lat="-39.4121940248" lon="-72.7134193853"><ele>88.06</ele><time>2024-07-31T04:02:03Z</time></trkpt><trkpt lat="-39.4121480081" lon="-72.7134188823"><ele>88.17</ele><time>2024-07-31T04:02:04Z</time></trkpt><trkpt lat="-39.4121073559" lon="-72.7133907191"><ele>88.12</ele><time>2024-07-31T04:02:05Z</time></trkpt><trkpt lat="-39.4120645244" lon="-72.7133478038"><ele>88.35</ele><time>2024-07-31T04:02:06Z</time></trkpt><trkpt lat="-39.4118676335" lon="-72.7131566126"><ele>88.91</ele><time>2024-07-31T04:02:10Z</time></trkpt><trkpt lat="-39.4114257395" lon="-72.7126349229"><ele>87.89</ele><time>2024-07-31T04:02:20Z</time></trkpt><trkpt lat="-39.4110880326" lon="-72.7122618444"><ele>89.03</ele><time>2024-07-31T04:02:29Z</time></trkpt><trkpt lat="-39.4105945900" lon="-72.7116927132"><ele>89.25</ele><time>2024-07-31T04:02:39Z</time></trkpt><trkpt lat="-39.4104182348" lon="-72.7115085628"><ele>90.06</ele><time>2024-07-31T04:02:48Z</time></trkpt><trkpt lat="-39.4103497546" lon="-72.7114293538"><ele>90.42</ele><time>2024-07-31T04:02:50Z</time></trkpt><trkpt lat="-39.4103092700" lon="-72.7113920543"><ele>90.39</ele><time>2024-07-31T04:02:51Z</time></trkpt><trkpt lat="-39.4098175038" lon="-72.7108668443"><ele>91.12</ele><time>2024-07-31T04:03:04Z</time></trkpt><trkpt lat="-39.4096188527" lon="-72.7106340788"><ele>90.57</ele><time>2024-07-31T04:03:13Z</time></trkpt><trkpt lat="-39.4092237297" lon="-72.7102181688"><ele>90.93</ele><time>2024-07-31T04:03:22Z</time></trkpt><trkpt lat="-39.4089063071" lon="-72.7098247223"><ele>89.77</ele><time>2024-07-31T04:03:30Z</time></trkpt><trkpt lat="-39.4089058042" lon="-72.7097823098"><ele>89.43</ele><time>2024-07-31T04:03:31Z</time></trkpt><trkpt lat="-39.4089198019" lon="-72.7097341139"><ele>89.54</ele><time>2024-07-31T04:03:32Z</time></trkpt><trkpt lat="-39.4089477975" lon="-72.7096818946"><ele>89.67</ele><time>2024-07-31T04:03:33Z</time></trkpt><trkpt lat="-39.4089854322" lon="-72.7096237242"><ele>89.75</ele><time>2024-07-31T04:03:34Z</time></trkpt><trkpt lat="-39.4092751946" lon="-72.7092037071"><ele>89.52</ele><time>2024-07-31T04:03:43Z</time></trkpt><trkpt lat="-39.4095647056" lon="-72.7087682672"><ele>90.55</ele><time>2024-07-31T04:03:51Z</time></trkpt><trkpt lat="-39.4096234627" lon="-72.7086435445"><ele>90.64</ele><time>2024-07-31T04:03:55Z</time></trkpt><trkpt lat="-39.4096154999" lon="-72.7086135373"><ele>90.72</ele><time>2024-07-31T04:03:56Z</time></trkpt><trkpt lat="-39.4095999934" lon="-72.7085790038"><ele>90.83</ele><time>2024-07-31T04:03:57Z</time></trkpt><trkpt lat="-39.4095769431" lon="-72.7085412014"><ele>90.70</ele><time>2024-07-31T04:03:58Z</time></trkpt><trkpt lat="-39.4095488638" lon="-72.7085035667"><ele>90.89</ele><time>2024-07-31T04:03:59Z</time></trkpt><trkpt lat="-39.4095150847" lon="-72.7084658481"><ele>90.80</ele><time>2024-07-31T04:04:00Z</time></trkpt><trkpt lat="-39.4094757736" lon="-72.7084269561"><ele>91.00</ele><time>2024-07-31T04:04:01Z</time></trkpt><trkpt lat="-39.4091369770" lon="-72.7081008162"><ele>92.83</ele><time>2024-07-31T04:04:06Z</time></trkpt><trkpt lat="-39.4088382460" lon="-72.7078597527"><ele>94.45</ele><time>2024-07-31T04:04:09Z</time></trkpt><trkpt lat="-39.4087157026" lon="-72.7078088745"><ele>94.50</ele><time>2024-07-31T04:04:10Z</time></trkpt><trkpt lat="-39.4085856993" lon="-72.7077802923"><ele>94.53</ele><time>2024-07-31T04:04:11Z</time></trkpt><trkpt lat="-39.4084568694" lon="-72.7077692281"><ele>94.48</ele><time>2024-07-31T04:04:12Z</time></trkpt><trkpt lat="-39.4083330687" lon="-72.7077598404"><ele>94.20</ele><time>2024-07-31T04:04:13Z</time></trkpt><trkpt lat="-39.4082192425" lon="-72.7077299170"><ele>93.96</ele><time>2024-07-31T04:04:14Z</time></trkpt><trkpt lat="-39.4081181567" lon="-72.7076736744"><ele>93.55</ele><time>2024-07-31T04:04:15Z</time></trkpt><trkpt lat="-39.4080328289" lon="-72.7075978182"><ele>93.47</ele><time>2024-07-31T04:04:16Z</time></trkpt><trkpt lat="-39.4079687074" lon="-72.7075040247"><ele>93.20</ele><time>2024-07-31T04:04:17Z</time></trkpt><trkpt lat="-39.4079330005" lon="-72.7074027713"><ele>92.96</ele><time>2024-07-31T04:04:18Z</time></trkpt><trkpt lat="-39.4079246186" lon="-72.7073114086"><ele>92.47</ele><time>2024-07-31T04:04:19Z</time></trkpt><trkpt lat="-39.4079427235" lon="-72.7072432637"><ele>92.12</ele><time>2024-07-31T04:04:20Z</time></trkpt><trkpt lat="-39.4079699647" lon="-72.7071966603"><ele>91.79</ele><time>2024-07-31T04:04:21Z</time></trkpt><trkpt lat="-39.4080133829" lon="-72.7071666531"><ele>91.62</ele><time>2024-07-31T04:04:22Z</time></trkpt><trkpt lat="-39.4080744870" lon="-72.7071573492"><ele>91.59</ele><time>2024-07-31T04:04:23Z</time></trkpt><trkpt lat="-39.4081536960" lon="-72.7071533259"><ele>92.04</ele><time>2024-07-31T04:04:24Z</time></trkpt><trkpt lat="-39.4082439691" lon="-72.7071427647"><ele>92.41</ele><time>2024-07-31T04:04:25Z</time></trkpt><trkpt lat="-39.4083364215" lon="-72.7071188763"><ele>92.61</ele><time>2024-07-31T04:04:26Z</time></trkpt><trkpt lat="-39.4084275328" lon="-72.7070832532"><ele>92.96</ele><time>2024-07-31T04:04:27Z</time></trkpt><trkpt lat="-39.4086531736" lon="-72.7068872843"><ele>93.42</ele><time>2024-07-31T04:04:30Z</time></trkpt><trkpt lat="-39.4086702727" lon="-72.7067407686"><ele>93.81</ele><time>2024-07-31T04:04:31Z</time></trkpt><trkpt lat="-39.4086817559" lon="-72.7066032216"><ele>94.24</ele><time>2024-07-31T04:04:32Z</time></trkpt><trkpt lat="-39.4086654112" lon="-72.7064688597"><ele>94.43</ele><time>2024-07-31T04:04:33Z</time></trkpt><trkpt lat="-39.4086307939" lon="-72.7063472383"><ele>94.66</ele><time>2024-07-31T04:04:34Z</time></trkpt><trkpt lat="-39.4085902255" lon="-72.7062451467"><ele>94.43</ele><time>2024-07-31T04:04:35Z</time></trkpt><trkpt lat="-39.4085517526" lon="-72.7061518561"><ele>94.05</ele><time>2024-07-31T04:04:36Z</time></trkpt><trkpt lat="-39.4085246790" lon="-72.7060676180"><ele>93.66</ele><time>2024-07-31T04:04:37Z</time></trkpt><trkpt lat="-39.4084994495" lon="-72.7060018200"><ele>92.47</ele><time>2024-07-31T04:04:38Z</time></trkpt><trkpt lat="-39.4084735494" lon="-72.7059489302"><ele>93.63</ele><time>2024-07-31T04:04:39Z</time></trkpt><trkpt lat="-39.4084537681" lon="-72.7058904245"><ele>93.37</ele><time>2024-07-31T04:04:40Z</time></trkpt><trkpt lat="-39.4084401894" lon="-72.7058176696"><ele>92.33</ele><time>2024-07-31T04:04:52Z</time></trkpt><trkpt lat="-39.4084423687" lon="-72.7058200166"><ele>92.23</ele><time>2024-07-31T04:05:20Z</time></trkpt><trkpt lat="-39.4084320590" lon="-72.7057825495"><ele>92.10</ele><time>2024-07-31T04:06:06Z</time></trkpt></trkseg></trk></gpx>