<?xml version="1.0" encoding="UTF-8" standalone="no" ?><gpx xmlns="http://www.topografix.com/GPX/1/1" xmlns:gpxx="http://www.garmin.com/xmlschemas/GpxExtensions/v3" xmlns:gpxtrkx="http://www.garmin.com/xmlschemas/TrackStatsExtension/v1" xmlns:wptx1="http://www.garmin.com/xmlschemas/WaypointExtension/v1" xmlns:gpxtpx="http://www.garmin.com/xmlschemas/TrackPointExtension/v1" creator="GPSMAP 64sx" version="1.1" xmlns:xsi="http://www.w3.org/2001/XMLSchema-instance" xsi:schemaLocation="http://www.topografix.com/GPX/1/1 http://www.topografix.com/GPX/1/1/gpx.xsd http://www.garmin.com/xmlschemas/GpxExtensions/v3 http://www8.garmin.com/xmlschemas/GpxExtensionsv3.xsd http://www.garmin.com/xmlschemas/TrackStatsExtension/v1 http://www8.garmin.com/xmlschemas/TrackStatsExtension.xsd http://www.garmin.com/xmlschemas/WaypointExtension/v1 http://www8.garmin.com/xmlschemas/WaypointExtensionv1.xsd http://www.garmin.com/xmlschemas/TrackPointExtension/v1 http://www.garmin.com/xmlschemas/TrackPointExtensionv1.xsd"><metadata><link href="http://www.garmin.com"><text>Garmin International</text></link><time>2024-08-14T04:32:37Z</time></metadata><trk><name>240813 LAPAZ</name><extensions><gpxx:TrackExtension><gpxx:DisplayColor>Cyan</gpxx:DisplayColor></gpxx:TrackExtension><gpxtrkx:TrackStatsExtension><gpxtrkx:Distance>3747.000</gpxtrkx:Distance><gpxtrkx:TotalElapsedTime>710</gpxtrkx:TotalElapsedTime><gpxtrkx:MovingTime>663</gpxtrkx:MovingTime><gpxtrkx:StoppedTime>46</gpxtrkx:StoppedTime><gpxtrkx:MovingSpeed>5.652</gpxtrkx:MovingSpeed><gpxtrkx:MaxSpeed>12.849</gpxtrkx:MaxSpeed><gpxtrkx:MaxElevation>98.511</gpxtrkx:MaxElevation><gpxtrkx:MinElevation>88.813</gpxtrkx:MinElevation><gpxtrkx:Ascent>11.000</gpxtrkx:Ascent><gpxtrkx:Descent>9.146</gpxtrkx:Descent><gpxtrkx:AvgAscentRate>0.034</gpxtrkx:AvgAscentRate><gpxtrkx:MaxAscentRate>0.129</gpxtrkx:MaxAscentRate><gpxtrkx:AvgDescentRate>0.033</gpxtrkx:AvgDescentRate><gpxtrkx:MaxDescentRate>-0.285</gpxtrkx:MaxDescentRate></gpxtrkx:TrackStatsExtension></extensions><trkseg><trkpt lat="-39.4074080419" lon="-72.7060257085"><ele>92.66</ele><time>2024-08-14T04:20:47Z</time></trkpt><trkpt lat="-39.4074086286" lon="-72.7060262952"><ele>92.66</ele><time>2024-08-14T04:20:48Z</time></trkpt><trkpt lat="-39.4075352792" lon="-72.7062006388"><ele>91.36</ele><time>2024-08-14T04:21:08Z</time></trkpt><trkpt lat="-39.4076231215" lon="-72.7063294686"><ele>91.46</ele><time>2024-08-14T04:21:11Z</time></trkpt><trkpt lat="-39.4076423999" lon="-72.7063868009"><ele>91.34</ele><time>2024-08-14T04:21:12Z</time></trkpt><trkpt lat="-39.4076549727" lon="-72.7064561192"><ele>91.40</ele><time>2024-08-14T04:21:13Z</time></trkpt><trkpt lat="-39.4076911826" lon="-72.7067027986"><ele>91.55</ele><time>2024-08-14T04:21:16Z</time></trkpt><trkpt lat="-39.4077149872" lon="-72.7067836002"><ele>91.81</ele><time>2024-08-14T04:21:17Z</time></trkpt><trkpt lat="-39.4077466708" lon="-72.7068609651"><ele>91.75</ele><time>2024-08-14T04:21:18Z</time></trkpt><trkpt lat="-39.4078497682" lon="-72.7070872765"><ele>91.79</ele><time>2024-08-14T04:21:21Z</time></trkpt><trkpt lat="-39.4078744110" lon="-72.7071670722"><ele>91.77</ele><time>2024-08-14T04:21:22Z</time></trkpt><trkpt lat="-39.4078889117" lon="-72.7072539087"><ele>91.79</ele><time>2024-08-14T04:21:23Z</time></trkpt><trkpt lat="-39.4079244509" lon="-72.7074297611"><ele>91.83</ele><time>2024-08-14T04:21:25Z</time></trkpt><trkpt lat="-39.4079534523" lon="-72.7075173520"><ele>91.75</ele><time>2024-08-14T04:21:26Z</time></trkpt><trkpt lat="-39.4079944398" lon="-72.7075977344"><ele>91.71</ele><time>2024-08-14T04:21:27Z</time></trkpt><trkpt lat="-39.4080449827" lon="-72.7076721657"><ele>91.75</ele><time>2024-08-14T04:21:28Z</time></trkpt><trkpt lat="-39.4081088528" lon="-72.7077331860"><ele>91.67</ele><time>2024-08-14T04:21:29Z</time></trkpt><trkpt lat="-39.4081806857" lon="-72.7077749278"><ele>91.68</ele><time>2024-08-14T04:21:30Z</time></trkpt><trkpt lat="-39.4082614873" lon="-72.7077944577"><ele>91.66</ele><time>2024-08-14T04:21:31Z</time></trkpt><trkpt lat="-39.4083422888" lon="-72.7078032587"><ele>91.61</ele><time>2024-08-14T04:21:32Z</time></trkpt><trkpt lat="-39.4084221683" lon="-72.7078057732"><ele>91.62</ele><time>2024-08-14T04:21:33Z</time></trkpt><trkpt lat="-39.4088118430" lon="-72.7078898437"><ele>91.67</ele><time>2024-08-14T04:21:38Z</time></trkpt><trkpt lat="-39.4088864420" lon="-72.7079356089"><ele>91.77</ele><time>2024-08-14T04:21:39Z</time></trkpt><trkpt lat="-39.4089602027" lon="-72.7079908457"><ele>91.80</ele><time>2024-08-14T04:21:40Z</time></trkpt><trkpt lat="-39.4090347178" lon="-72.7080542129"><ele>91.81</ele><time>2024-08-14T04:21:41Z</time></trkpt><trkpt lat="-39.4091093168" lon="-72.7081224415"><ele>91.58</ele><time>2024-08-14T04:21:42Z</time></trkpt><trkpt lat="-39.4095441699" lon="-72.7085520979"><ele>90.54</ele><time>2024-08-14T04:21:49Z</time></trkpt><trkpt lat="-39.4095761888" lon="-72.7086011320"><ele>90.28</ele><time>2024-08-14T04:21:50Z</time></trkpt><trkpt lat="-39.4095922820" lon="-72.7086539380"><ele>90.30</ele><time>2024-08-14T04:21:51Z</time></trkpt><trkpt lat="-39.4095864147" lon="-72.7087106835"><ele>90.32</ele><time>2024-08-14T04:21:52Z</time></trkpt><trkpt lat="-39.4095647056" lon="-72.7087626513"><ele>90.24</ele><time>2024-08-14T04:21:53Z</time></trkpt><trkpt lat="-39.4095301721" lon="-72.7088157926"><ele>90.17</ele><time>2024-08-14T04:21:54Z</time></trkpt><trkpt lat="-39.4094914477" lon="-72.7088734601"><ele>90.25</ele><time>2024-08-14T04:21:55Z</time></trkpt><trkpt lat="-39.4088987634" lon="-72.7097332757"><ele>89.55</ele><time>2024-08-14T04:22:10Z</time></trkpt><trkpt lat="-39.4086540956" lon="-72.7096073795"><ele>90.14</ele><time>2024-08-14T04:22:18Z</time></trkpt><trkpt lat="-39.4081323221" lon="-72.7090162877"><ele>90.45</ele><time>2024-08-14T04:22:29Z</time></trkpt><trkpt lat="-39.4080938492" lon="-72.7089649066"><ele>90.46</ele><time>2024-08-14T04:22:30Z</time></trkpt><trkpt lat="-39.4080594834" lon="-72.7089121845"><ele>90.50</ele><time>2024-08-14T04:22:31Z</time></trkpt><trkpt lat="-39.4080265425" lon="-72.7088623121"><ele>90.58</ele><time>2024-08-14T04:22:32Z</time></trkpt><trkpt lat="-39.4079902489" lon="-72.7088163793"><ele>90.51</ele><time>2024-08-14T04:22:33Z</time></trkpt><trkpt lat="-39.4079506025" lon="-72.7087721229"><ele>90.42</ele><time>2024-08-14T04:22:34Z</time></trkpt><trkpt lat="-39.4079075195" lon="-72.7087281179"><ele>90.39</ele><time>2024-08-14T04:22:35Z</time></trkpt><trkpt lat="-39.4072481152" lon="-72.7080414724"><ele>89.47</ele><time>2024-08-14T04:22:50Z</time></trkpt><trkpt lat="-39.4070785493" lon="-72.7082959469"><ele>89.42</ele><time>2024-08-14T04:22:58Z</time></trkpt><trkpt lat="-39.4071855024" lon="-72.7092972491"><ele>89.67</ele><time>2024-08-14T04:23:14Z</time></trkpt><trkpt lat="-39.4071960635" lon="-72.7094705030"><ele>89.77</ele><time>2024-08-14T04:23:17Z</time></trkpt><trkpt lat="-39.4072494563" lon="-72.7096946351"><ele>89.97</ele><time>2024-08-14T04:23:21Z</time></trkpt><trkpt lat="-39.4072901923" lon="-72.7098078746"><ele>90.04</ele><time>2024-08-14T04:23:23Z</time></trkpt><trkpt lat="-39.4074006658" lon="-72.7100219484"><ele>90.13</ele><time>2024-08-14T04:23:27Z</time></trkpt><trkpt lat="-39.4079374429" lon="-72.7106294688"><ele>90.47</ele><time>2024-08-14T04:23:43Z</time></trkpt><trkpt lat="-39.4083275367" lon="-72.7110445406"><ele>90.87</ele><time>2024-08-14T04:23:57Z</time></trkpt><trkpt lat="-39.4087334722" lon="-72.7114731073"><ele>90.80</ele><time>2024-08-14T04:24:13Z</time></trkpt><trkpt lat="-39.4089925569" lon="-72.7117437590"><ele>90.67</ele><time>2024-08-14T04:24:23Z</time></trkpt><trkpt lat="-39.4090204686" lon="-72.7117390651"><ele>90.72</ele><time>2024-08-14T04:24:24Z</time></trkpt><trkpt lat="-39.4090460334" lon="-72.7117202058"><ele>90.74</ele><time>2024-08-14T04:24:25Z</time></trkpt><trkpt lat="-39.4090704247" lon="-72.7116924617"><ele>90.77</ele><time>2024-08-14T04:24:26Z</time></trkpt><trkpt lat="-39.4090931397" lon="-72.7116616163"><ele>90.70</ele><time>2024-08-14T04:24:27Z</time></trkpt><trkpt lat="-39.4094544835" lon="-72.7110772301"><ele>90.91</ele><time>2024-08-14T04:24:43Z</time></trkpt><trkpt lat="-39.4097252190" lon="-72.7106387727"><ele>91.16</ele><time>2024-08-14T04:24:58Z</time></trkpt><trkpt lat="-39.4102236908" lon="-72.7098663803"><ele>90.36</ele><time>2024-08-14T04:25:13Z</time></trkpt><trkpt lat="-39.4104609825" lon="-72.7095826529"><ele>90.41</ele><time>2024-08-14T04:25:22Z</time></trkpt><trkpt lat="-39.4104943424" lon="-72.7095973212"><ele>90.53</ele><time>2024-08-14T04:25:23Z</time></trkpt><trkpt lat="-39.4105271157" lon="-72.7096236404"><ele>90.60</ele><time>2024-08-14T04:25:24Z</time></trkpt><trkpt lat="-39.4105585478" lon="-72.7096611075"><ele>90.51</ele><time>2024-08-14T04:25:25Z</time></trkpt><trkpt lat="-39.4105922431" lon="-72.7097056154"><ele>90.57</ele><time>2024-08-14T04:25:26Z</time></trkpt><trkpt lat="-39.4111722708" lon="-72.7103663608"><ele>90.08</ele><time>2024-08-14T04:25:38Z</time></trkpt><trkpt lat="-39.4112082291" lon="-72.7104194183"><ele>89.99</ele><time>2024-08-14T04:25:39Z</time></trkpt><trkpt lat="-39.4112226460" lon="-72.7104767505"><ele>89.87</ele><time>2024-08-14T04:25:40Z</time></trkpt><trkpt lat="-39.4112169463" lon="-72.7105322387"><ele>89.93</ele><time>2024-08-14T04:25:41Z</time></trkpt><trkpt lat="-39.4111960754" lon="-72.7105833683"><ele>89.90</ele><time>2024-08-14T04:25:42Z</time></trkpt><trkpt lat="-39.4111684151" lon="-72.7106300555"><ele>89.78</ele><time>2024-08-14T04:25:43Z</time></trkpt><trkpt lat="-39.4111408386" lon="-72.7106722165"><ele>89.60</ele><time>2024-08-14T04:25:44Z</time></trkpt><trkpt lat="-39.4105362520" lon="-72.7115676552"><ele>90.59</ele><time>2024-08-14T04:26:04Z</time></trkpt><trkpt lat="-39.4099419750" lon="-72.7124889102"><ele>90.84</ele><time>2024-08-14T04:26:27Z</time></trkpt><trkpt lat="-39.4098384585" lon="-72.7127448097"><ele>90.94</ele><time>2024-08-14T04:26:34Z</time></trkpt><trkpt lat="-39.4098513667" lon="-72.7127724700"><ele>90.88</ele><time>2024-08-14T04:26:35Z</time></trkpt><trkpt lat="-39.4098708965" lon="-72.7127973642"><ele>90.81</ele><time>2024-08-14T04:26:36Z</time></trkpt><trkpt lat="-39.4103581365" lon="-72.7133509889"><ele>90.21</ele><time>2024-08-14T04:26:52Z</time></trkpt><trkpt lat="-39.4104562886" lon="-72.7134621330"><ele>90.12</ele><time>2024-08-14T04:26:55Z</time></trkpt><trkpt lat="-39.4105204940" lon="-72.7135349717"><ele>89.98</ele><time>2024-08-14T04:26:57Z</time></trkpt><trkpt lat="-39.4105556142" lon="-72.7135613747"><ele>90.00</ele><time>2024-08-14T04:26:58Z</time></trkpt><trkpt lat="-39.4105909858" lon="-72.7135759592"><ele>89.93</ele><time>2024-08-14T04:26:59Z</time></trkpt><trkpt lat="-39.4106277823" lon="-72.7135727741"><ele>89.99</ele><time>2024-08-14T04:27:00Z</time></trkpt><trkpt lat="-39.4106605556" lon="-72.7135510650"><ele>90.10</ele><time>2024-08-14T04:27:01Z</time></trkpt><trkpt lat="-39.4106894732" lon="-72.7135161962"><ele>89.89</ele><time>2024-08-14T04:27:02Z</time></trkpt><trkpt lat="-39.4107171334" lon="-72.7134740353"><ele>89.90</ele><time>2024-08-14T04:27:03Z</time></trkpt><trkpt lat="-39.4112757035" lon="-72.7126424666"><ele>89.63</ele><time>2024-08-14T04:27:20Z</time></trkpt><trkpt lat="-39.4120363612" lon="-72.7115054615"><ele>89.66</ele><time>2024-08-14T04:27:37Z</time></trkpt><trkpt lat="-39.4120698888" lon="-72.7114709280"><ele>89.85</ele><time>2024-08-14T04:27:38Z</time></trkpt><trkpt lat="-39.4121067692" lon="-72.7114524040"><ele>89.91</ele><time>2024-08-14T04:27:39Z</time></trkpt><trkpt lat="-39.4121459965" lon="-72.7114607021"><ele>89.68</ele><time>2024-08-14T04:27:40Z</time></trkpt><trkpt lat="-39.4121858105" lon="-72.7114938945"><ele>89.70</ele><time>2024-08-14T04:27:41Z</time></trkpt><trkpt lat="-39.4122286420" lon="-72.7115439344"><ele>89.89</ele><time>2024-08-14T04:27:42Z</time></trkpt><trkpt lat="-39.4122769218" lon="-72.7116047870"><ele>89.89</ele><time>2024-08-14T04:27:43Z</time></trkpt><trkpt lat="-39.4128369167" lon="-72.7122814581"><ele>89.21</ele><time>2024-08-14T04:27:53Z</time></trkpt><trkpt lat="-39.4128580391" lon="-72.7123396285"><ele>89.16</ele><time>2024-08-14T04:27:54Z</time></trkpt><trkpt lat="-39.4128622301" lon="-72.7123930212"><ele>89.10</ele><time>2024-08-14T04:27:55Z</time></trkpt><trkpt lat="-39.4128502440" lon="-72.7124416362"><ele>89.25</ele><time>2024-08-14T04:27:56Z</time></trkpt><trkpt lat="-39.4128246792" lon="-72.7124896646"><ele>89.00</ele><time>2024-08-14T04:27:57Z</time></trkpt><trkpt lat="-39.4127903972" lon="-72.7125407942"><ele>88.90</ele><time>2024-08-14T04:27:58Z</time></trkpt><trkpt lat="-39.4127506670" lon="-72.7125998028"><ele>88.85</ele><time>2024-08-14T04:27:59Z</time></trkpt><trkpt lat="-39.4122245349" lon="-72.7133784816"><ele>89.05</ele><time>2024-08-14T04:28:10Z</time></trkpt><trkpt lat="-39.4121744949" lon="-72.7134105843"><ele>89.00</ele><time>2024-08-14T04:28:11Z</time></trkpt><trkpt lat="-39.4121240359" lon="-72.7134185471"><ele>89.14</ele><time>2024-08-14T04:28:12Z</time></trkpt><trkpt lat="-39.4120786898" lon="-72.7134031244"><ele>89.24</ele><time>2024-08-14T04:28:13Z</time></trkpt><trkpt lat="-39.4120352715" lon="-72.7133713569"><ele>89.39</ele><time>2024-08-14T04:28:14Z</time></trkpt><trkpt lat="-39.4119890872" lon="-72.7133291960"><ele>89.43</ele><time>2024-08-14T04:28:15Z</time></trkpt><trkpt lat="-39.4119406398" lon="-72.7132766414"><ele>89.50</ele><time>2024-08-14T04:28:16Z</time></trkpt><trkpt lat="-39.4118896779" lon="-72.7132148668"><ele>89.73</ele><time>2024-08-14T04:28:17Z</time></trkpt><trkpt lat="-39.4113142602" lon="-72.7125386149"><ele>89.46</ele><time>2024-08-14T04:28:29Z</time></trkpt><trkpt lat="-39.4108253438" lon="-72.7119796257"><ele>90.28</ele><time>2024-08-14T04:28:41Z</time></trkpt><trkpt lat="-39.4105000421" lon="-72.7116197068"><ele>90.69</ele><time>2024-08-14T04:28:52Z</time></trkpt><trkpt lat="-39.4101472478" lon="-72.7112356480"><ele>91.98</ele><time>2024-08-14T04:29:02Z</time></trkpt><trkpt lat="-39.4096182659" lon="-72.7106572967"><ele>91.84</ele><time>2024-08-14T04:29:15Z</time></trkpt><trkpt lat="-39.4091051258" lon="-72.7101002354"><ele>91.56</ele><time>2024-08-14T04:29:25Z</time></trkpt><trkpt lat="-39.4088611286" lon="-72.7097407356"><ele>90.78</ele><time>2024-08-14T04:29:32Z</time></trkpt><trkpt lat="-39.4088766351" lon="-72.7096955571"><ele>90.82</ele><time>2024-08-14T04:29:33Z</time></trkpt><trkpt lat="-39.4089006074" lon="-72.7096518036"><ele>90.79</ele><time>2024-08-14T04:29:34Z</time></trkpt><trkpt lat="-39.4089305308" lon="-72.7096072957"><ele>90.85</ele><time>2024-08-14T04:29:35Z</time></trkpt><trkpt lat="-39.4089633040" lon="-72.7095603570"><ele>90.87</ele><time>2024-08-14T04:29:36Z</time></trkpt><trkpt lat="-39.4095512945" lon="-72.7086657565"><ele>91.72</ele><time>2024-08-14T04:29:54Z</time></trkpt><trkpt lat="-39.4095537253" lon="-72.7086208295"><ele>91.98</ele><time>2024-08-14T04:29:55Z</time></trkpt><trkpt lat="-39.4095429964" lon="-72.7085711248"><ele>92.11</ele><time>2024-08-14T04:29:56Z</time></trkpt><trkpt lat="-39.4095177669" lon="-72.7085228451"><ele>92.25</ele><time>2024-08-14T04:29:57Z</time></trkpt><trkpt lat="-39.4094835687" lon="-72.7084750682"><ele>92.19</ele><time>2024-08-14T04:29:58Z</time></trkpt><trkpt lat="-39.4094435871" lon="-72.7084258664"><ele>92.35</ele><time>2024-08-14T04:29:59Z</time></trkpt><trkpt lat="-39.4093989115" lon="-72.7083752397"><ele>92.36</ele><time>2024-08-14T04:30:00Z</time></trkpt><trkpt lat="-39.4087524153" lon="-72.7078007441"><ele>93.59</ele><time>2024-08-14T04:30:11Z</time></trkpt><trkpt lat="-39.4086781517" lon="-72.7077725809"><ele>93.58</ele><time>2024-08-14T04:30:12Z</time></trkpt><trkpt lat="-39.4085973501" lon="-72.7077540569"><ele>93.67</ele><time>2024-08-14T04:30:13Z</time></trkpt><trkpt lat="-39.4085098431" lon="-72.7077455074"><ele>93.60</ele><time>2024-08-14T04:30:14Z</time></trkpt><trkpt lat="-39.4081419613" lon="-72.7077015862"><ele>93.05</ele><time>2024-08-14T04:30:18Z</time></trkpt><trkpt lat="-39.4080594834" lon="-72.7076552343"><ele>92.94</ele><time>2024-08-14T04:30:19Z</time></trkpt><trkpt lat="-39.4079850521" lon="-72.7075948846"><ele>92.97</ele><time>2024-08-14T04:30:20Z</time></trkpt><trkpt lat="-39.4079286419" lon="-72.7075176034"><ele>93.03</ele><time>2024-08-14T04:30:21Z</time></trkpt><trkpt lat="-39.4078914262" lon="-72.7074240614"><ele>93.11</ele><time>2024-08-14T04:30:22Z</time></trkpt><trkpt lat="-39.4078767579" lon="-72.7073259093"><ele>93.18</ele><time>2024-08-14T04:30:23Z</time></trkpt><trkpt lat="-39.4078935217" lon="-72.7072400786"><ele>93.19</ele><time>2024-08-14T04:30:24Z</time></trkpt><trkpt lat="-39.4079312403" lon="-72.7071788069"><ele>93.23</ele><time>2024-08-14T04:30:25Z</time></trkpt><trkpt lat="-39.4079797715" lon="-72.7071423456"><ele>93.23</ele><time>2024-08-14T04:30:26Z</time></trkpt><trkpt lat="-39.4080330804" lon="-72.7071251627"><ele>93.16</ele><time>2024-08-14T04:30:27Z</time></trkpt><trkpt lat="-39.4080937654" lon="-72.7071216423"><ele>93.06</ele><time>2024-08-14T04:30:28Z</time></trkpt><trkpt lat="-39.4081593119" lon="-72.7071227320"><ele>93.13</ele><time>2024-08-14T04:30:29Z</time></trkpt><trkpt lat="-39.4082960207" lon="-72.7071078122"><ele>93.19</ele><time>2024-08-14T04:30:31Z</time></trkpt><trkpt lat="-39.4083618186" lon="-72.7070799004"><ele>93.19</ele><time>2024-08-14T04:30:32Z</time></trkpt><trkpt lat="-39.4084231742" lon="-72.7070418466"><ele>93.13</ele><time>2024-08-14T04:30:33Z</time></trkpt><trkpt lat="-39.4086458813" lon="-72.7068244200"><ele>93.40</ele><time>2024-08-14T04:30:37Z</time></trkpt><trkpt lat="-39.4086549338" lon="-72.7067160420"><ele>93.53</ele><time>2024-08-14T04:30:38Z</time></trkpt><trkpt lat="-39.4086606335" lon="-72.7066049818"><ele>93.53</ele><time>2024-08-14T04:30:39Z</time></trkpt><trkpt lat="-39.4086511619" lon="-72.7064940054"><ele>93.67</ele><time>2024-08-14T04:30:40Z</time></trkpt><trkpt lat="-39.4086330570" lon="-72.7063873038"><ele>93.77</ele><time>2024-08-14T04:30:41Z</time></trkpt><trkpt lat="-39.4086021278" lon="-72.7062806860"><ele>94.01</ele><time>2024-08-14T04:30:42Z</time></trkpt><trkpt lat="-39.4085585419" lon="-72.7061763313"><ele>94.01</ele><time>2024-08-14T04:30:43Z</time></trkpt><trkpt lat="-39.4085062388" lon="-72.7060742397"><ele>94.09</ele><time>2024-08-14T04:30:44Z</time></trkpt><trkpt lat="-39.4084422011" lon="-72.7059776802"><ele>94.02</ele><time>2024-08-14T04:30:45Z</time></trkpt><trkpt lat="-39.4083685242" lon="-72.7058836352"><ele>94.10</ele><time>2024-08-14T04:30:46Z</time></trkpt><trkpt lat="-39.4078363571" lon="-72.7052257396"><ele>95.87</ele><time>2024-08-14T04:30:54Z</time></trkpt><trkpt lat="-39.4074425753" lon="-72.7047415171"><ele>98.42</ele><time>2024-08-14T04:30:59Z</time></trkpt><trkpt lat="-39.4067790639" lon="-72.7037418075"><ele>95.69</ele><time>2024-08-14T04:31:08Z</time></trkpt><trkpt lat="-39.4066977594" lon="-72.7036376204"><ele>95.41</ele><time>2024-08-14T04:31:09Z</time></trkpt><trkpt lat="-39.4064975157" lon="-72.7033224609"><ele>93.98</ele><time>2024-08-14T04:31:12Z</time></trkpt><trkpt lat="-39.4064531755" lon="-72.7032399829"><ele>93.69</ele><time>2024-08-14T04:31:13Z</time></trkpt><trkpt lat="-39.4063574541" lon="-72.7031135000"><ele>93.06</ele><time>2024-08-14T04:31:18Z</time></trkpt><trkpt lat="-39.4063642435" lon="-72.7030914556"><ele>92.91</ele><time>2024-08-14T04:31:19Z</time></trkpt><trkpt lat="-39.4063694403" lon="-72.7031147573"><ele>93.61</ele><time>2024-08-14T04:31:29Z</time></trkpt><trkpt lat="-39.4063721225" lon="-72.7031290904"><ele>93.56</ele><time>2024-08-14T04:31:33Z</time></trkpt><trkpt lat="-39.4063727930" lon="-72.7031347901"><ele>93.63</ele><time>2024-08-14T04:31:34Z</time></trkpt><trkpt lat="-39.4063727092" lon="-72.7031363826"><ele>93.58</ele><time>2024-08-14T04:31:36Z</time></trkpt><trkpt lat="-39.4063737988" lon="-72.7031488717"><ele>93.65</ele><time>2024-08-14T04:31:41Z</time></trkpt><trkpt lat="-39.4063881319" lon="-72.7031319402"><ele>93.83</ele><time>2024-08-14T04:31:47Z</time></trkpt><trkpt lat="-39.4064264372" lon="-72.7031311020"><ele>93.94</ele><time>2024-08-14T04:32:14Z</time></trkpt><trkpt lat="-39.4064427819" lon="-72.7031280845"><ele>93.98</ele><time>2024-08-14T04:32:29Z</time></trkpt><trkpt lat="-39.4064429495" lon="-72.7031305991"><ele>93.99</ele><time>2024-08-14T04:32:37Z</time></trkpt></trkseg></trk></gpx>