<?xml version="1.0" encoding="UTF-8" standalone="no" ?><gpx xmlns="http://www.topografix.com/GPX/1/1" xmlns:gpxx="http://www.garmin.com/xmlschemas/GpxExtensions/v3" xmlns:gpxtrkx="http://www.garmin.com/xmlschemas/TrackStatsExtension/v1" xmlns:wptx1="http://www.garmin.com/xmlschemas/WaypointExtension/v1" xmlns:gpxtpx="http://www.garmin.com/xmlschemas/TrackPointExtension/v1" creator="GPSMAP 64sx" version="1.1" xmlns:xsi="http://www.w3.org/2001/XMLSchema-instance" xsi:schemaLocation="http://www.topografix.com/GPX/1/1 http://www.topografix.com/GPX/1/1/gpx.xsd http://www.garmin.com/xmlschemas/GpxExtensions/v3 http://www8.garmin.com/xmlschemas/GpxExtensionsv3.xsd http://www.garmin.com/xmlschemas/TrackStatsExtension/v1 http://www8.garmin.com/xmlschemas/TrackStatsExtension.xsd http://www.garmin.com/xmlschemas/WaypointExtension/v1 http://www8.garmin.com/xmlschemas/WaypointExtensionv1.xsd http://www.garmin.com/xmlschemas/TrackPointExtension/v1 http://www.garmin.com/xmlschemas/TrackPointExtensionv1.xsd"><metadata><link href="http://www.garmin.com"><text>Garmin International</text></link><time>2024-09-14T03:25:16Z</time></metadata><trk><name>GPS LAPAZ 240913</name><extensions><gpxx:TrackExtension><gpxx:DisplayColor>Cyan</gpxx:DisplayColor></gpxx:TrackExtension><gpxtrkx:TrackStatsExtension><gpxtrkx:Distance>3635.000</gpxtrkx:Distance><gpxtrkx:TotalElapsedTime>724</gpxtrkx:TotalElapsedTime><gpxtrkx:MovingTime>623</gpxtrkx:MovingTime><gpxtrkx:StoppedTime>102</gpxtrkx:StoppedTime><gpxtrkx:MovingSpeed>5.835</gpxtrkx:MovingSpeed><gpxtrkx:MaxSpeed>9.552</gpxtrkx:MaxSpeed><gpxtrkx:MaxElevation>95.366</gpxtrkx:MaxElevation><gpxtrkx:MinElevation>87.383</gpxtrkx:MinElevation><gpxtrkx:Ascent>9.000</gpxtrkx:Ascent><gpxtrkx:Descent>8.552</gpxtrkx:Descent><gpxtrkx:AvgAscentRate>0.075</gpxtrkx:AvgAscentRate><gpxtrkx:MaxAscentRate>0.033</gpxtrkx:MaxAscentRate><gpxtrkx:AvgDescentRate>0.055</gpxtrkx:AvgDescentRate><gpxtrkx:MaxDescentRate>-0.225</gpxtrkx:MaxDescentRate></gpxtrkx:TrackStatsExtension></extensions><trkseg><trkpt lat="-39.4063299615" lon="-72.7035646979"><ele>94.01</ele><time>2024-09-14T03:13:12Z</time></trkpt><trkpt lat="-39.4063295424" lon="-72.7035643626"><ele>94.01</ele><time>2024-09-14T03:13:13Z</time></trkpt><trkpt lat="-39.4063293748" lon="-72.7035627700"><ele>92.18</ele><time>2024-09-14T03:13:17Z</time></trkpt><trkpt lat="-39.4063515030" lon="-72.7035791148"><ele>91.95</ele><time>2024-09-14T03:13:25Z</time></trkpt><trkpt lat="-39.4063745532" lon="-72.7035992313"><ele>92.05</ele><time>2024-09-14T03:13:26Z</time></trkpt><trkpt lat="-39.4064010400" lon="-72.7036222816"><ele>92.28</ele><time>2024-09-14T03:13:27Z</time></trkpt><trkpt lat="-39.4064651616" lon="-72.7036870737"><ele>92.47</ele><time>2024-09-14T03:13:29Z</time></trkpt><trkpt lat="-39.4069097377" lon="-72.7043598052"><ele>94.53</ele><time>2024-09-14T03:13:38Z</time></trkpt><trkpt lat="-39.4072833192" lon="-72.7055821382"><ele>93.28</ele><time>2024-09-14T03:13:50Z</time></trkpt><trkpt lat="-39.4076439086" lon="-72.7063554525"><ele>92.21</ele><time>2024-09-14T03:14:00Z</time></trkpt><trkpt lat="-39.4076623488" lon="-72.7064303029"><ele>92.18</ele><time>2024-09-14T03:14:01Z</time></trkpt><trkpt lat="-39.4076739997" lon="-72.7065148763"><ele>92.10</ele><time>2024-09-14T03:14:02Z</time></trkpt><trkpt lat="-39.4077187590" lon="-72.7067901380"><ele>92.42</ele><time>2024-09-14T03:14:05Z</time></trkpt><trkpt lat="-39.4077511132" lon="-72.7068767231"><ele>92.35</ele><time>2024-09-14T03:14:06Z</time></trkpt><trkpt lat="-39.4077913463" lon="-72.7069584467"><ele>92.47</ele><time>2024-09-14T03:14:07Z</time></trkpt><trkpt lat="-39.4078645203" lon="-72.7071249112"><ele>92.53</ele><time>2024-09-14T03:14:09Z</time></trkpt><trkpt lat="-39.4078843016" lon="-72.7072152682"><ele>92.49</ele><time>2024-09-14T03:14:10Z</time></trkpt><trkpt lat="-39.4078951143" lon="-72.7073093131"><ele>92.45</ele><time>2024-09-14T03:14:11Z</time></trkpt><trkpt lat="-39.4079243671" lon="-72.7074986603"><ele>92.42</ele><time>2024-09-14T03:14:13Z</time></trkpt><trkpt lat="-39.4079589844" lon="-72.7075874247"><ele>92.38</ele><time>2024-09-14T03:14:14Z</time></trkpt><trkpt lat="-39.4080071803" lon="-72.7076647058"><ele>92.30</ele><time>2024-09-14T03:14:15Z</time></trkpt><trkpt lat="-39.4080666080" lon="-72.7077305876"><ele>92.17</ele><time>2024-09-14T03:14:16Z</time></trkpt><trkpt lat="-39.4081361778" lon="-72.7077812143"><ele>92.22</ele><time>2024-09-14T03:14:17Z</time></trkpt><trkpt lat="-39.4082109444" lon="-72.7078156639"><ele>92.13</ele><time>2024-09-14T03:14:18Z</time></trkpt><trkpt lat="-39.4082902372" lon="-72.7078357805"><ele>92.09</ele><time>2024-09-14T03:14:19Z</time></trkpt><trkpt lat="-39.4083715416" lon="-72.7078378759"><ele>92.13</ele><time>2024-09-14T03:14:20Z</time></trkpt><trkpt lat="-39.4084556121" lon="-72.7078361157"><ele>92.11</ele><time>2024-09-14T03:14:21Z</time></trkpt><trkpt lat="-39.4087099191" lon="-72.7078683861"><ele>92.18</ele><time>2024-09-14T03:14:24Z</time></trkpt><trkpt lat="-39.4087907206" lon="-72.7078961302"><ele>92.25</ele><time>2024-09-14T03:14:25Z</time></trkpt><trkpt lat="-39.4088684209" lon="-72.7079333458"><ele>92.36</ele><time>2024-09-14T03:14:26Z</time></trkpt><trkpt lat="-39.4089436904" lon="-72.7079811227"><ele>92.28</ele><time>2024-09-14T03:14:27Z</time></trkpt><trkpt lat="-39.4090160262" lon="-72.7080358565"><ele>92.24</ele><time>2024-09-14T03:14:28Z</time></trkpt><trkpt lat="-39.4090854283" lon="-72.7080940269"><ele>92.13</ele><time>2024-09-14T03:14:29Z</time></trkpt><trkpt lat="-39.4095915277" lon="-72.7086477354"><ele>90.85</ele><time>2024-09-14T03:14:40Z</time></trkpt><trkpt lat="-39.4095864985" lon="-72.7086909022"><ele>90.91</ele><time>2024-09-14T03:14:41Z</time></trkpt><trkpt lat="-39.4095626939" lon="-72.7087389305"><ele>90.72</ele><time>2024-09-14T03:14:42Z</time></trkpt><trkpt lat="-39.4095311780" lon="-72.7087896410"><ele>90.48</ele><time>2024-09-14T03:14:43Z</time></trkpt><trkpt lat="-39.4090130925" lon="-72.7095889393"><ele>89.90</ele><time>2024-09-14T03:14:56Z</time></trkpt><trkpt lat="-39.4088229071" lon="-72.7097638696"><ele>89.76</ele><time>2024-09-14T03:15:02Z</time></trkpt><trkpt lat="-39.4087825902" lon="-72.7097428311"><ele>89.79</ele><time>2024-09-14T03:15:03Z</time></trkpt><trkpt lat="-39.4087395910" lon="-72.7097045258"><ele>89.84</ele><time>2024-09-14T03:15:04Z</time></trkpt><trkpt lat="-39.4080808572" lon="-72.7089681756"><ele>90.39</ele><time>2024-09-14T03:15:17Z</time></trkpt><trkpt lat="-39.4075951260" lon="-72.7084106952"><ele>89.62</ele><time>2024-09-14T03:15:29Z</time></trkpt><trkpt lat="-39.4072676450" lon="-72.7080549672"><ele>89.26</ele><time>2024-09-14T03:15:40Z</time></trkpt><trkpt lat="-39.4071044493" lon="-72.7083608229"><ele>89.29</ele><time>2024-09-14T03:15:49Z</time></trkpt><trkpt lat="-39.4072051160" lon="-72.7093613707"><ele>89.54</ele><time>2024-09-14T03:16:06Z</time></trkpt><trkpt lat="-39.4072073791" lon="-72.7094168589"><ele>89.59</ele><time>2024-09-14T03:16:07Z</time></trkpt><trkpt lat="-39.4072482828" lon="-72.7096580900"><ele>89.75</ele><time>2024-09-14T03:16:11Z</time></trkpt><trkpt lat="-39.4073631149" lon="-72.7099583298"><ele>89.83</ele><time>2024-09-14T03:16:17Z</time></trkpt><trkpt lat="-39.4079138059" lon="-72.7105938457"><ele>90.16</ele><time>2024-09-14T03:16:33Z</time></trkpt><trkpt lat="-39.4083915744" lon="-72.7111169603"><ele>90.70</ele><time>2024-09-14T03:16:46Z</time></trkpt><trkpt lat="-39.4089985080" lon="-72.7117545716"><ele>90.30</ele><time>2024-09-14T03:17:03Z</time></trkpt><trkpt lat="-39.4090279285" lon="-72.7117494587"><ele>90.31</ele><time>2024-09-14T03:17:04Z</time></trkpt><trkpt lat="-39.4090575166" lon="-72.7117313538"><ele>90.22</ele><time>2024-09-14T03:17:05Z</time></trkpt><trkpt lat="-39.4090845902" lon="-72.7117015980"><ele>90.13</ele><time>2024-09-14T03:17:06Z</time></trkpt><trkpt lat="-39.4095523842" lon="-72.7109442931"><ele>90.74</ele><time>2024-09-14T03:17:22Z</time></trkpt><trkpt lat="-39.4098635204" lon="-72.7104521915"><ele>90.46</ele><time>2024-09-14T03:17:34Z</time></trkpt><trkpt lat="-39.4103757385" lon="-72.7096729260"><ele>89.70</ele><time>2024-09-14T03:17:48Z</time></trkpt><trkpt lat="-39.4104598090" lon="-72.7095994167"><ele>89.82</ele><time>2024-09-14T03:17:52Z</time></trkpt><trkpt lat="-39.4104943424" lon="-72.7096100617"><ele>89.88</ele><time>2024-09-14T03:17:53Z</time></trkpt><trkpt lat="-39.4105308875" lon="-72.7096394822"><ele>89.93</ele><time>2024-09-14T03:17:54Z</time></trkpt><trkpt lat="-39.4105691090" lon="-72.7096816432"><ele>89.84</ele><time>2024-09-14T03:17:55Z</time></trkpt><trkpt lat="-39.4106112700" lon="-72.7097311802"><ele>89.88</ele><time>2024-09-14T03:17:56Z</time></trkpt><trkpt lat="-39.4112038705" lon="-72.7104139701"><ele>89.44</ele><time>2024-09-14T03:18:08Z</time></trkpt><trkpt lat="-39.4112222269" lon="-72.7104573045"><ele>89.36</ele><time>2024-09-14T03:18:09Z</time></trkpt><trkpt lat="-39.4112280942" lon="-72.7105013933"><ele>89.33</ele><time>2024-09-14T03:18:10Z</time></trkpt><trkpt lat="-39.4112192933" lon="-72.7105453145"><ele>89.32</ele><time>2024-09-14T03:18:11Z</time></trkpt><trkpt lat="-39.4111984223" lon="-72.7105888166"><ele>89.19</ele><time>2024-09-14T03:18:12Z</time></trkpt><trkpt lat="-39.4111691695" lon="-72.7106358390"><ele>88.96</ele><time>2024-09-14T03:18:13Z</time></trkpt><trkpt lat="-39.4111366477" lon="-72.7106881421"><ele>88.85</ele><time>2024-09-14T03:18:14Z</time></trkpt><trkpt lat="-39.4105110224" lon="-72.7116588503"><ele>89.88</ele><time>2024-09-14T03:18:31Z</time></trkpt><trkpt lat="-39.4100238662" lon="-72.7124278061"><ele>89.94</ele><time>2024-09-14T03:18:44Z</time></trkpt><trkpt lat="-39.4098947011" lon="-72.7127986215"><ele>89.69</ele><time>2024-09-14T03:18:54Z</time></trkpt><trkpt lat="-39.4099231157" lon="-72.7128406987"><ele>89.74</ele><time>2024-09-14T03:18:55Z</time></trkpt><trkpt lat="-39.4104706217" lon="-72.7134458721"><ele>89.07</ele><time>2024-09-14T03:19:06Z</time></trkpt><trkpt lat="-39.4106017146" lon="-72.7135607041"><ele>88.73</ele><time>2024-09-14T03:19:09Z</time></trkpt><trkpt lat="-39.4106442109" lon="-72.7135653980"><ele>88.66</ele><time>2024-09-14T03:19:10Z</time></trkpt><trkpt lat="-39.4106854498" lon="-72.7135495562"><ele>88.60</ele><time>2024-09-14T03:19:11Z</time></trkpt><trkpt lat="-39.4107236713" lon="-72.7135140169"><ele>88.50</ele><time>2024-09-14T03:19:12Z</time></trkpt><trkpt lat="-39.4107604679" lon="-72.7134653181"><ele>88.35</ele><time>2024-09-14T03:19:13Z</time></trkpt><trkpt lat="-39.4107994437" lon="-72.7134067286"><ele>88.42</ele><time>2024-09-14T03:19:14Z</time></trkpt><trkpt lat="-39.4114546571" lon="-72.7123924345"><ele>88.19</ele><time>2024-09-14T03:19:30Z</time></trkpt><trkpt lat="-39.4118591677" lon="-72.7118132450"><ele>88.28</ele><time>2024-09-14T03:19:43Z</time></trkpt><trkpt lat="-39.4121275563" lon="-72.7114804834"><ele>88.30</ele><time>2024-09-14T03:19:53Z</time></trkpt><trkpt lat="-39.4121928513" lon="-72.7115123346"><ele>88.20</ele><time>2024-09-14T03:19:55Z</time></trkpt><trkpt lat="-39.4122279715" lon="-72.7115471195"><ele>88.36</ele><time>2024-09-14T03:19:56Z</time></trkpt><trkpt lat="-39.4128180575" lon="-72.7122091223"><ele>87.97</ele><time>2024-09-14T03:20:09Z</time></trkpt><trkpt lat="-39.4128515013" lon="-72.7122529596"><ele>87.91</ele><time>2024-09-14T03:20:10Z</time></trkpt><trkpt lat="-39.4128749706" lon="-72.7122933604"><ele>87.92</ele><time>2024-09-14T03:20:11Z</time></trkpt><trkpt lat="-39.4128868729" lon="-72.7123345155"><ele>87.82</ele><time>2024-09-14T03:20:12Z</time></trkpt><trkpt lat="-39.4128862023" lon="-72.7123775147"><ele>87.91</ele><time>2024-09-14T03:20:13Z</time></trkpt><trkpt lat="-39.4128739648" lon="-72.7124180831"><ele>87.89</ele><time>2024-09-14T03:20:14Z</time></trkpt><trkpt lat="-39.4128504954" lon="-72.7124601603"><ele>87.67</ele><time>2024-09-14T03:20:15Z</time></trkpt><trkpt lat="-39.4128217455" lon="-72.7125041652"><ele>87.46</ele><time>2024-09-14T03:20:16Z</time></trkpt><trkpt lat="-39.4123913348" lon="-72.7131451294"><ele>87.74</ele><time>2024-09-14T03:20:28Z</time></trkpt><trkpt lat="-39.4120938610" lon="-72.7133768052"><ele>88.25</ele><time>2024-09-14T03:20:38Z</time></trkpt><trkpt lat="-39.4120559748" lon="-72.7133432776"><ele>88.21</ele><time>2024-09-14T03:20:39Z</time></trkpt><trkpt lat="-39.4115274958" lon="-72.7127232682"><ele>88.49</ele><time>2024-09-14T03:20:53Z</time></trkpt><trkpt lat="-39.4111436885" lon="-72.7122802008"><ele>88.56</ele><time>2024-09-14T03:21:05Z</time></trkpt><trkpt lat="-39.4105904829" lon="-72.7116707526"><ele>89.26</ele><time>2024-09-14T03:21:19Z</time></trkpt><trkpt lat="-39.4102100283" lon="-72.7112751268"><ele>90.57</ele><time>2024-09-14T03:21:31Z</time></trkpt><trkpt lat="-39.4096706528" lon="-72.7106885612"><ele>90.60</ele><time>2024-09-14T03:21:48Z</time></trkpt><trkpt lat="-39.4092136715" lon="-72.7101952024"><ele>90.27</ele><time>2024-09-14T03:21:58Z</time></trkpt><trkpt lat="-39.4088941533" lon="-72.7097572479"><ele>89.88</ele><time>2024-09-14T03:22:08Z</time></trkpt><trkpt lat="-39.4089075644" lon="-72.7097097225"><ele>89.87</ele><time>2024-09-14T03:22:09Z</time></trkpt><trkpt lat="-39.4089316204" lon="-72.7096628677"><ele>89.99</ele><time>2024-09-14T03:22:10Z</time></trkpt><trkpt lat="-39.4089632202" lon="-72.7096144203"><ele>89.93</ele><time>2024-09-14T03:22:11Z</time></trkpt><trkpt lat="-39.4089985080" lon="-72.7095640451"><ele>89.82</ele><time>2024-09-14T03:22:12Z</time></trkpt><trkpt lat="-39.4095699862" lon="-72.7087181434"><ele>90.51</ele><time>2024-09-14T03:22:29Z</time></trkpt><trkpt lat="-39.4096004963" lon="-72.7086065803"><ele>90.88</ele><time>2024-09-14T03:22:34Z</time></trkpt><trkpt lat="-39.4095864147" lon="-72.7085699514"><ele>90.83</ele><time>2024-09-14T03:22:35Z</time></trkpt><trkpt lat="-39.4095584191" lon="-72.7085293829"><ele>90.81</ele><time>2024-09-14T03:22:36Z</time></trkpt><trkpt lat="-39.4095243886" lon="-72.7084879763"><ele>90.85</ele><time>2024-09-14T03:22:37Z</time></trkpt><trkpt lat="-39.4094870053" lon="-72.7084448934"><ele>91.00</ele><time>2024-09-14T03:22:38Z</time></trkpt><trkpt lat="-39.4088301156" lon="-72.7078450006"><ele>92.76</ele><time>2024-09-14T03:22:51Z</time></trkpt><trkpt lat="-39.4087681733" lon="-72.7078150772"><ele>92.60</ele><time>2024-09-14T03:22:52Z</time></trkpt><trkpt lat="-39.4087027945" lon="-72.7077921946"><ele>92.68</ele><time>2024-09-14T03:22:53Z</time></trkpt><trkpt lat="-39.4086364098" lon="-72.7077760175"><ele>92.50</ele><time>2024-09-14T03:22:54Z</time></trkpt><trkpt lat="-39.4085696898" lon="-72.7077679709"><ele>92.51</ele><time>2024-09-14T03:22:55Z</time></trkpt><trkpt lat="-39.4085017964" lon="-72.7077662945"><ele>92.27</ele><time>2024-09-14T03:22:56Z</time></trkpt><trkpt lat="-39.4081658497" lon="-72.7077303361"><ele>92.02</ele><time>2024-09-14T03:23:01Z</time></trkpt><trkpt lat="-39.4081047457" lon="-72.7076984011"><ele>92.01</ele><time>2024-09-14T03:23:02Z</time></trkpt><trkpt lat="-39.4080498442" lon="-72.7076564077"><ele>91.97</ele><time>2024-09-14T03:23:03Z</time></trkpt><trkpt lat="-39.4080021512" lon="-72.7076051943"><ele>91.94</ele><time>2024-09-14T03:23:04Z</time></trkpt><trkpt lat="-39.4079665281" lon="-72.7075472753"><ele>92.12</ele><time>2024-09-14T03:23:05Z</time></trkpt><trkpt lat="-39.4079403765" lon="-72.7074829862"><ele>92.07</ele><time>2024-09-14T03:23:06Z</time></trkpt><trkpt lat="-39.4079252053" lon="-72.7074152604"><ele>92.03</ele><time>2024-09-14T03:23:07Z</time></trkpt><trkpt lat="-39.4079221878" lon="-72.7073503006"><ele>92.20</ele><time>2024-09-14T03:23:08Z</time></trkpt><trkpt lat="-39.4079275522" lon="-72.7072976623"><ele>92.20</ele><time>2024-09-14T03:23:09Z</time></trkpt><trkpt lat="-39.4079381134" lon="-72.7072592732"><ele>92.39</ele><time>2024-09-14T03:23:10Z</time></trkpt><trkpt lat="-39.4079489261" lon="-72.7072353009"><ele>92.42</ele><time>2024-09-14T03:23:11Z</time></trkpt><trkpt lat="-39.4079610799" lon="-72.7072185371"><ele>92.32</ele><time>2024-09-14T03:23:12Z</time></trkpt><trkpt lat="-39.4079801068" lon="-72.7071968280"><ele>92.15</ele><time>2024-09-14T03:23:13Z</time></trkpt><trkpt lat="-39.4080081023" lon="-72.7071747836"><ele>92.15</ele><time>2024-09-14T03:23:14Z</time></trkpt><trkpt lat="-39.4080486707" lon="-72.7071600314"><ele>92.24</ele><time>2024-09-14T03:23:15Z</time></trkpt><trkpt lat="-39.4081007224" lon="-72.7071541641"><ele>92.23</ele><time>2024-09-14T03:23:16Z</time></trkpt><trkpt lat="-39.4081598986" lon="-72.7071520686"><ele>92.34</ele><time>2024-09-14T03:23:17Z</time></trkpt><trkpt lat="-39.4082248583" lon="-72.7071470395"><ele>92.37</ele><time>2024-09-14T03:23:18Z</time></trkpt><trkpt lat="-39.4082920812" lon="-72.7071300242"><ele>92.37</ele><time>2024-09-14T03:23:19Z</time></trkpt><trkpt lat="-39.4083552808" lon="-72.7071026992"><ele>92.40</ele><time>2024-09-14T03:23:20Z</time></trkpt><trkpt lat="-39.4084194023" lon="-72.7070751227"><ele>92.38</ele><time>2024-09-14T03:23:21Z</time></trkpt><trkpt lat="-39.4084838592" lon="-72.7070460375"><ele>92.38</ele><time>2024-09-14T03:23:22Z</time></trkpt><trkpt lat="-39.4085464720" lon="-72.7070119232"><ele>92.43</ele><time>2024-09-14T03:23:23Z</time></trkpt><trkpt lat="-39.4086036365" lon="-72.7069711033"><ele>92.56</ele><time>2024-09-14T03:23:24Z</time></trkpt><trkpt lat="-39.4086530898" lon="-72.7069200575"><ele>92.44</ele><time>2024-09-14T03:23:25Z</time></trkpt><trkpt lat="-39.4086777326" lon="-72.7068509068"><ele>92.47</ele><time>2024-09-14T03:23:26Z</time></trkpt><trkpt lat="-39.4086779840" lon="-72.7067485638"><ele>92.62</ele><time>2024-09-14T03:23:27Z</time></trkpt><trkpt lat="-39.4086837675" lon="-72.7066556923"><ele>92.58</ele><time>2024-09-14T03:23:28Z</time></trkpt><trkpt lat="-39.4086777326" lon="-72.7065567020"><ele>92.62</ele><time>2024-09-14T03:23:29Z</time></trkpt><trkpt lat="-39.4086657465" lon="-72.7064607292"><ele>92.78</ele><time>2024-09-14T03:23:30Z</time></trkpt><trkpt lat="-39.4086469710" lon="-72.7063748986"><ele>92.75</ele><time>2024-09-14T03:23:31Z</time></trkpt><trkpt lat="-39.4086235855" lon="-72.7062953543"><ele>92.85</ele><time>2024-09-14T03:23:32Z</time></trkpt><trkpt lat="-39.4085967634" lon="-72.7062210068"><ele>92.76</ele><time>2024-09-14T03:23:33Z</time></trkpt><trkpt lat="-39.4084199890" lon="-72.7058526222"><ele>92.79</ele><time>2024-09-14T03:23:42Z</time></trkpt><trkpt lat="-39.4084136188" lon="-72.7058483474"><ele>92.36</ele><time>2024-09-14T03:24:30Z</time></trkpt><trkpt lat="-39.4084259402" lon="-72.7058399655"><ele>93.48</ele><time>2024-09-14T03:24:56Z</time></trkpt></trkseg></trk></gpx>