<?xml version="1.0" encoding="UTF-8" standalone="no" ?><gpx xmlns="http://www.topografix.com/GPX/1/1" xmlns:gpxx="http://www.garmin.com/xmlschemas/GpxExtensions/v3" xmlns:gpxtrkx="http://www.garmin.com/xmlschemas/TrackStatsExtension/v1" xmlns:wptx1="http://www.garmin.com/xmlschemas/WaypointExtension/v1" xmlns:gpxtpx="http://www.garmin.com/xmlschemas/TrackPointExtension/v1" creator="GPSMAP 64sx" version="1.1" xmlns:xsi="http://www.w3.org/2001/XMLSchema-instance" xsi:schemaLocation="http://www.topografix.com/GPX/1/1 http://www.topografix.com/GPX/1/1/gpx.xsd http://www.garmin.com/xmlschemas/GpxExtensions/v3 http://www8.garmin.com/xmlschemas/GpxExtensionsv3.xsd http://www.garmin.com/xmlschemas/TrackStatsExtension/v1 http://www8.garmin.com/xmlschemas/TrackStatsExtension.xsd http://www.garmin.com/xmlschemas/WaypointExtension/v1 http://www8.garmin.com/xmlschemas/WaypointExtensionv1.xsd http://www.garmin.com/xmlschemas/TrackPointExtension/v1 http://www.garmin.com/xmlschemas/TrackPointExtensionv1.xsd"><metadata><link href="http://www.garmin.com"><text>Garmin International</text></link><time>2024-08-29T01:40:21Z</time></metadata><trk><name>GPS LONCO 240828</name><extensions><gpxx:TrackExtension><gpxx:DisplayColor>Cyan</gpxx:DisplayColor></gpxx:TrackExtension><gpxtrkx:TrackStatsExtension><gpxtrkx:Distance>12936.000</gpxtrkx:Distance><gpxtrkx:TotalElapsedTime>1868</gpxtrkx:TotalElapsedTime><gpxtrkx:MovingTime>1801</gpxtrkx:MovingTime><gpxtrkx:StoppedTime>66</gpxtrkx:StoppedTime><gpxtrkx:MovingSpeed>7.183</gpxtrkx:MovingSpeed><gpxtrkx:MaxSpeed>14.326</gpxtrkx:MaxSpeed><gpxtrkx:MaxElevation>285.704</gpxtrkx:MaxElevation><gpxtrkx:MinElevation>225.882</gpxtrkx:MinElevation><gpxtrkx:Ascent>136.000</gpxtrkx:Ascent><gpxtrkx:Descent>138.004</gpxtrkx:Descent><gpxtrkx:AvgAscentRate>0.100</gpxtrkx:AvgAscentRate><gpxtrkx:MaxAscentRate>0.739</gpxtrkx:MaxAscentRate><gpxtrkx:AvgDescentRate>0.110</gpxtrkx:AvgDescentRate><gpxtrkx:MaxDescentRate>-1.123</gpxtrkx:MaxDescentRate></gpxtrkx:TrackStatsExtension></extensions><trkseg><trkpt lat="-39.2732281890" lon="-72.4094080925"><ele>260.84</ele><time>2024-08-29T01:09:13Z</time></trkpt><trkpt lat="-39.2732283566" lon="-72.4094079249"><ele>260.84</ele><time>2024-08-29T01:09:14Z</time></trkpt><trkpt lat="-39.2732651532" lon="-72.4094123673"><ele>259.69</ele><time>2024-08-29T01:09:29Z</time></trkpt><trkpt lat="-39.2733450327" lon="-72.4094082601"><ele>259.51</ele><time>2024-08-29T01:09:32Z</time></trkpt><trkpt lat="-39.2733825836" lon="-72.4094087631"><ele>259.59</ele><time>2024-08-29T01:09:33Z</time></trkpt><trkpt lat="-39.2734668218" lon="-72.4094256107"><ele>259.59</ele><time>2024-08-29T01:09:35Z</time></trkpt><trkpt lat="-39.2742213607" lon="-72.4096551910"><ele>260.46</ele><time>2024-08-29T01:09:47Z</time></trkpt><trkpt lat="-39.2753583658" lon="-72.4100369867"><ele>261.20</ele><time>2024-08-29T01:10:00Z</time></trkpt><trkpt lat="-39.2760727555" lon="-72.4102421757"><ele>262.10</ele><time>2024-08-29T01:10:07Z</time></trkpt><trkpt lat="-39.2768230196" lon="-72.4101529922"><ele>261.67</ele><time>2024-08-29T01:10:14Z</time></trkpt><trkpt lat="-39.2781965621" lon="-72.4097022135"><ele>259.07</ele><time>2024-08-29T01:10:26Z</time></trkpt><trkpt lat="-39.2783035152" lon="-72.4097038899"><ele>259.24</ele><time>2024-08-29T01:10:27Z</time></trkpt><trkpt lat="-39.2789461557" lon="-72.4099146947"><ele>255.09</ele><time>2024-08-29T01:10:33Z</time></trkpt><trkpt lat="-39.2792553641" lon="-72.4101695046"><ele>251.67</ele><time>2024-08-29T01:10:36Z</time></trkpt><trkpt lat="-39.2793437932" lon="-72.4102773797"><ele>250.14</ele><time>2024-08-29T01:10:37Z</time></trkpt><trkpt lat="-39.2794264387" lon="-72.4104001746"><ele>249.94</ele><time>2024-08-29T01:10:38Z</time></trkpt><trkpt lat="-39.2795972619" lon="-72.4106480274"><ele>246.71</ele><time>2024-08-29T01:10:40Z</time></trkpt><trkpt lat="-39.2796836793" lon="-72.4107662961"><ele>247.32</ele><time>2024-08-29T01:10:41Z</time></trkpt><trkpt lat="-39.2798532452" lon="-72.4110067729"><ele>243.71</ele><time>2024-08-29T01:10:43Z</time></trkpt><trkpt lat="-39.2801029421" lon="-72.4113561306"><ele>240.68</ele><time>2024-08-29T01:10:46Z</time></trkpt><trkpt lat="-39.2802882660" lon="-72.4115581345"><ele>237.55</ele><time>2024-08-29T01:10:48Z</time></trkpt><trkpt lat="-39.2806043476" lon="-72.4118098430"><ele>235.16</ele><time>2024-08-29T01:10:51Z</time></trkpt><trkpt lat="-39.2807221133" lon="-72.4118701927"><ele>233.65</ele><time>2024-08-29T01:10:52Z</time></trkpt><trkpt lat="-39.2812287994" lon="-72.4120368250"><ele>230.28</ele><time>2024-08-29T01:10:56Z</time></trkpt><trkpt lat="-39.2817562725" lon="-72.4122060556"><ele>225.10</ele><time>2024-08-29T01:11:01Z</time></trkpt><trkpt lat="-39.2818422709" lon="-72.4122388288"><ele>227.05</ele><time>2024-08-29T01:11:02Z</time></trkpt><trkpt lat="-39.2819248326" lon="-72.4122696742"><ele>231.35</ele><time>2024-08-29T01:11:03Z</time></trkpt><trkpt lat="-39.2820063885" lon="-72.4122997653"><ele>230.59</ele><time>2024-08-29T01:11:04Z</time></trkpt><trkpt lat="-39.2824090552" lon="-72.4124401622"><ele>227.20</ele><time>2024-08-29T01:11:10Z</time></trkpt><trkpt lat="-39.2832446471" lon="-72.4126772862"><ele>226.85</ele><time>2024-08-29T01:11:22Z</time></trkpt><trkpt lat="-39.2847336084" lon="-72.4132252112"><ele>229.95</ele><time>2024-08-29T01:11:40Z</time></trkpt><trkpt lat="-39.2863562610" lon="-72.4137562048"><ele>232.57</ele><time>2024-08-29T01:11:59Z</time></trkpt><trkpt lat="-39.2879169714" lon="-72.4142753799"><ele>232.19</ele><time>2024-08-29T01:12:17Z</time></trkpt><trkpt lat="-39.2891654558" lon="-72.4143847637"><ele>229.57</ele><time>2024-08-29T01:12:31Z</time></trkpt><trkpt lat="-39.2902209889" lon="-72.4139302131"><ele>227.33</ele><time>2024-08-29T01:12:44Z</time></trkpt><trkpt lat="-39.2910191976" lon="-72.4129978102"><ele>229.02</ele><time>2024-08-29T01:12:56Z</time></trkpt><trkpt lat="-39.2914600018" lon="-72.4120043032"><ele>233.12</ele><time>2024-08-29T01:13:06Z</time></trkpt><trkpt lat="-39.2914952058" lon="-72.4118957575"><ele>233.02</ele><time>2024-08-29T01:13:07Z</time></trkpt><trkpt lat="-39.2919357587" lon="-72.4106419925"><ele>236.04</ele><time>2024-08-29T01:13:19Z</time></trkpt><trkpt lat="-39.2923421133" lon="-72.4094214197"><ele>239.17</ele><time>2024-08-29T01:13:32Z</time></trkpt><trkpt lat="-39.2923532613" lon="-72.4091674481"><ele>239.39</ele><time>2024-08-29T01:13:40Z</time></trkpt><trkpt lat="-39.2921457253" lon="-72.4090744928"><ele>237.95</ele><time>2024-08-29T01:13:46Z</time></trkpt><trkpt lat="-39.2918821983" lon="-72.4089654442"><ele>236.95</ele><time>2024-08-29T01:13:51Z</time></trkpt><trkpt lat="-39.2909784615" lon="-72.4084875919"><ele>235.60</ele><time>2024-08-29T01:14:07Z</time></trkpt><trkpt lat="-39.2909758631" lon="-72.4082193710"><ele>236.00</ele><time>2024-08-29T01:14:12Z</time></trkpt><trkpt lat="-39.2911122367" lon="-72.4079401698"><ele>237.18</ele><time>2024-08-29T01:14:16Z</time></trkpt><trkpt lat="-39.2911673058" lon="-72.4078144412"><ele>236.26</ele><time>2024-08-29T01:14:18Z</time></trkpt><trkpt lat="-39.2914061900" lon="-72.4076804984"><ele>237.45</ele><time>2024-08-29T01:14:25Z</time></trkpt><trkpt lat="-39.2921411991" lon="-72.4082435109"><ele>240.12</ele><time>2024-08-29T01:14:43Z</time></trkpt><trkpt lat="-39.2925830092" lon="-72.4085800443"><ele>241.88</ele><time>2024-08-29T01:14:56Z</time></trkpt><trkpt lat="-39.2925958335" lon="-72.4086611811"><ele>241.62</ele><time>2024-08-29T01:14:59Z</time></trkpt><trkpt lat="-39.2925839312" lon="-72.4087051861"><ele>241.67</ele><time>2024-08-29T01:15:00Z</time></trkpt><trkpt lat="-39.2925610486" lon="-72.4087641947"><ele>241.42</ele><time>2024-08-29T01:15:01Z</time></trkpt><trkpt lat="-39.2923926562" lon="-72.4092176557"><ele>240.65</ele><time>2024-08-29T01:15:07Z</time></trkpt><trkpt lat="-39.2923836876" lon="-72.4092784245"><ele>240.44</ele><time>2024-08-29T01:15:08Z</time></trkpt><trkpt lat="-39.2923867889" lon="-72.4093253631"><ele>240.20</ele><time>2024-08-29T01:15:09Z</time></trkpt><trkpt lat="-39.2923948355" lon="-72.4093510117"><ele>240.12</ele><time>2024-08-29T01:15:10Z</time></trkpt><trkpt lat="-39.2924053967" lon="-72.4093697872"><ele>239.96</ele><time>2024-08-29T01:15:11Z</time></trkpt><trkpt lat="-39.2924211547" lon="-72.4093889818"><ele>239.88</ele><time>2024-08-29T01:15:12Z</time></trkpt><trkpt lat="-39.2924455460" lon="-72.4094079249"><ele>239.78</ele><time>2024-08-29T01:15:13Z</time></trkpt><trkpt lat="-39.2924787384" lon="-72.4094303045"><ele>239.94</ele><time>2024-08-29T01:15:14Z</time></trkpt><trkpt lat="-39.2925773095" lon="-72.4094932526"><ele>240.12</ele><time>2024-08-29T01:15:16Z</time></trkpt><trkpt lat="-39.2932950519" lon="-72.4099114258"><ele>243.64</ele><time>2024-08-29T01:15:26Z</time></trkpt><trkpt lat="-39.2937156558" lon="-72.4101494718"><ele>247.11</ele><time>2024-08-29T01:15:32Z</time></trkpt><trkpt lat="-39.2939385306" lon="-72.4102755357"><ele>250.37</ele><time>2024-08-29T01:15:36Z</time></trkpt><trkpt lat="-39.2939858045" lon="-72.4102876894"><ele>250.87</ele><time>2024-08-29T01:15:37Z</time></trkpt><trkpt lat="-39.2940365989" lon="-72.4102751166"><ele>251.34</ele><time>2024-08-29T01:15:38Z</time></trkpt><trkpt lat="-39.2940887343" lon="-72.4102435168"><ele>251.84</ele><time>2024-08-29T01:15:39Z</time></trkpt><trkpt lat="-39.2941402830" lon="-72.4102015235"><ele>252.20</ele><time>2024-08-29T01:15:40Z</time></trkpt><trkpt lat="-39.2941940948" lon="-72.4101572670"><ele>252.63</ele><time>2024-08-29T01:15:41Z</time></trkpt><trkpt lat="-39.2944228370" lon="-72.4098931532"><ele>254.34</ele><time>2024-08-29T01:15:48Z</time></trkpt><trkpt lat="-39.2944144551" lon="-72.4098447058"><ele>254.34</ele><time>2024-08-29T01:15:49Z</time></trkpt><trkpt lat="-39.2943955120" lon="-72.4097918160"><ele>254.49</ele><time>2024-08-29T01:15:50Z</time></trkpt><trkpt lat="-39.2943705339" lon="-72.4097336456"><ele>254.39</ele><time>2024-08-29T01:15:51Z</time></trkpt><trkpt lat="-39.2943408620" lon="-72.4096691888"><ele>254.12</ele><time>2024-08-29T01:15:52Z</time></trkpt><trkpt lat="-39.2940796819" lon="-72.4091705494"><ele>250.80</ele><time>2024-08-29T01:15:59Z</time></trkpt><trkpt lat="-39.2939011473" lon="-72.4088174198"><ele>247.95</ele><time>2024-08-29T01:16:05Z</time></trkpt><trkpt lat="-39.2936807871" lon="-72.4085549824"><ele>246.83</ele><time>2024-08-29T01:16:13Z</time></trkpt><trkpt lat="-39.2929757852" lon="-72.4080913793"><ele>244.71</ele><time>2024-08-29T01:16:28Z</time></trkpt><trkpt lat="-39.2928835005" lon="-72.4079656508"><ele>243.69</ele><time>2024-08-29T01:16:36Z</time></trkpt><trkpt lat="-39.2928899545" lon="-72.4079229869"><ele>243.85</ele><time>2024-08-29T01:16:37Z</time></trkpt><trkpt lat="-39.2929066345" lon="-72.4078689236"><ele>244.01</ele><time>2024-08-29T01:16:38Z</time></trkpt><trkpt lat="-39.2931516375" lon="-72.4072234333"><ele>247.23</ele><time>2024-08-29T01:16:46Z</time></trkpt><trkpt lat="-39.2934417352" lon="-72.4064681400"><ele>250.49</ele><time>2024-08-29T01:16:54Z</time></trkpt><trkpt lat="-39.2935733311" lon="-72.4063062016"><ele>252.25</ele><time>2024-08-29T01:17:01Z</time></trkpt><trkpt lat="-39.2938305717" lon="-72.4064590875"><ele>255.52</ele><time>2024-08-29T01:17:09Z</time></trkpt><trkpt lat="-39.2944075819" lon="-72.4068250414"><ele>255.54</ele><time>2024-08-29T01:17:21Z</time></trkpt><trkpt lat="-39.2944727931" lon="-72.4069422204"><ele>255.06</ele><time>2024-08-29T01:17:25Z</time></trkpt><trkpt lat="-39.2944676802" lon="-72.4069923442"><ele>255.08</ele><time>2024-08-29T01:17:26Z</time></trkpt><trkpt lat="-39.2944480665" lon="-72.4070475809"><ele>255.04</ele><time>2024-08-29T01:17:27Z</time></trkpt><trkpt lat="-39.2944197357" lon="-72.4071086850"><ele>254.90</ele><time>2024-08-29T01:17:28Z</time></trkpt><trkpt lat="-39.2943879683" lon="-72.4071748182"><ele>254.66</ele><time>2024-08-29T01:17:29Z</time></trkpt><trkpt lat="-39.2941231001" lon="-72.4078629725"><ele>251.63</ele><time>2024-08-29T01:17:38Z</time></trkpt><trkpt lat="-39.2938730679" lon="-72.4084775336"><ele>248.57</ele><time>2024-08-29T01:17:47Z</time></trkpt><trkpt lat="-39.2938305717" lon="-72.4086576607"><ele>247.54</ele><time>2024-08-29T01:17:51Z</time></trkpt><trkpt lat="-39.2938467488" lon="-72.4086890928"><ele>247.40</ele><time>2024-08-29T01:17:52Z</time></trkpt><trkpt lat="-39.2938757502" lon="-72.4087054376"><ele>247.43</ele><time>2024-08-29T01:17:53Z</time></trkpt><trkpt lat="-39.2939138878" lon="-72.4087042641"><ele>247.68</ele><time>2024-08-29T01:17:54Z</time></trkpt><trkpt lat="-39.2939584795" lon="-72.4086864945"><ele>247.99</ele><time>2024-08-29T01:17:55Z</time></trkpt><trkpt lat="-39.2940052506" lon="-72.4086585827"><ele>248.32</ele><time>2024-08-29T01:17:56Z</time></trkpt><trkpt lat="-39.2940547876" lon="-72.4086219538"><ele>248.92</ele><time>2024-08-29T01:17:57Z</time></trkpt><trkpt lat="-39.2941065039" lon="-72.4085815530"><ele>249.43</ele><time>2024-08-29T01:17:58Z</time></trkpt><trkpt lat="-39.2943331506" lon="-72.4083978217"><ele>252.73</ele><time>2024-08-29T01:18:02Z</time></trkpt><trkpt lat="-39.2946158722" lon="-72.4081553333"><ele>255.97</ele><time>2024-08-29T01:18:07Z</time></trkpt><trkpt lat="-39.2951459438" lon="-72.4077247549"><ele>259.34</ele><time>2024-08-29T01:18:16Z</time></trkpt><trkpt lat="-39.2953502107" lon="-72.4075064901"><ele>260.91</ele><time>2024-08-29T01:18:22Z</time></trkpt><trkpt lat="-39.2953425832" lon="-72.4074598029"><ele>261.12</ele><time>2024-08-29T01:18:23Z</time></trkpt><trkpt lat="-39.2953181081" lon="-72.4074142892"><ele>261.14</ele><time>2024-08-29T01:18:24Z</time></trkpt><trkpt lat="-39.2952794675" lon="-72.4073745590"><ele>261.01</ele><time>2024-08-29T01:18:25Z</time></trkpt><trkpt lat="-39.2952285055" lon="-72.4073343258"><ele>260.75</ele><time>2024-08-29T01:18:26Z</time></trkpt><trkpt lat="-39.2951700836" lon="-72.4072935060"><ele>260.45</ele><time>2024-08-29T01:18:27Z</time></trkpt><trkpt lat="-39.2948511522" lon="-72.4070747383"><ele>258.07</ele><time>2024-08-29T01:18:32Z</time></trkpt><trkpt lat="-39.2945836019" lon="-72.4068833794"><ele>255.65</ele><time>2024-08-29T01:18:38Z</time></trkpt><trkpt lat="-39.2945710290" lon="-72.4068472534"><ele>255.43</ele><time>2024-08-29T01:18:39Z</time></trkpt><trkpt lat="-39.2945705261" lon="-72.4068045057"><ele>255.35</ele><time>2024-08-29T01:18:40Z</time></trkpt><trkpt lat="-39.2945833504" lon="-72.4067563936"><ele>255.40</ele><time>2024-08-29T01:18:41Z</time></trkpt><trkpt lat="-39.2946029641" lon="-72.4066988099"><ele>255.53</ele><time>2024-08-29T01:18:42Z</time></trkpt><trkpt lat="-39.2946302053" lon="-72.4066326767"><ele>255.83</ele><time>2024-08-29T01:18:43Z</time></trkpt><trkpt lat="-39.2946633976" lon="-72.4065623526"><ele>256.27</ele><time>2024-08-29T01:18:44Z</time></trkpt><trkpt lat="-39.2949559260" lon="-72.4058314506"><ele>259.51</ele><time>2024-08-29T01:18:53Z</time></trkpt><trkpt lat="-39.2950569279" lon="-72.4054457992"><ele>259.87</ele><time>2024-08-29T01:18:58Z</time></trkpt><trkpt lat="-39.2950592749" lon="-72.4053659197"><ele>259.89</ele><time>2024-08-29T01:18:59Z</time></trkpt><trkpt lat="-39.2950503062" lon="-72.4052856211"><ele>259.93</ele><time>2024-08-29T01:19:00Z</time></trkpt><trkpt lat="-39.2950334586" lon="-72.4052050710"><ele>260.09</ele><time>2024-08-29T01:19:01Z</time></trkpt><trkpt lat="-39.2950164434" lon="-72.4051264487"><ele>260.27</ele><time>2024-08-29T01:19:02Z</time></trkpt><trkpt lat="-39.2949878611" lon="-72.4047872331"><ele>261.00</ele><time>2024-08-29T01:19:09Z</time></trkpt><trkpt lat="-39.2949928902" lon="-72.4047683738"><ele>260.91</ele><time>2024-08-29T01:19:10Z</time></trkpt><trkpt lat="-39.2950004339" lon="-72.4047507718"><ele>260.99</ele><time>2024-08-29T01:19:11Z</time></trkpt><trkpt lat="-39.2950136773" lon="-72.4047321640"><ele>261.07</ele><time>2024-08-29T01:19:12Z</time></trkpt><trkpt lat="-39.2950400803" lon="-72.4047073536"><ele>261.17</ele><time>2024-08-29T01:19:13Z</time></trkpt><trkpt lat="-39.2950767931" lon="-72.4046874885"><ele>261.36</ele><time>2024-08-29T01:19:14Z</time></trkpt><trkpt lat="-39.2951223906" lon="-72.4046700541"><ele>261.51</ele><time>2024-08-29T01:19:15Z</time></trkpt><trkpt lat="-39.2951720953" lon="-72.4046520330"><ele>261.66</ele><time>2024-08-29T01:19:16Z</time></trkpt><trkpt lat="-39.2957636900" lon="-72.4044771027"><ele>263.34</ele><time>2024-08-29T01:19:24Z</time></trkpt><trkpt lat="-39.2959520314" lon="-72.4044381268"><ele>263.23</ele><time>2024-08-29T01:19:30Z</time></trkpt><trkpt lat="-39.2959948629" lon="-72.4044820480"><ele>263.36</ele><time>2024-08-29T01:19:32Z</time></trkpt><trkpt lat="-39.2960153986" lon="-72.4045331776"><ele>263.39</ele><time>2024-08-29T01:19:33Z</time></trkpt><trkpt lat="-39.2960330844" lon="-72.4046030827"><ele>263.41</ele><time>2024-08-29T01:19:34Z</time></trkpt><trkpt lat="-39.2962051649" lon="-72.4055524170"><ele>263.47</ele><time>2024-08-29T01:19:44Z</time></trkpt><trkpt lat="-39.2962175701" lon="-72.4056851026"><ele>263.42</ele><time>2024-08-29T01:19:46Z</time></trkpt><trkpt lat="-39.2962087691" lon="-72.4057286046"><ele>263.28</ele><time>2024-08-29T01:19:47Z</time></trkpt><trkpt lat="-39.2961895745" lon="-72.4057587795"><ele>263.22</ele><time>2024-08-29T01:19:48Z</time></trkpt><trkpt lat="-39.2961552087" lon="-72.4057820812"><ele>263.21</ele><time>2024-08-29T01:19:49Z</time></trkpt><trkpt lat="-39.2961041629" lon="-72.4058004376"><ele>263.23</ele><time>2024-08-29T01:19:50Z</time></trkpt><trkpt lat="-39.2960417178" lon="-72.4058172014"><ele>263.31</ele><time>2024-08-29T01:19:51Z</time></trkpt><trkpt lat="-39.2952354625" lon="-72.4060374778"><ele>261.40</ele><time>2024-08-29T01:20:03Z</time></trkpt><trkpt lat="-39.2951659765" lon="-72.4061460234"><ele>261.07</ele><time>2024-08-29T01:20:07Z</time></trkpt><trkpt lat="-39.2951642163" lon="-72.4061992485"><ele>261.24</ele><time>2024-08-29T01:20:08Z</time></trkpt><trkpt lat="-39.2951672338" lon="-72.4062590953"><ele>261.19</ele><time>2024-08-29T01:20:09Z</time></trkpt><trkpt lat="-39.2951756995" lon="-72.4063239712"><ele>261.18</ele><time>2024-08-29T01:20:10Z</time></trkpt><trkpt lat="-39.2951927148" lon="-72.4063980673"><ele>261.16</ele><time>2024-08-29T01:20:11Z</time></trkpt><trkpt lat="-39.2952088080" lon="-72.4064771924"><ele>261.17</ele><time>2024-08-29T01:20:12Z</time></trkpt><trkpt lat="-39.2952263262" lon="-72.4065610114"><ele>261.24</ele><time>2024-08-29T01:20:13Z</time></trkpt><trkpt lat="-39.2952446826" lon="-72.4066477641"><ele>261.30</ele><time>2024-08-29T01:20:14Z</time></trkpt><trkpt lat="-39.2954056989" lon="-72.4073751457"><ele>261.46</ele><time>2024-08-29T01:20:25Z</time></trkpt><trkpt lat="-39.2954767775" lon="-72.4074173905"><ele>261.55</ele><time>2024-08-29T01:20:27Z</time></trkpt><trkpt lat="-39.2955196928" lon="-72.4074170552"><ele>261.68</ele><time>2024-08-29T01:20:28Z</time></trkpt><trkpt lat="-39.2955673020" lon="-72.4074077513"><ele>261.77</ele><time>2024-08-29T01:20:29Z</time></trkpt><trkpt lat="-39.2956215329" lon="-72.4073909875"><ele>262.02</ele><time>2024-08-29T01:20:30Z</time></trkpt><trkpt lat="-39.2956802901" lon="-72.4073714577"><ele>262.30</ele><time>2024-08-29T01:20:31Z</time></trkpt><trkpt lat="-39.2965480685" lon="-72.4070907477"><ele>262.54</ele><time>2024-08-29T01:20:43Z</time></trkpt><trkpt lat="-39.2968454584" lon="-72.4069796875"><ele>261.17</ele><time>2024-08-29T01:20:51Z</time></trkpt><trkpt lat="-39.2969009466" lon="-72.4068222754"><ele>261.52</ele><time>2024-08-29T01:20:57Z</time></trkpt><trkpt lat="-39.2969225720" lon="-72.4068003986"><ele>261.64</ele><time>2024-08-29T01:20:58Z</time></trkpt><trkpt lat="-39.2970191315" lon="-72.4066712335"><ele>262.12</ele><time>2024-08-29T01:21:02Z</time></trkpt><trkpt lat="-39.2970702611" lon="-72.4064419046"><ele>263.21</ele><time>2024-08-29T01:21:07Z</time></trkpt><trkpt lat="-39.2969689239" lon="-72.4057908822"><ele>263.40</ele><time>2024-08-29T01:21:21Z</time></trkpt><trkpt lat="-39.2971991748" lon="-72.4056423549"><ele>262.99</ele><time>2024-08-29T01:21:30Z</time></trkpt><trkpt lat="-39.2972234823" lon="-72.4056274351"><ele>263.15</ele><time>2024-08-29T01:21:31Z</time></trkpt><trkpt lat="-39.2972366419" lon="-72.4054265209"><ele>263.32</ele><time>2024-08-29T01:21:36Z</time></trkpt><trkpt lat="-39.2972539924" lon="-72.4048557971"><ele>264.77</ele><time>2024-08-29T01:21:51Z</time></trkpt><trkpt lat="-39.2972798087" lon="-72.4046777654"><ele>264.97</ele><time>2024-08-29T01:21:57Z</time></trkpt><trkpt lat="-39.2971555889" lon="-72.4039254058"><ele>265.64</ele><time>2024-08-29T01:22:08Z</time></trkpt><trkpt lat="-39.2971583549" lon="-72.4037399143"><ele>266.09</ele><time>2024-08-29T01:22:15Z</time></trkpt><trkpt lat="-39.2971844226" lon="-72.4037231505"><ele>266.22</ele><time>2024-08-29T01:22:16Z</time></trkpt><trkpt lat="-39.2972206324" lon="-72.4037109967"><ele>266.26</ele><time>2024-08-29T01:22:17Z</time></trkpt><trkpt lat="-39.2978363670" lon="-72.4035599548"><ele>267.70</ele><time>2024-08-29T01:22:28Z</time></trkpt><trkpt lat="-39.2978814617" lon="-72.4035602901"><ele>267.67</ele><time>2024-08-29T01:22:29Z</time></trkpt><trkpt lat="-39.2979243770" lon="-72.4035731982"><ele>267.57</ele><time>2024-08-29T01:22:30Z</time></trkpt><trkpt lat="-39.2979626823" lon="-72.4036058038"><ele>267.54</ele><time>2024-08-29T01:22:31Z</time></trkpt><trkpt lat="-39.2979997303" lon="-72.4036514852"><ele>267.43</ele><time>2024-08-29T01:22:32Z</time></trkpt><trkpt lat="-39.2980348505" lon="-72.4037120026"><ele>267.22</ele><time>2024-08-29T01:22:33Z</time></trkpt><trkpt lat="-39.2980693001" lon="-72.4037774652"><ele>267.15</ele><time>2024-08-29T01:22:34Z</time></trkpt><trkpt lat="-39.2985700350" lon="-72.4046346825"><ele>264.51</ele><time>2024-08-29T01:22:47Z</time></trkpt><trkpt lat="-39.2986090109" lon="-72.4046678748"><ele>264.42</ele><time>2024-08-29T01:22:48Z</time></trkpt><trkpt lat="-39.2986510880" lon="-72.4046868179"><ele>264.34</ele><time>2024-08-29T01:22:49Z</time></trkpt><trkpt lat="-39.2986984458" lon="-72.4046936072"><ele>264.10</ele><time>2024-08-29T01:22:50Z</time></trkpt><trkpt lat="-39.2987541854" lon="-72.4046890810"><ele>264.11</ele><time>2024-08-29T01:22:51Z</time></trkpt><trkpt lat="-39.2988154572" lon="-72.4046774302"><ele>264.18</ele><time>2024-08-29T01:22:52Z</time></trkpt><trkpt lat="-39.2988814227" lon="-72.4046609178"><ele>264.46</ele><time>2024-08-29T01:22:53Z</time></trkpt><trkpt lat="-39.2994979117" lon="-72.4044797011"><ele>263.33</ele><time>2024-08-29T01:23:03Z</time></trkpt><trkpt lat="-39.3003397062" lon="-72.4042598438"><ele>263.69</ele><time>2024-08-29T01:23:14Z</time></trkpt><trkpt lat="-39.3003963679" lon="-72.4042410683"><ele>263.79</ele><time>2024-08-29T01:23:15Z</time></trkpt><trkpt lat="-39.3004411273" lon="-72.4042125698"><ele>263.83</ele><time>2024-08-29T01:23:16Z</time></trkpt><trkpt lat="-39.3004725594" lon="-72.4041706603"><ele>263.95</ele><time>2024-08-29T01:23:17Z</time></trkpt><trkpt lat="-39.3004885688" lon="-72.4041108135"><ele>264.31</ele><time>2024-08-29T01:23:18Z</time></trkpt><trkpt lat="-39.3004878145" lon="-72.4040399864"><ele>264.57</ele><time>2024-08-29T01:23:19Z</time></trkpt><trkpt lat="-39.3004775885" lon="-72.4039634597"><ele>264.62</ele><time>2024-08-29T01:23:20Z</time></trkpt><trkpt lat="-39.3004661892" lon="-72.4038797244"><ele>265.07</ele><time>2024-08-29T01:23:21Z</time></trkpt><trkpt lat="-39.3003827054" lon="-72.4033808336"><ele>268.54</ele><time>2024-08-29T01:23:27Z</time></trkpt><trkpt lat="-39.3003146444" lon="-72.4029808491"><ele>271.91</ele><time>2024-08-29T01:23:33Z</time></trkpt><trkpt lat="-39.3002897501" lon="-72.4028995447"><ele>272.69</ele><time>2024-08-29T01:23:35Z</time></trkpt><trkpt lat="-39.3001397140" lon="-72.4028342497"><ele>272.58</ele><time>2024-08-29T01:23:40Z</time></trkpt><trkpt lat="-39.3000942841" lon="-72.4028391112"><ele>272.01</ele><time>2024-08-29T01:23:41Z</time></trkpt><trkpt lat="-39.3000461720" lon="-72.4028532766"><ele>271.49</ele><time>2024-08-29T01:23:42Z</time></trkpt><trkpt lat="-39.2997117341" lon="-72.4029550329"><ele>267.90</ele><time>2024-08-29T01:23:47Z</time></trkpt><trkpt lat="-39.2996362131" lon="-72.4029746465"><ele>267.60</ele><time>2024-08-29T01:23:48Z</time></trkpt><trkpt lat="-39.2988375854" lon="-72.4031908158"><ele>266.16</ele><time>2024-08-29T01:24:00Z</time></trkpt><trkpt lat="-39.2981814500" lon="-72.4033779837"><ele>266.60</ele><time>2024-08-29T01:24:12Z</time></trkpt><trkpt lat="-39.2981159035" lon="-72.4033630639"><ele>266.73</ele><time>2024-08-29T01:24:15Z</time></trkpt><trkpt lat="-39.2980898358" lon="-72.4033337273"><ele>266.94</ele><time>2024-08-29T01:24:16Z</time></trkpt><trkpt lat="-39.2980711441" lon="-72.4032872915"><ele>267.03</ele><time>2024-08-29T01:24:17Z</time></trkpt><trkpt lat="-39.2980551347" lon="-72.4032276124"><ele>267.11</ele><time>2024-08-29T01:24:18Z</time></trkpt><trkpt lat="-39.2980433162" lon="-72.4031624850"><ele>267.36</ele><time>2024-08-29T01:24:19Z</time></trkpt><trkpt lat="-39.2980342638" lon="-72.4031004589"><ele>267.46</ele><time>2024-08-29T01:24:20Z</time></trkpt><trkpt lat="-39.2979171686" lon="-72.4022480194"><ele>268.83</ele><time>2024-08-29T01:24:32Z</time></trkpt><trkpt lat="-39.2979111336" lon="-72.4020944629"><ele>269.51</ele><time>2024-08-29T01:24:35Z</time></trkpt><trkpt lat="-39.2979304120" lon="-72.4020602647"><ele>269.64</ele><time>2024-08-29T01:24:36Z</time></trkpt><trkpt lat="-39.2979606707" lon="-72.4020326044"><ele>269.82</ele><time>2024-08-29T01:24:37Z</time></trkpt><trkpt lat="-39.2980019096" lon="-72.4020125717"><ele>269.92</ele><time>2024-08-29T01:24:38Z</time></trkpt><trkpt lat="-39.2980514467" lon="-72.4019979872"><ele>269.87</ele><time>2024-08-29T01:24:39Z</time></trkpt><trkpt lat="-39.2981078569" lon="-72.4019855820"><ele>269.94</ele><time>2024-08-29T01:24:40Z</time></trkpt><trkpt lat="-39.2989178840" lon="-72.4017905351"><ele>271.50</ele><time>2024-08-29T01:24:54Z</time></trkpt><trkpt lat="-39.2995609436" lon="-72.4016102403"><ele>274.67</ele><time>2024-08-29T01:25:05Z</time></trkpt><trkpt lat="-39.2999525461" lon="-72.4014963303"><ele>275.97</ele><time>2024-08-29T01:25:15Z</time></trkpt><trkpt lat="-39.3000175059" lon="-72.4013379961"><ele>275.91</ele><time>2024-08-29T01:25:20Z</time></trkpt><trkpt lat="-39.3000128958" lon="-72.4012767244"><ele>275.78</ele><time>2024-08-29T01:25:21Z</time></trkpt><trkpt lat="-39.3000017479" lon="-72.4012065679"><ele>275.65</ele><time>2024-08-29T01:25:22Z</time></trkpt><trkpt lat="-39.2998290807" lon="-72.4002050143"><ele>273.53</ele><time>2024-08-29T01:25:34Z</time></trkpt><trkpt lat="-39.2998067010" lon="-72.4001535494"><ele>273.23</ele><time>2024-08-29T01:25:35Z</time></trkpt><trkpt lat="-39.2997798789" lon="-72.4001171719"><ele>273.28</ele><time>2024-08-29T01:25:36Z</time></trkpt><trkpt lat="-39.2997411545" lon="-72.4000962172"><ele>273.14</ele><time>2024-08-29T01:25:37Z</time></trkpt><trkpt lat="-39.2996880971" lon="-72.4000929482"><ele>273.07</ele><time>2024-08-29T01:25:38Z</time></trkpt><trkpt lat="-39.2996236403" lon="-72.4001051020"><ele>273.05</ele><time>2024-08-29T01:25:39Z</time></trkpt><trkpt lat="-39.2995533999" lon="-72.4001216982"><ele>272.99</ele><time>2024-08-29T01:25:40Z</time></trkpt><trkpt lat="-39.2987269443" lon="-72.4003513623"><ele>270.22</ele><time>2024-08-29T01:25:53Z</time></trkpt><trkpt lat="-39.2981432285" lon="-72.4005240295"><ele>269.98</ele><time>2024-08-29T01:26:02Z</time></trkpt><trkpt lat="-39.2973544914" lon="-72.4006716348"><ele>266.82</ele><time>2024-08-29T01:26:13Z</time></trkpt><trkpt lat="-39.2971018609" lon="-72.4006793462"><ele>263.54</ele><time>2024-08-29T01:26:16Z</time></trkpt><trkpt lat="-39.2964773253" lon="-72.4007070065"><ele>261.37</ele><time>2024-08-29T01:26:27Z</time></trkpt><trkpt lat="-39.2964472342" lon="-72.4006809387"><ele>261.34</ele><time>2024-08-29T01:26:28Z</time></trkpt><trkpt lat="-39.2964262795" lon="-72.4006360117"><ele>261.25</ele><time>2024-08-29T01:26:29Z</time></trkpt><trkpt lat="-39.2964095995" lon="-72.4005796853"><ele>261.19</ele><time>2024-08-29T01:26:30Z</time></trkpt><trkpt lat="-39.2961193342" lon="-72.4000034295"><ele>261.05</ele><time>2024-08-29T01:26:38Z</time></trkpt><trkpt lat="-39.2960625887" lon="-72.3999557365"><ele>261.18</ele><time>2024-08-29T01:26:39Z</time></trkpt><trkpt lat="-39.2960062623" lon="-72.3999206163"><ele>261.18</ele><time>2024-08-29T01:26:40Z</time></trkpt><trkpt lat="-39.2958906759" lon="-72.3998690676"><ele>261.44</ele><time>2024-08-29T01:26:42Z</time></trkpt><trkpt lat="-39.2956444994" lon="-72.3997919541"><ele>262.37</ele><time>2024-08-29T01:26:50Z</time></trkpt><trkpt lat="-39.2956177611" lon="-72.3997053690"><ele>262.41</ele><time>2024-08-29T01:26:52Z</time></trkpt><trkpt lat="-39.2956072837" lon="-72.3996446002"><ele>262.49</ele><time>2024-08-29T01:26:53Z</time></trkpt><trkpt lat="-39.2954414058" lon="-72.3986809328"><ele>263.95</ele><time>2024-08-29T01:27:03Z</time></trkpt><trkpt lat="-39.2951468658" lon="-72.3973864317"><ele>266.98</ele><time>2024-08-29T01:27:16Z</time></trkpt><trkpt lat="-39.2950206343" lon="-72.3966764845"><ele>270.16</ele><time>2024-08-29T01:27:23Z</time></trkpt><trkpt lat="-39.2950054631" lon="-72.3955021799"><ele>273.29</ele><time>2024-08-29T01:27:34Z</time></trkpt><trkpt lat="-39.2950338777" lon="-72.3941271286"><ele>275.70</ele><time>2024-08-29T01:27:47Z</time></trkpt><trkpt lat="-39.2949209735" lon="-72.3927226570"><ele>276.08</ele><time>2024-08-29T01:28:00Z</time></trkpt><trkpt lat="-39.2944921553" lon="-72.3913310934"><ele>275.78</ele><time>2024-08-29T01:28:14Z</time></trkpt><trkpt lat="-39.2936998140" lon="-72.3897309043"><ele>275.84</ele><time>2024-08-29T01:28:32Z</time></trkpt><trkpt lat="-39.2934995703" lon="-72.3892775271"><ele>275.81</ele><time>2024-08-29T01:28:37Z</time></trkpt><trkpt lat="-39.2934741732" lon="-72.3891756032"><ele>275.81</ele><time>2024-08-29T01:28:38Z</time></trkpt><trkpt lat="-39.2934641987" lon="-72.3890733439"><ele>275.76</ele><time>2024-08-29T01:28:39Z</time></trkpt><trkpt lat="-39.2934671324" lon="-72.3889690731"><ele>275.86</ele><time>2024-08-29T01:28:40Z</time></trkpt><trkpt lat="-39.2934797052" lon="-72.3888653051"><ele>275.85</ele><time>2024-08-29T01:28:41Z</time></trkpt><trkpt lat="-39.2935002409" lon="-72.3887649737"><ele>275.83</ele><time>2024-08-29T01:28:42Z</time></trkpt><trkpt lat="-39.2935204413" lon="-72.3886642233"><ele>276.04</ele><time>2024-08-29T01:28:43Z</time></trkpt><trkpt lat="-39.2938945256" lon="-72.3867933825"><ele>276.80</ele><time>2024-08-29T01:29:01Z</time></trkpt><trkpt lat="-39.2941639200" lon="-72.3854961991"><ele>279.02</ele><time>2024-08-29T01:29:14Z</time></trkpt><trkpt lat="-39.2944425344" lon="-72.3844331224"><ele>282.07</ele><time>2024-08-29T01:29:25Z</time></trkpt><trkpt lat="-39.2946588714" lon="-72.3832971230"><ele>284.46</ele><time>2024-08-29T01:29:36Z</time></trkpt><trkpt lat="-39.2948904634" lon="-72.3818197288"><ele>285.51</ele><time>2024-08-29T01:29:50Z</time></trkpt><trkpt lat="-39.2952249851" lon="-72.3801352177"><ele>283.42</ele><time>2024-08-29T01:30:06Z</time></trkpt><trkpt lat="-39.2954449262" lon="-72.3789532017"><ele>280.16</ele><time>2024-08-29T01:30:17Z</time></trkpt><trkpt lat="-39.2957870755" lon="-72.3772069998"><ele>277.52</ele><time>2024-08-29T01:30:34Z</time></trkpt><trkpt lat="-39.2961164005" lon="-72.3756547552"><ele>276.43</ele><time>2024-08-29T01:30:49Z</time></trkpt><trkpt lat="-39.2964460608" lon="-72.3741335236"><ele>274.49</ele><time>2024-08-29T01:31:04Z</time></trkpt><trkpt lat="-39.2965330649" lon="-72.3736195453"><ele>273.58</ele><time>2024-08-29T01:31:13Z</time></trkpt><trkpt lat="-39.2965009622" lon="-72.3735677451"><ele>274.09</ele><time>2024-08-29T01:31:20Z</time></trkpt><trkpt lat="-39.2965157144" lon="-72.3735938128"><ele>273.07</ele><time>2024-08-29T01:31:28Z</time></trkpt><trkpt lat="-39.2965044826" lon="-72.3736133426"><ele>273.11</ele><time>2024-08-29T01:31:29Z</time></trkpt><trkpt lat="-39.2963883933" lon="-72.3741001636"><ele>274.07</ele><time>2024-08-29T01:31:37Z</time></trkpt><trkpt lat="-39.2960744072" lon="-72.3755415995"><ele>275.69</ele><time>2024-08-29T01:31:52Z</time></trkpt><trkpt lat="-39.2957496922" lon="-72.3770184070"><ele>276.75</ele><time>2024-08-29T01:32:07Z</time></trkpt><trkpt lat="-39.2954072077" lon="-72.3787195981"><ele>277.97</ele><time>2024-08-29T01:32:24Z</time></trkpt><trkpt lat="-39.2951732688" lon="-72.3798967525"><ele>281.20</ele><time>2024-08-29T01:32:36Z</time></trkpt><trkpt lat="-39.2948505655" lon="-72.3815164715"><ele>283.77</ele><time>2024-08-29T01:32:52Z</time></trkpt><trkpt lat="-39.2944530118" lon="-72.3835384380"><ele>283.02</ele><time>2024-08-29T01:33:12Z</time></trkpt><trkpt lat="-39.2942075059" lon="-72.3847403191"><ele>280.01</ele><time>2024-08-29T01:33:24Z</time></trkpt><trkpt lat="-39.2939795181" lon="-72.3859401885"><ele>276.91</ele><time>2024-08-29T01:33:36Z</time></trkpt><trkpt lat="-39.2936645262" lon="-72.3876319081"><ele>274.77</ele><time>2024-08-29T01:33:53Z</time></trkpt><trkpt lat="-39.2933884263" lon="-72.3891455121"><ele>273.99</ele><time>2024-08-29T01:34:08Z</time></trkpt><trkpt lat="-39.2933987360" lon="-72.3892481066"><ele>274.06</ele><time>2024-08-29T01:34:09Z</time></trkpt><trkpt lat="-39.2934200261" lon="-72.3893463425"><ele>273.99</ele><time>2024-08-29T01:34:10Z</time></trkpt><trkpt lat="-39.2934499495" lon="-72.3894413933"><ele>273.92</ele><time>2024-08-29T01:34:11Z</time></trkpt><trkpt lat="-39.2934857402" lon="-72.3895358574"><ele>273.92</ele><time>2024-08-29T01:34:12Z</time></trkpt><trkpt lat="-39.2935252190" lon="-72.3896260466"><ele>273.95</ele><time>2024-08-29T01:34:13Z</time></trkpt><trkpt lat="-39.2941997107" lon="-72.3909190390"><ele>273.77</ele><time>2024-08-29T01:34:28Z</time></trkpt><trkpt lat="-39.2946915608" lon="-72.3920801841"><ele>273.58</ele><time>2024-08-29T01:34:41Z</time></trkpt><trkpt lat="-39.2949653137" lon="-72.3933883477"><ele>273.53</ele><time>2024-08-29T01:34:54Z</time></trkpt><trkpt lat="-39.2949726898" lon="-72.3948488105"><ele>271.30</ele><time>2024-08-29T01:35:09Z</time></trkpt><trkpt lat="-39.2949550040" lon="-72.3960955348"><ele>268.77</ele><time>2024-08-29T01:35:23Z</time></trkpt><trkpt lat="-39.2949250806" lon="-72.3965639155"><ele>267.39</ele><time>2024-08-29T01:35:32Z</time></trkpt><trkpt lat="-39.2948989291" lon="-72.3965795059"><ele>267.43</ele><time>2024-08-29T01:35:33Z</time></trkpt><trkpt lat="-39.2948643118" lon="-72.3965787515"><ele>267.35</ele><time>2024-08-29T01:35:34Z</time></trkpt><trkpt lat="-39.2948229052" lon="-72.3965579644"><ele>267.30</ele><time>2024-08-29T01:35:35Z</time></trkpt><trkpt lat="-39.2947778106" lon="-72.3965353332"><ele>267.35</ele><time>2024-08-29T01:35:36Z</time></trkpt><trkpt lat="-39.2940573860" lon="-72.3961985484"><ele>268.67</ele><time>2024-08-29T01:35:49Z</time></trkpt><trkpt lat="-39.2931977380" lon="-72.3958460893"><ele>271.55</ele><time>2024-08-29T01:36:02Z</time></trkpt><trkpt lat="-39.2924963403" lon="-72.3955817241"><ele>273.84</ele><time>2024-08-29T01:36:15Z</time></trkpt><trkpt lat="-39.2923021317" lon="-72.3954906967"><ele>274.45</ele><time>2024-08-29T01:36:24Z</time></trkpt><trkpt lat="-39.2923273612" lon="-72.3954918701"><ele>274.20</ele><time>2024-08-29T01:36:34Z</time></trkpt><trkpt lat="-39.2923320550" lon="-72.3955793772"><ele>274.00</ele><time>2024-08-29T01:36:40Z</time></trkpt><trkpt lat="-39.2923452985" lon="-72.3955906928"><ele>273.90</ele><time>2024-08-29T01:36:41Z</time></trkpt><trkpt lat="-39.2923597991" lon="-72.3956010025"><ele>273.72</ele><time>2024-08-29T01:36:42Z</time></trkpt><trkpt lat="-39.2923779879" lon="-72.3956126533"><ele>273.67</ele><time>2024-08-29T01:36:43Z</time></trkpt><trkpt lat="-39.2924014572" lon="-72.3956233822"><ele>273.55</ele><time>2024-08-29T01:36:44Z</time></trkpt><trkpt lat="-39.2924247589" lon="-72.3956336919"><ele>273.40</ele><time>2024-08-29T01:36:45Z</time></trkpt><trkpt lat="-39.2928370647" lon="-72.3957791179"><ele>272.53</ele><time>2024-08-29T01:36:55Z</time></trkpt><trkpt lat="-39.2938285600" lon="-72.3961661104"><ele>269.77</ele><time>2024-08-29T01:37:10Z</time></trkpt><trkpt lat="-39.2947274353" lon="-72.3965229280"><ele>266.76</ele><time>2024-08-29T01:37:23Z</time></trkpt><trkpt lat="-39.2948770523" lon="-72.3965774104"><ele>266.56</ele><time>2024-08-29T01:37:26Z</time></trkpt><trkpt lat="-39.2950215563" lon="-72.3967370018"><ele>265.85</ele><time>2024-08-29T01:37:34Z</time></trkpt><trkpt lat="-39.2950291838" lon="-72.3967947531"><ele>265.58</ele><time>2024-08-29T01:37:35Z</time></trkpt><trkpt lat="-39.2950353865" lon="-72.3968708608"><ele>265.56</ele><time>2024-08-29T01:37:36Z</time></trkpt><trkpt lat="-39.2950468697" lon="-72.3969565239"><ele>265.29</ele><time>2024-08-29T01:37:37Z</time></trkpt><trkpt lat="-39.2952271644" lon="-72.3978158366"><ele>262.11</ele><time>2024-08-29T01:37:45Z</time></trkpt><trkpt lat="-39.2955332715" lon="-72.3993376549"><ele>259.47</ele><time>2024-08-29T01:37:59Z</time></trkpt><trkpt lat="-39.2956107203" lon="-72.3998697381"><ele>258.08</ele><time>2024-08-29T01:38:05Z</time></trkpt><trkpt lat="-39.2956011649" lon="-72.3999474384"><ele>257.86</ele><time>2024-08-29T01:38:06Z</time></trkpt><trkpt lat="-39.2955817189" lon="-72.4000324309"><ele>257.68</ele><time>2024-08-29T01:38:07Z</time></trkpt><trkpt lat="-39.2953692377" lon="-72.4011240900"><ele>254.96</ele><time>2024-08-29T01:38:18Z</time></trkpt><trkpt lat="-39.2953758594" lon="-72.4012323003"><ele>254.68</ele><time>2024-08-29T01:38:19Z</time></trkpt><trkpt lat="-39.2953882646" lon="-72.4013444502"><ele>254.37</ele><time>2024-08-29T01:38:20Z</time></trkpt><trkpt lat="-39.2956605088" lon="-72.4028543662"><ele>256.71</ele><time>2024-08-29T01:38:34Z</time></trkpt><trkpt lat="-39.2959053442" lon="-72.4041392282"><ele>259.03</ele><time>2024-08-29T01:38:48Z</time></trkpt><trkpt lat="-39.2958751693" lon="-72.4043845665"><ele>258.25</ele><time>2024-08-29T01:38:55Z</time></trkpt><trkpt lat="-39.2958512809" lon="-72.4043931160"><ele>258.42</ele><time>2024-08-29T01:38:56Z</time></trkpt><trkpt lat="-39.2958303262" lon="-72.4043949600"><ele>258.23</ele><time>2024-08-29T01:38:57Z</time></trkpt><trkpt lat="-39.2958124727" lon="-72.4043935351"><ele>258.16</ele><time>2024-08-29T01:38:58Z</time></trkpt><trkpt lat="-39.2957998160" lon="-72.4043912720"><ele>258.07</ele><time>2024-08-29T01:38:59Z</time></trkpt><trkpt lat="-39.2957879137" lon="-72.4043863267"><ele>258.10</ele><time>2024-08-29T01:39:00Z</time></trkpt><trkpt lat="-39.2957741674" lon="-72.4043807108"><ele>258.06</ele><time>2024-08-29T01:39:01Z</time></trkpt><trkpt lat="-39.2957600858" lon="-72.4043783639"><ele>257.95</ele><time>2024-08-29T01:39:02Z</time></trkpt><trkpt lat="-39.2957453337" lon="-72.4043781962"><ele>257.94</ele><time>2024-08-29T01:39:03Z</time></trkpt><trkpt lat="-39.2957338504" lon="-72.4043582473"><ele>257.99</ele><time>2024-08-29T01:39:17Z</time></trkpt><trkpt lat="-39.2957476806" lon="-72.4043722451"><ele>257.79</ele><time>2024-08-29T01:39:59Z</time></trkpt></trkseg></trk></gpx>