<?xml version="1.0" encoding="UTF-8" standalone="no" ?><gpx xmlns="http://www.topografix.com/GPX/1/1" xmlns:gpxx="http://www.garmin.com/xmlschemas/GpxExtensions/v3" xmlns:gpxtrkx="http://www.garmin.com/xmlschemas/TrackStatsExtension/v1" xmlns:wptx1="http://www.garmin.com/xmlschemas/WaypointExtension/v1" xmlns:gpxtpx="http://www.garmin.com/xmlschemas/TrackPointExtension/v1" creator="GPSMAP 64sx" version="1.1" xmlns:xsi="http://www.w3.org/2001/XMLSchema-instance" xsi:schemaLocation="http://www.topografix.com/GPX/1/1 http://www.topografix.com/GPX/1/1/gpx.xsd http://www.garmin.com/xmlschemas/GpxExtensions/v3 http://www8.garmin.com/xmlschemas/GpxExtensionsv3.xsd http://www.garmin.com/xmlschemas/TrackStatsExtension/v1 http://www8.garmin.com/xmlschemas/TrackStatsExtension.xsd http://www.garmin.com/xmlschemas/WaypointExtension/v1 http://www8.garmin.com/xmlschemas/WaypointExtensionv1.xsd http://www.garmin.com/xmlschemas/TrackPointExtension/v1 http://www.garmin.com/xmlschemas/TrackPointExtensionv1.xsd"><metadata><link href="http://www.garmin.com"><text>Garmin International</text></link><time>2024-07-29T04:15:53Z</time></metadata><trk><name>LP24-07-29 00:15:41</name><extensions><gpxx:TrackExtension><gpxx:DisplayColor>Cyan</gpxx:DisplayColor></gpxx:TrackExtension><gpxtrkx:TrackStatsExtension><gpxtrkx:Distance>4132.000</gpxtrkx:Distance><gpxtrkx:TotalElapsedTime>778</gpxtrkx:TotalElapsedTime><gpxtrkx:MovingTime>701</gpxtrkx:MovingTime><gpxtrkx:StoppedTime>76</gpxtrkx:StoppedTime><gpxtrkx:MovingSpeed>5.896</gpxtrkx:MovingSpeed><gpxtrkx:MaxSpeed>13.138</gpxtrkx:MaxSpeed><gpxtrkx:MaxElevation>101.331</gpxtrkx:MaxElevation><gpxtrkx:MinElevation>81.307</gpxtrkx:MinElevation><gpxtrkx:Ascent>17.000</gpxtrkx:Ascent><gpxtrkx:Descent>20.050</gpxtrkx:Descent><gpxtrkx:AvgAscentRate>0.069</gpxtrkx:AvgAscentRate><gpxtrkx:MaxAscentRate>1.518</gpxtrkx:MaxAscentRate><gpxtrkx:AvgDescentRate>0.044</gpxtrkx:AvgDescentRate><gpxtrkx:MaxDescentRate>-0.409</gpxtrkx:MaxDescentRate></gpxtrkx:TrackStatsExtension></extensions><trkseg><trkpt lat="-39.4052562397" lon="-72.7020214219"><ele>100.22</ele><time>2024-07-29T04:02:55Z</time></trkpt><trkpt lat="-39.4052548986" lon="-72.7020201646"><ele>100.22</ele><time>2024-07-29T04:02:56Z</time></trkpt><trkpt lat="-39.4052500371" lon="-72.7020153031"><ele>93.77</ele><time>2024-07-29T04:02:59Z</time></trkpt><trkpt lat="-39.4052476063" lon="-72.7020150516"><ele>93.76</ele><time>2024-07-29T04:03:00Z</time></trkpt><trkpt lat="-39.4052822236" lon="-72.7020360902"><ele>93.73</ele><time>2024-07-29T04:03:29Z</time></trkpt><trkpt lat="-39.4054734148" lon="-72.7022865415"><ele>94.43</ele><time>2024-07-29T04:03:42Z</time></trkpt><trkpt lat="-39.4060538616" lon="-72.7031251509"><ele>94.84</ele><time>2024-07-29T04:03:53Z</time></trkpt><trkpt lat="-39.4069061335" lon="-72.7044063248"><ele>97.01</ele><time>2024-07-29T04:04:08Z</time></trkpt><trkpt lat="-39.4072500430" lon="-72.7055454254"><ele>96.00</ele><time>2024-07-29T04:04:19Z</time></trkpt><trkpt lat="-39.4073666353" lon="-72.7058836352"><ele>95.21</ele><time>2024-07-29T04:04:22Z</time></trkpt><trkpt lat="-39.4076377898" lon="-72.7064001281"><ele>94.55</ele><time>2024-07-29T04:04:30Z</time></trkpt><trkpt lat="-39.4076606724" lon="-72.7065407764"><ele>94.49</ele><time>2024-07-29T04:04:33Z</time></trkpt><trkpt lat="-39.4076645281" lon="-72.7065993659"><ele>94.58</ele><time>2024-07-29T04:04:34Z</time></trkpt><trkpt lat="-39.4076729938" lon="-72.7066602185"><ele>94.58</ele><time>2024-07-29T04:04:35Z</time></trkpt><trkpt lat="-39.4076844770" lon="-72.7067219093"><ele>94.53</ele><time>2024-07-29T04:04:36Z</time></trkpt><trkpt lat="-39.4076984748" lon="-72.7067822590"><ele>94.73</ele><time>2024-07-29T04:04:37Z</time></trkpt><trkpt lat="-39.4077196810" lon="-72.7068411838"><ele>94.80</ele><time>2024-07-29T04:04:38Z</time></trkpt><trkpt lat="-39.4077450782" lon="-72.7068991028"><ele>94.85</ele><time>2024-07-29T04:04:39Z</time></trkpt><trkpt lat="-39.4077756722" lon="-72.7069577761"><ele>94.80</ele><time>2024-07-29T04:04:40Z</time></trkpt><trkpt lat="-39.4078084454" lon="-72.7070146892"><ele>94.66</ele><time>2024-07-29T04:04:41Z</time></trkpt><trkpt lat="-39.4078370277" lon="-72.7070721891"><ele>94.90</ele><time>2024-07-29T04:04:42Z</time></trkpt><trkpt lat="-39.4078596588" lon="-72.7071335446"><ele>94.91</ele><time>2024-07-29T04:04:43Z</time></trkpt><trkpt lat="-39.4078765903" lon="-72.7072000131"><ele>94.78</ele><time>2024-07-29T04:04:44Z</time></trkpt><trkpt lat="-39.4078864809" lon="-72.7072689123"><ele>94.96</ele><time>2024-07-29T04:04:45Z</time></trkpt><trkpt lat="-39.4078908395" lon="-72.7073400747"><ele>94.76</ele><time>2024-07-29T04:04:46Z</time></trkpt><trkpt lat="-39.4078969583" lon="-72.7074092254"><ele>94.68</ele><time>2024-07-29T04:04:47Z</time></trkpt><trkpt lat="-39.4079107884" lon="-72.7074782923"><ele>94.68</ele><time>2024-07-29T04:04:48Z</time></trkpt><trkpt lat="-39.4079321623" lon="-72.7075458504"><ele>94.62</ele><time>2024-07-29T04:04:49Z</time></trkpt><trkpt lat="-39.4079605769" lon="-72.7076103073"><ele>94.56</ele><time>2024-07-29T04:04:50Z</time></trkpt><trkpt lat="-39.4079953618" lon="-72.7076666337"><ele>94.50</ele><time>2024-07-29T04:04:51Z</time></trkpt><trkpt lat="-39.4080366008" lon="-72.7077185176"><ele>94.45</ele><time>2024-07-29T04:04:52Z</time></trkpt><trkpt lat="-39.4080847129" lon="-72.7077621035"><ele>94.40</ele><time>2024-07-29T04:04:53Z</time></trkpt><trkpt lat="-39.4081386924" lon="-72.7077976428"><ele>94.48</ele><time>2024-07-29T04:04:54Z</time></trkpt><trkpt lat="-39.4081963599" lon="-72.7078222856"><ele>94.32</ele><time>2024-07-29T04:04:55Z</time></trkpt><trkpt lat="-39.4082560390" lon="-72.7078346070"><ele>94.23</ele><time>2024-07-29T04:04:56Z</time></trkpt><trkpt lat="-39.4083165564" lon="-72.7078414802"><ele>94.27</ele><time>2024-07-29T04:04:57Z</time></trkpt><trkpt lat="-39.4083784148" lon="-72.7078437433"><ele>94.23</ele><time>2024-07-29T04:04:58Z</time></trkpt><trkpt lat="-39.4084416982" lon="-72.7078469284"><ele>94.20</ele><time>2024-07-29T04:04:59Z</time></trkpt><trkpt lat="-39.4085065741" lon="-72.7078485209"><ele>94.33</ele><time>2024-07-29T04:05:00Z</time></trkpt><trkpt lat="-39.4087493140" lon="-72.7078884188"><ele>94.43</ele><time>2024-07-29T04:05:04Z</time></trkpt><trkpt lat="-39.4088040479" lon="-72.7079092897"><ele>94.37</ele><time>2024-07-29T04:05:05Z</time></trkpt><trkpt lat="-39.4088518247" lon="-72.7079340164"><ele>94.29</ele><time>2024-07-29T04:05:06Z</time></trkpt><trkpt lat="-39.4088948239" lon="-72.7079619281"><ele>94.29</ele><time>2024-07-29T04:05:07Z</time></trkpt><trkpt lat="-39.4089389127" lon="-72.7079945337"><ele>94.39</ele><time>2024-07-29T04:05:08Z</time></trkpt><trkpt lat="-39.4095005840" lon="-72.7085291315"><ele>93.46</ele><time>2024-07-29T04:05:21Z</time></trkpt><trkpt lat="-39.4095961377" lon="-72.7086675167"><ele>93.16</ele><time>2024-07-29T04:05:25Z</time></trkpt><trkpt lat="-39.4095934555" lon="-72.7087131981"><ele>93.29</ele><time>2024-07-29T04:05:26Z</time></trkpt><trkpt lat="-39.4095769431" lon="-72.7087552752"><ele>93.05</ele><time>2024-07-29T04:05:27Z</time></trkpt><trkpt lat="-39.4095529709" lon="-72.7087958436"><ele>92.80</ele><time>2024-07-29T04:05:28Z</time></trkpt><trkpt lat="-39.4095248915" lon="-72.7088385075"><ele>92.84</ele><time>2024-07-29T04:05:29Z</time></trkpt><trkpt lat="-39.4089773018" lon="-72.7096046973"><ele>92.18</ele><time>2024-07-29T04:05:44Z</time></trkpt><trkpt lat="-39.4088357314" lon="-72.7097463515"><ele>92.02</ele><time>2024-07-29T04:05:49Z</time></trkpt><trkpt lat="-39.4088068139" lon="-72.7097333595"><ele>92.21</ele><time>2024-07-29T04:05:50Z</time></trkpt><trkpt lat="-39.4087721966" lon="-72.7097095549"><ele>92.29</ele><time>2024-07-29T04:05:51Z</time></trkpt><trkpt lat="-39.4087358192" lon="-72.7096782904"><ele>92.28</ele><time>2024-07-29T04:05:52Z</time></trkpt><trkpt lat="-39.4086978491" lon="-72.7096435055"><ele>92.26</ele><time>2024-07-29T04:05:53Z</time></trkpt><trkpt lat="-39.4081338309" lon="-72.7090353146"><ele>92.76</ele><time>2024-07-29T04:06:06Z</time></trkpt><trkpt lat="-39.4078149833" lon="-72.7086985298"><ele>92.17</ele><time>2024-07-29T04:06:16Z</time></trkpt><trkpt lat="-39.4074700680" lon="-72.7082806081"><ele>91.83</ele><time>2024-07-29T04:06:31Z</time></trkpt><trkpt lat="-39.4072515517" lon="-72.7080509439"><ele>91.64</ele><time>2024-07-29T04:06:41Z</time></trkpt><trkpt lat="-39.4071638770" lon="-72.7081110422"><ele>91.55</ele><time>2024-07-29T04:06:45Z</time></trkpt><trkpt lat="-39.4071116578" lon="-72.7085329033"><ele>91.67</ele><time>2024-07-29T04:06:56Z</time></trkpt><trkpt lat="-39.4071855862" lon="-72.7092641406"><ele>91.81</ele><time>2024-07-29T04:07:13Z</time></trkpt><trkpt lat="-39.4073240552" lon="-72.7099225391"><ele>91.93</ele><time>2024-07-29T04:07:28Z</time></trkpt><trkpt lat="-39.4076807052" lon="-72.7103646845"><ele>92.39</ele><time>2024-07-29T04:07:42Z</time></trkpt><trkpt lat="-39.4079893269" lon="-72.7107127011"><ele>92.73</ele><time>2024-07-29T04:07:56Z</time></trkpt><trkpt lat="-39.4083859585" lon="-72.7111701854"><ele>92.96</ele><time>2024-07-29T04:08:09Z</time></trkpt><trkpt lat="-39.4085002877" lon="-72.7112862747"><ele>92.72</ele><time>2024-07-29T04:08:12Z</time></trkpt><trkpt lat="-39.4085395988" lon="-72.7113142703"><ele>92.70</ele><time>2024-07-29T04:08:13Z</time></trkpt><trkpt lat="-39.4086096715" lon="-72.7113688365"><ele>92.81</ele><time>2024-07-29T04:08:15Z</time></trkpt><trkpt lat="-39.4086437020" lon="-72.7114077285"><ele>93.11</ele><time>2024-07-29T04:08:16Z</time></trkpt><trkpt lat="-39.4089401700" lon="-72.7117598522"><ele>92.60</ele><time>2024-07-29T04:08:24Z</time></trkpt><trkpt lat="-39.4089726917" lon="-72.7117832378"><ele>92.60</ele><time>2024-07-29T04:08:25Z</time></trkpt><trkpt lat="-39.4090107456" lon="-72.7117886022"><ele>92.72</ele><time>2024-07-29T04:08:26Z</time></trkpt><trkpt lat="-39.4090483803" lon="-72.7117751073"><ele>92.59</ele><time>2024-07-29T04:08:27Z</time></trkpt><trkpt lat="-39.4090819918" lon="-72.7117467765"><ele>92.44</ele><time>2024-07-29T04:08:28Z</time></trkpt><trkpt lat="-39.4091143459" lon="-72.7117089741"><ele>92.71</ele><time>2024-07-29T04:08:29Z</time></trkpt><trkpt lat="-39.4091444369" lon="-72.7116684057"><ele>92.79</ele><time>2024-07-29T04:08:30Z</time></trkpt><trkpt lat="-39.4091732707" lon="-72.7116239816"><ele>92.85</ele><time>2024-07-29T04:08:31Z</time></trkpt><trkpt lat="-39.4092025235" lon="-72.7115759533"><ele>92.91</ele><time>2024-07-29T04:08:32Z</time></trkpt><trkpt lat="-39.4096410647" lon="-72.7108762320"><ele>93.05</ele><time>2024-07-29T04:08:45Z</time></trkpt><trkpt lat="-39.4100061804" lon="-72.7103172429"><ele>92.76</ele><time>2024-07-29T04:08:55Z</time></trkpt><trkpt lat="-39.4104158040" lon="-72.7096703276"><ele>91.83</ele><time>2024-07-29T04:09:04Z</time></trkpt><trkpt lat="-39.4104461465" lon="-72.7096437570"><ele>91.95</ele><time>2024-07-29T04:09:05Z</time></trkpt><trkpt lat="-39.4104774110" lon="-72.7096300106"><ele>91.87</ele><time>2024-07-29T04:09:06Z</time></trkpt><trkpt lat="-39.4105142076" lon="-72.7096300106"><ele>92.12</ele><time>2024-07-29T04:09:07Z</time></trkpt><trkpt lat="-39.4105556980" lon="-72.7096542343"><ele>92.09</ele><time>2024-07-29T04:09:08Z</time></trkpt><trkpt lat="-39.4105996192" lon="-72.7096974850"><ele>92.10</ele><time>2024-07-29T04:09:09Z</time></trkpt><trkpt lat="-39.4106478151" lon="-72.7097528894"><ele>92.13</ele><time>2024-07-29T04:09:10Z</time></trkpt><trkpt lat="-39.4112236518" lon="-72.7104410436"><ele>91.59</ele><time>2024-07-29T04:09:21Z</time></trkpt><trkpt lat="-39.4112410024" lon="-72.7104925085"><ele>91.63</ele><time>2024-07-29T04:09:22Z</time></trkpt><trkpt lat="-39.4112399127" lon="-72.7105476614"><ele>91.57</ele><time>2024-07-29T04:09:23Z</time></trkpt><trkpt lat="-39.4112213049" lon="-72.7106012218"><ele>91.61</ele><time>2024-07-29T04:09:24Z</time></trkpt><trkpt lat="-39.4111891184" lon="-72.7106578834"><ele>91.37</ele><time>2024-07-29T04:09:25Z</time></trkpt><trkpt lat="-39.4111483824" lon="-72.7107171435"><ele>91.05</ele><time>2024-07-29T04:09:26Z</time></trkpt><trkpt lat="-39.4111071434" lon="-72.7107781637"><ele>91.20</ele><time>2024-07-29T04:09:27Z</time></trkpt><trkpt lat="-39.4104073383" lon="-72.7118064556"><ele>92.48</ele><time>2024-07-29T04:09:43Z</time></trkpt><trkpt lat="-39.4098962098" lon="-72.7125765849"><ele>92.39</ele><time>2024-07-29T04:09:55Z</time></trkpt><trkpt lat="-39.4098718185" lon="-72.7126224339"><ele>92.49</ele><time>2024-07-29T04:09:56Z</time></trkpt><trkpt lat="-39.4098562282" lon="-72.7126613259"><ele>92.49</ele><time>2024-07-29T04:09:57Z</time></trkpt><trkpt lat="-39.4098525401" lon="-72.7127019782"><ele>92.19</ele><time>2024-07-29T04:09:58Z</time></trkpt><trkpt lat="-39.4098601677" lon="-72.7127441391"><ele>92.07</ele><time>2024-07-29T04:09:59Z</time></trkpt><trkpt lat="-39.4098786917" lon="-72.7127842885"><ele>92.56</ele><time>2024-07-29T04:10:00Z</time></trkpt><trkpt lat="-39.4099105429" lon="-72.7128302213"><ele>92.45</ele><time>2024-07-29T04:10:01Z</time></trkpt><trkpt lat="-39.4099475071" lon="-72.7128771599"><ele>92.29</ele><time>2024-07-29T04:10:02Z</time></trkpt><trkpt lat="-39.4105558656" lon="-72.7135594469"><ele>91.32</ele><time>2024-07-29T04:10:15Z</time></trkpt><trkpt lat="-39.4106048159" lon="-72.7135799825"><ele>91.28</ele><time>2024-07-29T04:10:16Z</time></trkpt><trkpt lat="-39.4106542692" lon="-72.7135704271"><ele>91.28</ele><time>2024-07-29T04:10:17Z</time></trkpt><trkpt lat="-39.4106996153" lon="-72.7135391627"><ele>91.24</ele><time>2024-07-29T04:10:18Z</time></trkpt><trkpt lat="-39.4107421115" lon="-72.7134909667"><ele>91.11</ele><time>2024-07-29T04:10:19Z</time></trkpt><trkpt lat="-39.4107874576" lon="-72.7134334669"><ele>91.16</ele><time>2024-07-29T04:10:20Z</time></trkpt><trkpt lat="-39.4113977440" lon="-72.7125198394"><ele>90.71</ele><time>2024-07-29T04:10:34Z</time></trkpt><trkpt lat="-39.4119951222" lon="-72.7116537374"><ele>91.12</ele><time>2024-07-29T04:10:48Z</time></trkpt><trkpt lat="-39.4121873192" lon="-72.7115351334"><ele>91.30</ele><time>2024-07-29T04:10:54Z</time></trkpt><trkpt lat="-39.4122322462" lon="-72.7115787193"><ele>91.43</ele><time>2024-07-29T04:10:55Z</time></trkpt><trkpt lat="-39.4128251821" lon="-72.7122636884"><ele>90.92</ele><time>2024-07-29T04:11:06Z</time></trkpt><trkpt lat="-39.4128566980" lon="-72.7123110462"><ele>90.59</ele><time>2024-07-29T04:11:07Z</time></trkpt><trkpt lat="-39.4128770661" lon="-72.7123577334"><ele>90.67</ele><time>2024-07-29T04:11:08Z</time></trkpt><trkpt lat="-39.4128798321" lon="-72.7124031633"><ele>90.61</ele><time>2024-07-29T04:11:09Z</time></trkpt><trkpt lat="-39.4128669240" lon="-72.7124459110"><ele>90.70</ele><time>2024-07-29T04:11:10Z</time></trkpt><trkpt lat="-39.4128427841" lon="-72.7124901675"><ele>90.26</ele><time>2024-07-29T04:11:11Z</time></trkpt><trkpt lat="-39.4128090050" lon="-72.7125387825"><ele>90.24</ele><time>2024-07-29T04:11:12Z</time></trkpt><trkpt lat="-39.4127670117" lon="-72.7125981264"><ele>90.24</ele><time>2024-07-29T04:11:13Z</time></trkpt><trkpt lat="-39.4122597389" lon="-72.7133652382"><ele>90.28</ele><time>2024-07-29T04:11:26Z</time></trkpt><trkpt lat="-39.4122503512" lon="-72.7133414336"><ele>91.59</ele><time>2024-07-29T04:11:32Z</time></trkpt><trkpt lat="-39.4122490101" lon="-72.7133243345"><ele>84.31</ele><time>2024-07-29T04:11:51Z</time></trkpt><trkpt lat="-39.4122494292" lon="-72.7133242507"><ele>81.30</ele><time>2024-07-29T04:11:52Z</time></trkpt><trkpt lat="-39.4122495968" lon="-72.7133245021"><ele>88.24</ele><time>2024-07-29T04:11:53Z</time></trkpt><trkpt lat="-39.4122483395" lon="-72.7133270167"><ele>88.06</ele><time>2024-07-29T04:11:54Z</time></trkpt><trkpt lat="-39.4122483395" lon="-72.7133270167"><ele>101.32</ele><time>2024-07-29T04:11:55Z</time></trkpt><trkpt lat="-39.4122059271" lon="-72.7133608796"><ele>96.77</ele><time>2024-07-29T04:11:56Z</time></trkpt><trkpt lat="-39.4121838827" lon="-72.7133690938"><ele>92.72</ele><time>2024-07-29T04:11:57Z</time></trkpt><trkpt lat="-39.4121563062" lon="-72.7133683395"><ele>91.21</ele><time>2024-07-29T04:11:58Z</time></trkpt><trkpt lat="-39.4121246226" lon="-72.7133602090"><ele>90.69</ele><time>2024-07-29T04:11:59Z</time></trkpt><trkpt lat="-39.4120919332" lon="-72.7133426908"><ele>91.16</ele><time>2024-07-29T04:12:00Z</time></trkpt><trkpt lat="-39.4120561425" lon="-72.7133157011"><ele>90.99</ele><time>2024-07-29T04:12:01Z</time></trkpt><trkpt lat="-39.4120217767" lon="-72.7132821735"><ele>90.97</ele><time>2024-07-29T04:12:02Z</time></trkpt><trkpt lat="-39.4119879138" lon="-72.7132480592"><ele>90.84</ele><time>2024-07-29T04:12:03Z</time></trkpt><trkpt lat="-39.4114857540" lon="-72.7126645111"><ele>90.75</ele><time>2024-07-29T04:12:18Z</time></trkpt><trkpt lat="-39.4111424312" lon="-72.7123004012"><ele>90.95</ele><time>2024-07-29T04:12:28Z</time></trkpt><trkpt lat="-39.4105713721" lon="-72.7116642147"><ele>91.84</ele><time>2024-07-29T04:12:41Z</time></trkpt><trkpt lat="-39.4102500938" lon="-72.7113073971"><ele>92.91</ele><time>2024-07-29T04:12:52Z</time></trkpt><trkpt lat="-39.4097588304" lon="-72.7107605617"><ele>93.26</ele><time>2024-07-29T04:13:05Z</time></trkpt><trkpt lat="-39.4092730153" lon="-72.7102462482"><ele>92.79</ele><time>2024-07-29T04:13:18Z</time></trkpt><trkpt lat="-39.4088975061" lon="-72.7097927034"><ele>92.11</ele><time>2024-07-29T04:13:27Z</time></trkpt><trkpt lat="-39.4088956621" lon="-72.7097519673"><ele>91.89</ele><time>2024-07-29T04:13:28Z</time></trkpt><trkpt lat="-39.4089057203" lon="-72.7097144164"><ele>92.02</ele><time>2024-07-29T04:13:29Z</time></trkpt><trkpt lat="-39.4089265913" lon="-72.7096763626"><ele>92.27</ele><time>2024-07-29T04:13:30Z</time></trkpt><trkpt lat="-39.4089562632" lon="-72.7096321061"><ele>92.26</ele><time>2024-07-29T04:13:31Z</time></trkpt><trkpt lat="-39.4094398990" lon="-72.7089247573"><ele>92.88</ele><time>2024-07-29T04:13:43Z</time></trkpt><trkpt lat="-39.4096038491" lon="-72.7086595539"><ele>92.99</ele><time>2024-07-29T04:13:49Z</time></trkpt><trkpt lat="-39.4096030109" lon="-72.7086231764"><ele>93.18</ele><time>2024-07-29T04:13:50Z</time></trkpt><trkpt lat="-39.4095874205" lon="-72.7085816860"><ele>93.32</ele><time>2024-07-29T04:13:51Z</time></trkpt><trkpt lat="-39.4095594250" lon="-72.7085388545"><ele>93.21</ele><time>2024-07-29T04:13:52Z</time></trkpt><trkpt lat="-39.4095226284" lon="-72.7084932569"><ele>93.43</ele><time>2024-07-29T04:13:53Z</time></trkpt><trkpt lat="-39.4094792102" lon="-72.7084458154"><ele>93.49</ele><time>2024-07-29T04:13:54Z</time></trkpt><trkpt lat="-39.4088332169" lon="-72.7078477666"><ele>95.29</ele><time>2024-07-29T04:14:04Z</time></trkpt><trkpt lat="-39.4087452907" lon="-72.7078077849"><ele>95.39</ele><time>2024-07-29T04:14:05Z</time></trkpt><trkpt lat="-39.4086502399" lon="-72.7077828906"><ele>95.22</ele><time>2024-07-29T04:14:06Z</time></trkpt><trkpt lat="-39.4081664365" lon="-72.7077045199"><ele>94.57</ele><time>2024-07-29T04:14:11Z</time></trkpt><trkpt lat="-39.4080889877" lon="-72.7076598443"><ele>94.54</ele><time>2024-07-29T04:14:12Z</time></trkpt><trkpt lat="-39.4080220163" lon="-72.7075980697"><ele>94.35</ele><time>2024-07-29T04:14:13Z</time></trkpt><trkpt lat="-39.4079735689" lon="-72.7075207047"><ele>94.37</ele><time>2024-07-29T04:14:14Z</time></trkpt><trkpt lat="-39.4079394545" lon="-72.7074337844"><ele>94.57</ele><time>2024-07-29T04:14:15Z</time></trkpt><trkpt lat="-39.4079203438" lon="-72.7073445171"><ele>94.55</ele><time>2024-07-29T04:14:16Z</time></trkpt><trkpt lat="-39.4079180807" lon="-72.7072657272"><ele>94.42</ele><time>2024-07-29T04:14:17Z</time></trkpt><trkpt lat="-39.4079442322" lon="-72.7072107419"><ele>94.42</ele><time>2024-07-29T04:14:18Z</time></trkpt><trkpt lat="-39.4079771731" lon="-72.7071707603"><ele>94.59</ele><time>2024-07-29T04:14:19Z</time></trkpt><trkpt lat="-39.4080264587" lon="-72.7071455307"><ele>94.62</ele><time>2024-07-29T04:14:20Z</time></trkpt><trkpt lat="-39.4080875628" lon="-72.7071275935"><ele>94.58</ele><time>2024-07-29T04:14:21Z</time></trkpt><trkpt lat="-39.4081557076" lon="-72.7071177866"><ele>94.81</ele><time>2024-07-29T04:14:22Z</time></trkpt><trkpt lat="-39.4082303904" lon="-72.7071072254"><ele>94.76</ele><time>2024-07-29T04:14:23Z</time></trkpt><trkpt lat="-39.4083079230" lon="-72.7070872765"><ele>94.83</ele><time>2024-07-29T04:14:24Z</time></trkpt><trkpt lat="-39.4083829410" lon="-72.7070591971"><ele>94.83</ele><time>2024-07-29T04:14:25Z</time></trkpt><trkpt lat="-39.4084561989" lon="-72.7070218138"><ele>95.05</ele><time>2024-07-29T04:14:26Z</time></trkpt><trkpt lat="-39.4085268583" lon="-72.7069805749"><ele>95.07</ele><time>2024-07-29T04:14:27Z</time></trkpt><trkpt lat="-39.4085789099" lon="-72.7069151122"><ele>95.28</ele><time>2024-07-29T04:14:28Z</time></trkpt><trkpt lat="-39.4086174667" lon="-72.7068281919"><ele>95.28</ele><time>2024-07-29T04:14:29Z</time></trkpt><trkpt lat="-39.4086495694" lon="-72.7067183889"><ele>95.03</ele><time>2024-07-29T04:14:30Z</time></trkpt><trkpt lat="-39.4086556882" lon="-72.7065997850"><ele>95.17</ele><time>2024-07-29T04:14:31Z</time></trkpt><trkpt lat="-39.4086520839" lon="-72.7064862102"><ele>95.28</ele><time>2024-07-29T04:14:32Z</time></trkpt><trkpt lat="-39.4086274412" lon="-72.7063738927"><ele>95.40</ele><time>2024-07-29T04:14:33Z</time></trkpt><trkpt lat="-39.4085932430" lon="-72.7062647603"><ele>95.43</ele><time>2024-07-29T04:14:34Z</time></trkpt><trkpt lat="-39.4085504115" lon="-72.7061547898"><ele>95.35</ele><time>2024-07-29T04:14:35Z</time></trkpt><trkpt lat="-39.4084999524" lon="-72.7060524467"><ele>95.31</ele><time>2024-07-29T04:14:36Z</time></trkpt><trkpt lat="-39.4084446318" lon="-72.7059568092"><ele>95.35</ele><time>2024-07-29T04:14:37Z</time></trkpt><trkpt lat="-39.4076998159" lon="-72.7050062176"><ele>98.52</ele><time>2024-07-29T04:14:47Z</time></trkpt><trkpt lat="-39.4074486103" lon="-72.7046846040"><ele>100.12</ele><time>2024-07-29T04:14:50Z</time></trkpt><trkpt lat="-39.4067841768" lon="-72.7036998980"><ele>97.04</ele><time>2024-07-29T04:14:59Z</time></trkpt><trkpt lat="-39.4065449573" lon="-72.7033171803"><ele>94.96</ele><time>2024-07-29T04:15:03Z</time></trkpt><trkpt lat="-39.4064496551" lon="-72.7031332813"><ele>93.64</ele><time>2024-07-29T04:15:09Z</time></trkpt><trkpt lat="-39.4064595457" lon="-72.7031776216"><ele>93.33</ele><time>2024-07-29T04:15:44Z</time></trkpt></trkseg></trk></gpx>