<?xml version="1.0" encoding="UTF-8" standalone="no" ?><gpx xmlns="http://www.topografix.com/GPX/1/1" xmlns:gpxx="http://www.garmin.com/xmlschemas/GpxExtensions/v3" xmlns:gpxtrkx="http://www.garmin.com/xmlschemas/TrackStatsExtension/v1" xmlns:wptx1="http://www.garmin.com/xmlschemas/WaypointExtension/v1" xmlns:gpxtpx="http://www.garmin.com/xmlschemas/TrackPointExtension/v1" creator="GPSMAP 64sx" version="1.1" xmlns:xsi="http://www.w3.org/2001/XMLSchema-instance" xsi:schemaLocation="http://www.topografix.com/GPX/1/1 http://www.topografix.com/GPX/1/1/gpx.xsd http://www.garmin.com/xmlschemas/GpxExtensions/v3 http://www8.garmin.com/xmlschemas/GpxExtensionsv3.xsd http://www.garmin.com/xmlschemas/TrackStatsExtension/v1 http://www8.garmin.com/xmlschemas/TrackStatsExtension.xsd http://www.garmin.com/xmlschemas/WaypointExtension/v1 http://www8.garmin.com/xmlschemas/WaypointExtensionv1.xsd http://www.garmin.com/xmlschemas/TrackPointExtension/v1 http://www.garmin.com/xmlschemas/TrackPointExtensionv1.xsd"><metadata><link href="http://www.garmin.com"><text>Garmin International</text></link><time>2024-09-14T00:25:21Z</time></metadata><trk><name>GPS HUIS 240913</name><extensions><gpxx:TrackExtension><gpxx:DisplayColor>Cyan</gpxx:DisplayColor></gpxx:TrackExtension><gpxtrkx:TrackStatsExtension><gpxtrkx:Distance>12873.000</gpxtrkx:Distance><gpxtrkx:TotalElapsedTime>1688</gpxtrkx:TotalElapsedTime><gpxtrkx:MovingTime>1635</gpxtrkx:MovingTime><gpxtrkx:StoppedTime>52</gpxtrkx:StoppedTime><gpxtrkx:MovingSpeed>7.874</gpxtrkx:MovingSpeed><gpxtrkx:MaxSpeed>16.539</gpxtrkx:MaxSpeed><gpxtrkx:MaxElevation>281.642</gpxtrkx:MaxElevation><gpxtrkx:MinElevation>226.133</gpxtrkx:MinElevation><gpxtrkx:Ascent>136.000</gpxtrkx:Ascent><gpxtrkx:Descent>140.146</gpxtrkx:Descent><gpxtrkx:AvgAscentRate>0.117</gpxtrkx:AvgAscentRate><gpxtrkx:MaxAscentRate>0.826</gpxtrkx:MaxAscentRate><gpxtrkx:AvgDescentRate>0.128</gpxtrkx:AvgDescentRate><gpxtrkx:MaxDescentRate>-1.228</gpxtrkx:MaxDescentRate></gpxtrkx:TrackStatsExtension></extensions><trkseg><trkpt lat="-39.2731582001" lon="-72.4093920831"><ele>261.27</ele><time>2024-09-13T23:57:13Z</time></trkpt><trkpt lat="-39.2731596250" lon="-72.4093930889"><ele>261.27</ele><time>2024-09-13T23:57:14Z</time></trkpt><trkpt lat="-39.2731582839" lon="-72.4093959387"><ele>259.39</ele><time>2024-09-13T23:57:18Z</time></trkpt><trkpt lat="-39.2732402589" lon="-72.4093728047"><ele>259.82</ele><time>2024-09-13T23:57:32Z</time></trkpt><trkpt lat="-39.2737228051" lon="-72.4095028918"><ele>260.28</ele><time>2024-09-13T23:57:39Z</time></trkpt><trkpt lat="-39.2749315593" lon="-72.4099022057"><ele>260.98</ele><time>2024-09-13T23:57:49Z</time></trkpt><trkpt lat="-39.2766145617" lon="-72.4101969134"><ele>261.95</ele><time>2024-09-13T23:58:02Z</time></trkpt><trkpt lat="-39.2780042812" lon="-72.4097057339"><ele>260.82</ele><time>2024-09-13T23:58:13Z</time></trkpt><trkpt lat="-39.2786413059" lon="-72.4097969290"><ele>257.32</ele><time>2024-09-13T23:58:18Z</time></trkpt><trkpt lat="-39.2787655257" lon="-72.4098554347"><ele>256.70</ele><time>2024-09-13T23:58:19Z</time></trkpt><trkpt lat="-39.2790054996" lon="-72.4100162834"><ele>254.60</ele><time>2024-09-13T23:58:21Z</time></trkpt><trkpt lat="-39.2791173141" lon="-72.4101218954"><ele>253.24</ele><time>2024-09-13T23:58:22Z</time></trkpt><trkpt lat="-39.2794276122" lon="-72.4104899447"><ele>248.82</ele><time>2024-09-13T23:58:25Z</time></trkpt><trkpt lat="-39.2797216494" lon="-72.4109108839"><ele>244.99</ele><time>2024-09-13T23:58:28Z</time></trkpt><trkpt lat="-39.2800205480" lon="-72.4113056716"><ele>241.20</ele><time>2024-09-13T23:58:31Z</time></trkpt><trkpt lat="-39.2803612724" lon="-72.4116396066"><ele>237.46</ele><time>2024-09-13T23:58:34Z</time></trkpt><trkpt lat="-39.2804929521" lon="-72.4117231742"><ele>236.27</ele><time>2024-09-13T23:58:35Z</time></trkpt><trkpt lat="-39.2806258891" lon="-72.4117914867"><ele>235.04</ele><time>2024-09-13T23:58:36Z</time></trkpt><trkpt lat="-39.2807677947" lon="-72.4118489865"><ele>233.96</ele><time>2024-09-13T23:58:37Z</time></trkpt><trkpt lat="-39.2809064314" lon="-72.4119032174"><ele>232.85</ele><time>2024-09-13T23:58:38Z</time></trkpt><trkpt lat="-39.2814121116" lon="-72.4120665807"><ele>229.66</ele><time>2024-09-13T23:58:42Z</time></trkpt><trkpt lat="-39.2821871024" lon="-72.4123344664"><ele>228.14</ele><time>2024-09-13T23:58:51Z</time></trkpt><trkpt lat="-39.2836960126" lon="-72.4128201976"><ele>227.32</ele><time>2024-09-13T23:59:10Z</time></trkpt><trkpt lat="-39.2849148251" lon="-72.4132379517"><ele>230.42</ele><time>2024-09-13T23:59:25Z</time></trkpt><trkpt lat="-39.2872443236" lon="-72.4140169658"><ele>232.32</ele><time>2024-09-13T23:59:53Z</time></trkpt><trkpt lat="-39.2883457057" lon="-72.4143483862"><ele>228.96</ele><time>2024-09-14T00:00:06Z</time></trkpt><trkpt lat="-39.2884316202" lon="-72.4143602047"><ele>228.94</ele><time>2024-09-14T00:00:07Z</time></trkpt><trkpt lat="-39.2894431483" lon="-72.4142447859"><ele>227.97</ele><time>2024-09-14T00:00:19Z</time></trkpt><trkpt lat="-39.2904328834" lon="-72.4136507604"><ele>226.22</ele><time>2024-09-14T00:00:32Z</time></trkpt><trkpt lat="-39.2911801301" lon="-72.4126522243"><ele>228.26</ele><time>2024-09-14T00:00:45Z</time></trkpt><trkpt lat="-39.2915186752" lon="-72.4117712025"><ele>231.27</ele><time>2024-09-14T00:00:54Z</time></trkpt><trkpt lat="-39.2918669432" lon="-72.4107602611"><ele>234.37</ele><time>2024-09-14T00:01:04Z</time></trkpt><trkpt lat="-39.2922391836" lon="-72.4097192287"><ele>237.58</ele><time>2024-09-14T00:01:15Z</time></trkpt><trkpt lat="-39.2922961805" lon="-72.4095645826"><ele>237.76</ele><time>2024-09-14T00:01:17Z</time></trkpt><trkpt lat="-39.2923177220" lon="-72.4094986171"><ele>237.73</ele><time>2024-09-14T00:01:18Z</time></trkpt><trkpt lat="-39.2923313007" lon="-72.4094405305"><ele>237.90</ele><time>2024-09-14T00:01:19Z</time></trkpt><trkpt lat="-39.2923414428" lon="-72.4093885627"><ele>237.95</ele><time>2024-09-14T00:01:20Z</time></trkpt><trkpt lat="-39.2923423648" lon="-72.4093435518"><ele>238.11</ele><time>2024-09-14T00:01:21Z</time></trkpt><trkpt lat="-39.2923361622" lon="-72.4093096890"><ele>238.16</ele><time>2024-09-14T00:01:22Z</time></trkpt><trkpt lat="-39.2923280317" lon="-72.4092827830"><ele>238.01</ele><time>2024-09-14T00:01:23Z</time></trkpt><trkpt lat="-39.2923164647" lon="-72.4092554580"><ele>237.95</ele><time>2024-09-14T00:01:24Z</time></trkpt><trkpt lat="-39.2922965158" lon="-72.4092293903"><ele>238.09</ele><time>2024-09-14T00:01:25Z</time></trkpt><trkpt lat="-39.2922186479" lon="-72.4091740698"><ele>237.88</ele><time>2024-09-14T00:01:27Z</time></trkpt><trkpt lat="-39.2912526336" lon="-72.4086548109"><ele>234.55</ele><time>2024-09-14T00:01:40Z</time></trkpt><trkpt lat="-39.2911264021" lon="-72.4085844029"><ele>234.41</ele><time>2024-09-14T00:01:42Z</time></trkpt><trkpt lat="-39.2910074629" lon="-72.4083065428"><ele>234.42</ele><time>2024-09-14T00:01:47Z</time></trkpt><trkpt lat="-39.2911995761" lon="-72.4077347293"><ele>234.92</ele><time>2024-09-14T00:01:54Z</time></trkpt><trkpt lat="-39.2914574035" lon="-72.4076804984"><ele>235.35</ele><time>2024-09-14T00:02:00Z</time></trkpt><trkpt lat="-39.2915875744" lon="-72.4077846017"><ele>235.69</ele><time>2024-09-14T00:02:03Z</time></trkpt><trkpt lat="-39.2923349887" lon="-72.4083518051"><ele>238.42</ele><time>2024-09-14T00:02:16Z</time></trkpt><trkpt lat="-39.2925804947" lon="-72.4085434154"><ele>239.81</ele><time>2024-09-14T00:02:24Z</time></trkpt><trkpt lat="-39.2925985157" lon="-72.4086201098"><ele>239.66</ele><time>2024-09-14T00:02:27Z</time></trkpt><trkpt lat="-39.2925908044" lon="-72.4086617678"><ele>239.69</ele><time>2024-09-14T00:02:28Z</time></trkpt><trkpt lat="-39.2925764713" lon="-72.4087099638"><ele>239.69</ele><time>2024-09-14T00:02:29Z</time></trkpt><trkpt lat="-39.2924196459" lon="-72.4091887381"><ele>238.95</ele><time>2024-09-14T00:02:35Z</time></trkpt><trkpt lat="-39.2924119346" lon="-72.4092522729"><ele>238.69</ele><time>2024-09-14T00:02:36Z</time></trkpt><trkpt lat="-39.2924125213" lon="-72.4092970323"><ele>238.41</ele><time>2024-09-14T00:02:37Z</time></trkpt><trkpt lat="-39.2924206518" lon="-72.4093296379"><ele>238.22</ele><time>2024-09-14T00:02:38Z</time></trkpt><trkpt lat="-39.2924361583" lon="-72.4093588907"><ele>238.14</ele><time>2024-09-14T00:02:39Z</time></trkpt><trkpt lat="-39.2924606334" lon="-72.4093875568"><ele>237.86</ele><time>2024-09-14T00:02:40Z</time></trkpt><trkpt lat="-39.2924981005" lon="-72.4094189052"><ele>238.13</ele><time>2024-09-14T00:02:41Z</time></trkpt><trkpt lat="-39.2925498169" lon="-72.4094546121"><ele>238.23</ele><time>2024-09-14T00:02:42Z</time></trkpt><trkpt lat="-39.2926171236" lon="-72.4094951805"><ele>238.45</ele><time>2024-09-14T00:02:43Z</time></trkpt><trkpt lat="-39.2933033500" lon="-72.4098694324"><ele>241.58</ele><time>2024-09-14T00:02:52Z</time></trkpt><trkpt lat="-39.2937573139" lon="-72.4101249967"><ele>245.24</ele><time>2024-09-14T00:02:58Z</time></trkpt><trkpt lat="-39.2939360160" lon="-72.4102297705"><ele>248.19</ele><time>2024-09-14T00:03:01Z</time></trkpt><trkpt lat="-39.2939841282" lon="-72.4102394935"><ele>248.76</ele><time>2024-09-14T00:03:02Z</time></trkpt><trkpt lat="-39.2940364312" lon="-72.4102249090"><ele>249.20</ele><time>2024-09-14T00:03:03Z</time></trkpt><trkpt lat="-39.2940908298" lon="-72.4101877771"><ele>249.79</ele><time>2024-09-14T00:03:04Z</time></trkpt><trkpt lat="-39.2941482458" lon="-72.4101404194"><ele>250.18</ele><time>2024-09-14T00:03:05Z</time></trkpt><trkpt lat="-39.2943996191" lon="-72.4099270161"><ele>251.82</ele><time>2024-09-14T00:03:10Z</time></trkpt><trkpt lat="-39.2944207415" lon="-72.4098746292"><ele>252.18</ele><time>2024-09-14T00:03:11Z</time></trkpt><trkpt lat="-39.2944245134" lon="-72.4098196439"><ele>252.28</ele><time>2024-09-14T00:03:12Z</time></trkpt><trkpt lat="-39.2944048997" lon="-72.4097579531"><ele>252.41</ele><time>2024-09-14T00:03:13Z</time></trkpt><trkpt lat="-39.2943683546" lon="-72.4096833542"><ele>252.19</ele><time>2024-09-14T00:03:14Z</time></trkpt><trkpt lat="-39.2943240143" lon="-72.4096031394"><ele>251.92</ele><time>2024-09-14T00:03:15Z</time></trkpt><trkpt lat="-39.2940545361" lon="-72.4091215152"><ele>248.62</ele><time>2024-09-14T00:03:21Z</time></trkpt><trkpt lat="-39.2938737385" lon="-72.4087727442"><ele>245.33</ele><time>2024-09-14T00:03:27Z</time></trkpt><trkpt lat="-39.2934078723" lon="-72.4083885178"><ele>245.12</ele><time>2024-09-14T00:03:36Z</time></trkpt><trkpt lat="-39.2929207999" lon="-72.4080807343"><ele>242.01</ele><time>2024-09-14T00:03:44Z</time></trkpt><trkpt lat="-39.2929060478" lon="-72.4080668204"><ele>241.72</ele><time>2024-09-14T00:03:45Z</time></trkpt><trkpt lat="-39.2928834166" lon="-72.4080125894"><ele>241.23</ele><time>2024-09-14T00:03:48Z</time></trkpt><trkpt lat="-39.2928798962" lon="-72.4079802353"><ele>241.19</ele><time>2024-09-14T00:03:49Z</time></trkpt><trkpt lat="-39.2928809859" lon="-72.4079337157"><ele>241.34</ele><time>2024-09-14T00:03:50Z</time></trkpt><trkpt lat="-39.2928914633" lon="-72.4078809936"><ele>241.53</ele><time>2024-09-14T00:03:51Z</time></trkpt><trkpt lat="-39.2929094844" lon="-72.4078240804"><ele>241.73</ele><time>2024-09-14T00:03:52Z</time></trkpt><trkpt lat="-39.2929320317" lon="-72.4077581987"><ele>241.98</ele><time>2024-09-14T00:03:53Z</time></trkpt><trkpt lat="-39.2931953911" lon="-72.4070183281"><ele>245.27</ele><time>2024-09-14T00:04:00Z</time></trkpt><trkpt lat="-39.2934385501" lon="-72.4063664675"><ele>248.13</ele><time>2024-09-14T00:04:07Z</time></trkpt><trkpt lat="-39.2934569903" lon="-72.4063326046"><ele>248.31</ele><time>2024-09-14T00:04:08Z</time></trkpt><trkpt lat="-39.2934706528" lon="-72.4063124880"><ele>248.39</ele><time>2024-09-14T00:04:09Z</time></trkpt><trkpt lat="-39.2934843153" lon="-72.4062969815"><ele>248.43</ele><time>2024-09-14T00:04:10Z</time></trkpt><trkpt lat="-39.2934997380" lon="-72.4062840734"><ele>248.47</ele><time>2024-09-14T00:04:11Z</time></trkpt><trkpt lat="-39.2935217824" lon="-72.4062772002"><ele>248.69</ele><time>2024-09-14T00:04:12Z</time></trkpt><trkpt lat="-39.2935499456" lon="-72.4062766135"><ele>249.14</ele><time>2024-09-14T00:04:13Z</time></trkpt><trkpt lat="-39.2935821321" lon="-72.4062845763"><ele>249.60</ele><time>2024-09-14T00:04:14Z</time></trkpt><trkpt lat="-39.2936180066" lon="-72.4063010048"><ele>250.09</ele><time>2024-09-14T00:04:15Z</time></trkpt><trkpt lat="-39.2936590780" lon="-72.4063248932"><ele>250.60</ele><time>2024-09-14T00:04:16Z</time></trkpt><trkpt lat="-39.2942371778" lon="-72.4067045096"><ele>253.09</ele><time>2024-09-14T00:04:26Z</time></trkpt><trkpt lat="-39.2944508325" lon="-72.4068658613"><ele>251.80</ele><time>2024-09-14T00:04:31Z</time></trkpt><trkpt lat="-39.2944601364" lon="-72.4069223553"><ele>251.72</ele><time>2024-09-14T00:04:32Z</time></trkpt><trkpt lat="-39.2944531795" lon="-72.4069936853"><ele>251.72</ele><time>2024-09-14T00:04:33Z</time></trkpt><trkpt lat="-39.2944302969" lon="-72.4070759118"><ele>251.53</ele><time>2024-09-14T00:04:34Z</time></trkpt><trkpt lat="-39.2943965178" lon="-72.4071671069"><ele>251.29</ele><time>2024-09-14T00:04:35Z</time></trkpt><trkpt lat="-39.2943553627" lon="-72.4072709586"><ele>251.00</ele><time>2024-09-14T00:04:36Z</time></trkpt><trkpt lat="-39.2940607388" lon="-72.4080541637"><ele>247.94</ele><time>2024-09-14T00:04:43Z</time></trkpt><trkpt lat="-39.2939854693" lon="-72.4082543235"><ele>246.97</ele><time>2024-09-14T00:04:45Z</time></trkpt><trkpt lat="-39.2938836291" lon="-72.4085015897"><ele>245.69</ele><time>2024-09-14T00:04:48Z</time></trkpt><trkpt lat="-39.2938529514" lon="-72.4086527992"><ele>244.84</ele><time>2024-09-14T00:04:51Z</time></trkpt><trkpt lat="-39.2938708887" lon="-72.4086797889"><ele>244.69</ele><time>2024-09-14T00:04:52Z</time></trkpt><trkpt lat="-39.2939009797" lon="-72.4086897634"><ele>244.61</ele><time>2024-09-14T00:04:53Z</time></trkpt><trkpt lat="-39.2939381953" lon="-72.4086807948"><ele>245.25</ele><time>2024-09-14T00:04:54Z</time></trkpt><trkpt lat="-39.2939818650" lon="-72.4086566549"><ele>245.67</ele><time>2024-09-14T00:04:55Z</time></trkpt><trkpt lat="-39.2940304801" lon="-72.4086184334"><ele>246.14</ele><time>2024-09-14T00:04:56Z</time></trkpt><trkpt lat="-39.2940852977" lon="-72.4085730035"><ele>246.78</ele><time>2024-09-14T00:04:57Z</time></trkpt><trkpt lat="-39.2943563685" lon="-72.4083414115"><ele>250.33</ele><time>2024-09-14T00:05:01Z</time></trkpt><trkpt lat="-39.2946445383" lon="-72.4080820754"><ele>253.45</ele><time>2024-09-14T00:05:05Z</time></trkpt><trkpt lat="-39.2952220514" lon="-72.4075851962"><ele>256.81</ele><time>2024-09-14T00:05:14Z</time></trkpt><trkpt lat="-39.2953006737" lon="-72.4075086694"><ele>257.59</ele><time>2024-09-14T00:05:16Z</time></trkpt><trkpt lat="-39.2953200359" lon="-72.4074669275"><ele>257.88</ele><time>2024-09-14T00:05:17Z</time></trkpt><trkpt lat="-39.2953212094" lon="-72.4074226711"><ele>258.16</ele><time>2024-09-14T00:05:18Z</time></trkpt><trkpt lat="-39.2952999193" lon="-72.4073846173"><ele>257.89</ele><time>2024-09-14T00:05:19Z</time></trkpt><trkpt lat="-39.2952612787" lon="-72.4073479883"><ele>258.21</ele><time>2024-09-14T00:05:20Z</time></trkpt><trkpt lat="-39.2952057067" lon="-72.4073071685"><ele>257.24</ele><time>2024-09-14T00:05:21Z</time></trkpt><trkpt lat="-39.2951381486" lon="-72.4072624929"><ele>256.94</ele><time>2024-09-14T00:05:22Z</time></trkpt><trkpt lat="-39.2946103401" lon="-72.4069475848"><ele>253.43</ele><time>2024-09-14T00:05:29Z</time></trkpt><trkpt lat="-39.2944998667" lon="-72.4068105407"><ele>251.71</ele><time>2024-09-14T00:05:33Z</time></trkpt><trkpt lat="-39.2945052311" lon="-72.4067561422"><ele>251.76</ele><time>2024-09-14T00:05:34Z</time></trkpt><trkpt lat="-39.2945235036" lon="-72.4066947866"><ele>251.90</ele><time>2024-09-14T00:05:35Z</time></trkpt><trkpt lat="-39.2948057223" lon="-72.4059615377"><ele>255.06</ele><time>2024-09-14T00:05:43Z</time></trkpt><trkpt lat="-39.2950128391" lon="-72.4053647462"><ele>256.64</ele><time>2024-09-14T00:05:50Z</time></trkpt><trkpt lat="-39.2950202990" lon="-72.4052957632"><ele>256.56</ele><time>2024-09-14T00:05:51Z</time></trkpt><trkpt lat="-39.2950171139" lon="-72.4052283727"><ele>256.55</ele><time>2024-09-14T00:05:52Z</time></trkpt><trkpt lat="-39.2950087320" lon="-72.4051594734"><ele>256.68</ele><time>2024-09-14T00:05:53Z</time></trkpt><trkpt lat="-39.2949939799" lon="-72.4050873052"><ele>256.81</ele><time>2024-09-14T00:05:54Z</time></trkpt><trkpt lat="-39.2949788924" lon="-72.4050104432"><ele>256.95</ele><time>2024-09-14T00:05:55Z</time></trkpt><trkpt lat="-39.2949530762" lon="-72.4046953674"><ele>256.95</ele><time>2024-09-14T00:06:02Z</time></trkpt><trkpt lat="-39.2952705827" lon="-72.4045533780"><ele>258.23</ele><time>2024-09-14T00:06:10Z</time></trkpt><trkpt lat="-39.2958747502" lon="-72.4043745920"><ele>259.38</ele><time>2024-09-14T00:06:21Z</time></trkpt><trkpt lat="-39.2958931904" lon="-72.4043803755"><ele>259.44</ele><time>2024-09-14T00:06:22Z</time></trkpt><trkpt lat="-39.2959228624" lon="-72.4043952115"><ele>259.44</ele><time>2024-09-14T00:06:23Z</time></trkpt><trkpt lat="-39.2959530372" lon="-72.4044223689"><ele>259.55</ele><time>2024-09-14T00:06:24Z</time></trkpt><trkpt lat="-39.2959812004" lon="-72.4044643622"><ele>259.57</ele><time>2024-09-14T00:06:25Z</time></trkpt><trkpt lat="-39.2960057594" lon="-72.4045243766"><ele>259.65</ele><time>2024-09-14T00:06:26Z</time></trkpt><trkpt lat="-39.2960257921" lon="-72.4046022445"><ele>259.77</ele><time>2024-09-14T00:06:27Z</time></trkpt><trkpt lat="-39.2960421368" lon="-72.4046951160"><ele>259.79</ele><time>2024-09-14T00:06:28Z</time></trkpt><trkpt lat="-39.2960592359" lon="-72.4047995545"><ele>259.87</ele><time>2024-09-14T00:06:29Z</time></trkpt><trkpt lat="-39.2962023150" lon="-72.4055963382"><ele>259.54</ele><time>2024-09-14T00:06:37Z</time></trkpt><trkpt lat="-39.2961993814" lon="-72.4056454562"><ele>259.33</ele><time>2024-09-14T00:06:38Z</time></trkpt><trkpt lat="-39.2961859703" lon="-72.4056840129"><ele>259.36</ele><time>2024-09-14T00:06:39Z</time></trkpt><trkpt lat="-39.2961577233" lon="-72.4057141040"><ele>259.21</ele><time>2024-09-14T00:06:40Z</time></trkpt><trkpt lat="-39.2961142212" lon="-72.4057358131"><ele>259.20</ele><time>2024-09-14T00:06:41Z</time></trkpt><trkpt lat="-39.2960557994" lon="-72.4057556782"><ele>259.30</ele><time>2024-09-14T00:06:42Z</time></trkpt><trkpt lat="-39.2959828768" lon="-72.4057792313"><ele>259.46</ele><time>2024-09-14T00:06:43Z</time></trkpt><trkpt lat="-39.2952276673" lon="-72.4060258269"><ele>257.49</ele><time>2024-09-14T00:06:54Z</time></trkpt><trkpt lat="-39.2951885238" lon="-72.4060845841"><ele>257.11</ele><time>2024-09-14T00:06:56Z</time></trkpt><trkpt lat="-39.2951816507" lon="-72.4061397370"><ele>257.33</ele><time>2024-09-14T00:06:57Z</time></trkpt><trkpt lat="-39.2951890267" lon="-72.4062095582"><ele>257.45</ele><time>2024-09-14T00:06:58Z</time></trkpt><trkpt lat="-39.2953424156" lon="-72.4070863053"><ele>258.34</ele><time>2024-09-14T00:07:06Z</time></trkpt><trkpt lat="-39.2954529729" lon="-72.4074041471"><ele>258.04</ele><time>2024-09-14T00:07:12Z</time></trkpt><trkpt lat="-39.2955037672" lon="-72.4074080028"><ele>258.16</ele><time>2024-09-14T00:07:13Z</time></trkpt><trkpt lat="-39.2955602612" lon="-72.4073966872"><ele>258.32</ele><time>2024-09-14T00:07:14Z</time></trkpt><trkpt lat="-39.2962679453" lon="-72.4071503431"><ele>258.87</ele><time>2024-09-14T00:07:23Z</time></trkpt><trkpt lat="-39.2967995256" lon="-72.4069659412"><ele>257.57</ele><time>2024-09-14T00:07:32Z</time></trkpt><trkpt lat="-39.2968083266" lon="-72.4069512729"><ele>257.52</ele><time>2024-09-14T00:07:33Z</time></trkpt><trkpt lat="-39.2968179658" lon="-72.4069329165"><ele>257.30</ele><time>2024-09-14T00:07:34Z</time></trkpt><trkpt lat="-39.2968277726" lon="-72.4069056753"><ele>257.28</ele><time>2024-09-14T00:07:35Z</time></trkpt><trkpt lat="-39.2968342267" lon="-72.4068763386"><ele>257.34</ele><time>2024-09-14T00:07:36Z</time></trkpt><trkpt lat="-39.2968405969" lon="-72.4068409670"><ele>257.41</ele><time>2024-09-14T00:07:37Z</time></trkpt><trkpt lat="-39.2968772259" lon="-72.4067728221"><ele>257.69</ele><time>2024-09-14T00:07:39Z</time></trkpt><trkpt lat="-39.2969068140" lon="-72.4067496043"><ele>257.84</ele><time>2024-09-14T00:07:40Z</time></trkpt><trkpt lat="-39.2969330493" lon="-72.4067249615"><ele>257.92</ele><time>2024-09-14T00:07:41Z</time></trkpt><trkpt lat="-39.2970119230" lon="-72.4063003343"><ele>259.37</ele><time>2024-09-14T00:07:51Z</time></trkpt><trkpt lat="-39.2969797365" lon="-72.4057128467"><ele>259.61</ele><time>2024-09-14T00:08:03Z</time></trkpt><trkpt lat="-39.2971417587" lon="-72.4056172092"><ele>259.25</ele><time>2024-09-14T00:08:08Z</time></trkpt><trkpt lat="-39.2971996777" lon="-72.4054262694"><ele>259.40</ele><time>2024-09-14T00:08:13Z</time></trkpt><trkpt lat="-39.2971359752" lon="-72.4051132053"><ele>259.80</ele><time>2024-09-14T00:08:19Z</time></trkpt><trkpt lat="-39.2971297726" lon="-72.4050070066"><ele>259.89</ele><time>2024-09-14T00:08:21Z</time></trkpt><trkpt lat="-39.2971358914" lon="-72.4049516022"><ele>260.07</ele><time>2024-09-14T00:08:22Z</time></trkpt><trkpt lat="-39.2971490510" lon="-72.4049025681"><ele>260.22</ele><time>2024-09-14T00:08:23Z</time></trkpt><trkpt lat="-39.2971701734" lon="-72.4048639275"><ele>260.23</ele><time>2024-09-14T00:08:24Z</time></trkpt><trkpt lat="-39.2971914634" lon="-72.4048366025"><ele>260.47</ele><time>2024-09-14T00:08:25Z</time></trkpt><trkpt lat="-39.2972071376" lon="-72.4048177432"><ele>260.60</ele><time>2024-09-14T00:08:26Z</time></trkpt><trkpt lat="-39.2972197104" lon="-72.4048013985"><ele>260.62</ele><time>2024-09-14T00:08:27Z</time></trkpt><trkpt lat="-39.2972427607" lon="-72.4046399631"><ele>261.15</ele><time>2024-09-14T00:08:32Z</time></trkpt><trkpt lat="-39.2972337920" lon="-72.4045794457"><ele>261.22</ele><time>2024-09-14T00:08:33Z</time></trkpt><trkpt lat="-39.2971031182" lon="-72.4038962368"><ele>262.20</ele><time>2024-09-14T00:08:41Z</time></trkpt><trkpt lat="-39.2971078958" lon="-72.4037307780"><ele>262.20</ele><time>2024-09-14T00:08:47Z</time></trkpt><trkpt lat="-39.2971440218" lon="-72.4037035368"><ele>262.32</ele><time>2024-09-14T00:08:48Z</time></trkpt><trkpt lat="-39.2971980013" lon="-72.4036805704"><ele>262.45</ele><time>2024-09-14T00:08:49Z</time></trkpt><trkpt lat="-39.2978201900" lon="-72.4035044666"><ele>263.59</ele><time>2024-09-14T00:08:58Z</time></trkpt><trkpt lat="-39.2978725769" lon="-72.4035202246"><ele>263.48</ele><time>2024-09-14T00:08:59Z</time></trkpt><trkpt lat="-39.2979216110" lon="-72.4035623018"><ele>263.45</ele><time>2024-09-14T00:09:00Z</time></trkpt><trkpt lat="-39.2979659513" lon="-72.4036273453"><ele>263.38</ele><time>2024-09-14T00:09:01Z</time></trkpt><trkpt lat="-39.2980108783" lon="-72.4037063867"><ele>263.32</ele><time>2024-09-14T00:09:02Z</time></trkpt><trkpt lat="-39.2980577331" lon="-72.4037917145"><ele>263.32</ele><time>2024-09-14T00:09:03Z</time></trkpt><trkpt lat="-39.2985391896" lon="-72.4046107102"><ele>261.12</ele><time>2024-09-14T00:09:13Z</time></trkpt><trkpt lat="-39.2985805962" lon="-72.4046515301"><ele>260.93</ele><time>2024-09-14T00:09:14Z</time></trkpt><trkpt lat="-39.2986235116" lon="-72.4046718143"><ele>260.75</ele><time>2024-09-14T00:09:15Z</time></trkpt><trkpt lat="-39.2986704502" lon="-72.4046767596"><ele>260.47</ele><time>2024-09-14T00:09:16Z</time></trkpt><trkpt lat="-39.2987256031" lon="-72.4046682939"><ele>260.41</ele><time>2024-09-14T00:09:17Z</time></trkpt><trkpt lat="-39.2987911496" lon="-72.4046505243"><ele>260.27</ele><time>2024-09-14T00:09:18Z</time></trkpt><trkpt lat="-39.2993533239" lon="-72.4044797849"><ele>259.25</ele><time>2024-09-14T00:09:27Z</time></trkpt><trkpt lat="-39.2998745106" lon="-72.4043281563"><ele>259.52</ele><time>2024-09-14T00:09:34Z</time></trkpt><trkpt lat="-39.3003738206" lon="-72.4041849934"><ele>260.19</ele><time>2024-09-14T00:09:41Z</time></trkpt><trkpt lat="-39.3004132994" lon="-72.4041508790"><ele>260.38</ele><time>2024-09-14T00:09:42Z</time></trkpt><trkpt lat="-39.3004381098" lon="-72.4041005038"><ele>260.68</ele><time>2024-09-14T00:09:43Z</time></trkpt><trkpt lat="-39.3004445639" lon="-72.4040362984"><ele>260.96</ele><time>2024-09-14T00:09:44Z</time></trkpt><trkpt lat="-39.3004366849" lon="-72.4039612804"><ele>261.53</ele><time>2024-09-14T00:09:45Z</time></trkpt><trkpt lat="-39.3004192505" lon="-72.4038754497"><ele>261.91</ele><time>2024-09-14T00:09:46Z</time></trkpt><trkpt lat="-39.3004003912" lon="-72.4037824105"><ele>262.24</ele><time>2024-09-14T00:09:47Z</time></trkpt><trkpt lat="-39.3003148120" lon="-72.4032987747"><ele>265.56</ele><time>2024-09-14T00:09:52Z</time></trkpt><trkpt lat="-39.3002275564" lon="-72.4028820265"><ele>268.80</ele><time>2024-09-14T00:09:59Z</time></trkpt><trkpt lat="-39.2998718284" lon="-72.4028992094"><ele>266.46</ele><time>2024-09-14T00:10:07Z</time></trkpt><trkpt lat="-39.2997145839" lon="-72.4029446393"><ele>264.98</ele><time>2024-09-14T00:10:09Z</time></trkpt><trkpt lat="-39.2992053833" lon="-72.4030950945"><ele>261.90</ele><time>2024-09-14T00:10:17Z</time></trkpt><trkpt lat="-39.2986008804" lon="-72.4032963440"><ele>262.56</ele><time>2024-09-14T00:10:26Z</time></trkpt><trkpt lat="-39.2981469166" lon="-72.4033947475"><ele>262.31</ele><time>2024-09-14T00:10:35Z</time></trkpt><trkpt lat="-39.2980933562" lon="-72.4033522513"><ele>262.69</ele><time>2024-09-14T00:10:37Z</time></trkpt><trkpt lat="-39.2980749160" lon="-72.4033056479"><ele>262.77</ele><time>2024-09-14T00:10:38Z</time></trkpt><trkpt lat="-39.2980616726" lon="-72.4032444600"><ele>262.95</ele><time>2024-09-14T00:10:39Z</time></trkpt><trkpt lat="-39.2979278136" lon="-72.4024578184"><ele>264.46</ele><time>2024-09-14T00:10:47Z</time></trkpt><trkpt lat="-39.2978732474" lon="-72.4021564052"><ele>264.81</ele><time>2024-09-14T00:10:51Z</time></trkpt><trkpt lat="-39.2978774384" lon="-72.4021060299"><ele>264.77</ele><time>2024-09-14T00:10:52Z</time></trkpt><trkpt lat="-39.2978950404" lon="-72.4020590913"><ele>264.82</ele><time>2024-09-14T00:10:53Z</time></trkpt><trkpt lat="-39.2979415599" lon="-72.4020304251"><ele>264.77</ele><time>2024-09-14T00:10:54Z</time></trkpt><trkpt lat="-39.2980028316" lon="-72.4020060338"><ele>264.99</ele><time>2024-09-14T00:10:55Z</time></trkpt><trkpt lat="-39.2988447100" lon="-72.4017469492"><ele>266.42</ele><time>2024-09-14T00:11:06Z</time></trkpt><trkpt lat="-39.2993068881" lon="-72.4016067199"><ele>269.56</ele><time>2024-09-14T00:11:12Z</time></trkpt><trkpt lat="-39.2999297474" lon="-72.4014351424"><ele>271.62</ele><time>2024-09-14T00:11:22Z</time></trkpt><trkpt lat="-39.2999473494" lon="-72.4014045484"><ele>271.61</ele><time>2024-09-14T00:11:23Z</time></trkpt><trkpt lat="-39.2999591678" lon="-72.4013592023"><ele>271.66</ele><time>2024-09-14T00:11:24Z</time></trkpt><trkpt lat="-39.2999621853" lon="-72.4013017863"><ele>271.67</ele><time>2024-09-14T00:11:25Z</time></trkpt><trkpt lat="-39.2999545578" lon="-72.4012349825"><ele>271.40</ele><time>2024-09-14T00:11:26Z</time></trkpt><trkpt lat="-39.2999386322" lon="-72.4011591263"><ele>271.31</ele><time>2024-09-14T00:11:27Z</time></trkpt><trkpt lat="-39.2999211140" lon="-72.4010743015"><ele>271.06</ele><time>2024-09-14T00:11:28Z</time></trkpt><trkpt lat="-39.2997751012" lon="-72.4001608416"><ele>269.09</ele><time>2024-09-14T00:11:38Z</time></trkpt><trkpt lat="-39.2997494526" lon="-72.4001212791"><ele>268.97</ele><time>2024-09-14T00:11:39Z</time></trkpt><trkpt lat="-39.2997169308" lon="-72.4000959657"><ele>268.78</ele><time>2024-09-14T00:11:40Z</time></trkpt><trkpt lat="-39.2996758595" lon="-72.4000878353"><ele>268.74</ele><time>2024-09-14T00:11:41Z</time></trkpt><trkpt lat="-39.2996290047" lon="-72.4000880867"><ele>268.56</ele><time>2024-09-14T00:11:42Z</time></trkpt><trkpt lat="-39.2995757796" lon="-72.4000978097"><ele>268.49</ele><time>2024-09-14T00:11:43Z</time></trkpt><trkpt lat="-39.2995151784" lon="-72.4001154955"><ele>268.36</ele><time>2024-09-14T00:11:44Z</time></trkpt><trkpt lat="-39.2988210730" lon="-72.4003276415"><ele>265.65</ele><time>2024-09-14T00:11:54Z</time></trkpt><trkpt lat="-39.2984316498" lon="-72.4004597403"><ele>265.14</ele><time>2024-09-14T00:12:01Z</time></trkpt><trkpt lat="-39.2974653840" lon="-72.4006686173"><ele>263.03</ele><time>2024-09-14T00:12:14Z</time></trkpt><trkpt lat="-39.2971135117" lon="-72.4007060006"><ele>259.24</ele><time>2024-09-14T00:12:18Z</time></trkpt><trkpt lat="-39.2965405248" lon="-72.4007602315"><ele>256.86</ele><time>2024-09-14T00:12:27Z</time></trkpt><trkpt lat="-39.2964722961" lon="-72.4007225968"><ele>256.71</ele><time>2024-09-14T00:12:29Z</time></trkpt><trkpt lat="-39.2964451388" lon="-72.4006756581"><ele>256.66</ele><time>2024-09-14T00:12:30Z</time></trkpt><trkpt lat="-39.2964266986" lon="-72.4006098602"><ele>256.66</ele><time>2024-09-14T00:12:31Z</time></trkpt><trkpt lat="-39.2961841263" lon="-72.4000994861"><ele>256.81</ele><time>2024-09-14T00:12:37Z</time></trkpt><trkpt lat="-39.2961232737" lon="-72.4000355322"><ele>256.72</ele><time>2024-09-14T00:12:38Z</time></trkpt><trkpt lat="-39.2960592359" lon="-72.3999812175"><ele>256.66</ele><time>2024-09-14T00:12:39Z</time></trkpt><trkpt lat="-39.2959938571" lon="-72.3999380507"><ele>256.79</ele><time>2024-09-14T00:12:40Z</time></trkpt><trkpt lat="-39.2959294841" lon="-72.3999053612"><ele>257.02</ele><time>2024-09-14T00:12:41Z</time></trkpt><trkpt lat="-39.2958695535" lon="-72.3998827301"><ele>257.16</ele><time>2024-09-14T00:12:42Z</time></trkpt><trkpt lat="-39.2958170827" lon="-72.3998683132"><ele>257.52</ele><time>2024-09-14T00:12:43Z</time></trkpt><trkpt lat="-39.2957774363" lon="-72.3998609371"><ele>257.66</ele><time>2024-09-14T00:12:44Z</time></trkpt><trkpt lat="-39.2956727464" lon="-72.3998426646"><ele>257.77</ele><time>2024-09-14T00:12:49Z</time></trkpt><trkpt lat="-39.2956586648" lon="-72.3998277448"><ele>257.69</ele><time>2024-09-14T00:12:50Z</time></trkpt><trkpt lat="-39.2956436612" lon="-72.3998026829"><ele>257.63</ele><time>2024-09-14T00:12:51Z</time></trkpt><trkpt lat="-39.2956322618" lon="-72.3997676466"><ele>257.62</ele><time>2024-09-14T00:12:52Z</time></trkpt><trkpt lat="-39.2956228741" lon="-72.3997225519"><ele>257.58</ele><time>2024-09-14T00:12:53Z</time></trkpt><trkpt lat="-39.2956124805" lon="-72.3996666446"><ele>257.72</ele><time>2024-09-14T00:12:54Z</time></trkpt><trkpt lat="-39.2954440042" lon="-72.3988130316"><ele>259.32</ele><time>2024-09-14T00:13:03Z</time></trkpt><trkpt lat="-39.2951103207" lon="-72.3972964939"><ele>262.54</ele><time>2024-09-14T00:13:17Z</time></trkpt><trkpt lat="-39.2949990928" lon="-72.3966308869"><ele>265.83</ele><time>2024-09-14T00:13:23Z</time></trkpt><trkpt lat="-39.2949838378" lon="-72.3954852484"><ele>268.83</ele><time>2024-09-14T00:13:33Z</time></trkpt><trkpt lat="-39.2949829996" lon="-72.3937799502"><ele>271.81</ele><time>2024-09-14T00:13:48Z</time></trkpt><trkpt lat="-39.2947586160" lon="-72.3921839520"><ele>271.90</ele><time>2024-09-14T00:14:02Z</time></trkpt><trkpt lat="-39.2940635048" lon="-72.3904794082"><ele>271.54</ele><time>2024-09-14T00:14:19Z</time></trkpt><trkpt lat="-39.2934622709" lon="-72.3892582487"><ele>271.63</ele><time>2024-09-14T00:14:32Z</time></trkpt><trkpt lat="-39.2934450042" lon="-72.3891503736"><ele>271.62</ele><time>2024-09-14T00:14:33Z</time></trkpt><trkpt lat="-39.2934427410" lon="-72.3890379723"><ele>271.58</ele><time>2024-09-14T00:14:34Z</time></trkpt><trkpt lat="-39.2934517935" lon="-72.3889267445"><ele>271.53</ele><time>2024-09-14T00:14:35Z</time></trkpt><trkpt lat="-39.2934688926" lon="-72.3888173606"><ele>271.77</ele><time>2024-09-14T00:14:36Z</time></trkpt><trkpt lat="-39.2934896797" lon="-72.3887063842"><ele>271.87</ele><time>2024-09-14T00:14:37Z</time></trkpt><trkpt lat="-39.2938639317" lon="-72.3867967352"><ele>272.48</ele><time>2024-09-14T00:14:54Z</time></trkpt><trkpt lat="-39.2941502575" lon="-72.3852767609"><ele>275.69</ele><time>2024-09-14T00:15:08Z</time></trkpt><trkpt lat="-39.2943692766" lon="-72.3841926455"><ele>278.77</ele><time>2024-09-14T00:15:18Z</time></trkpt><trkpt lat="-39.2946760543" lon="-72.3825086374"><ele>281.54</ele><time>2024-09-14T00:15:33Z</time></trkpt><trkpt lat="-39.2950622924" lon="-72.3805916123"><ele>279.83</ele><time>2024-09-14T00:15:50Z</time></trkpt><trkpt lat="-39.2953062057" lon="-72.3793380987"><ele>276.36</ele><time>2024-09-14T00:16:01Z</time></trkpt><trkpt lat="-39.2955325171" lon="-72.3782199528"><ele>273.30</ele><time>2024-09-14T00:16:11Z</time></trkpt><trkpt lat="-39.2961204238" lon="-72.3753551859"><ele>271.12</ele><time>2024-09-14T00:16:37Z</time></trkpt><trkpt lat="-39.2964812648" lon="-72.3737327848"><ele>268.59</ele><time>2024-09-14T00:16:54Z</time></trkpt><trkpt lat="-39.2964523472" lon="-72.3735166155"><ele>268.55</ele><time>2024-09-14T00:17:03Z</time></trkpt><trkpt lat="-39.2965109367" lon="-72.3736003507"><ele>268.14</ele><time>2024-09-14T00:17:16Z</time></trkpt><trkpt lat="-39.2964874674" lon="-72.3736972455"><ele>268.27</ele><time>2024-09-14T00:17:18Z</time></trkpt><trkpt lat="-39.2963373475" lon="-72.3744547181"><ele>269.45</ele><time>2024-09-14T00:17:26Z</time></trkpt><trkpt lat="-39.2960169073" lon="-72.3759907018"><ele>271.26</ele><time>2024-09-14T00:17:40Z</time></trkpt><trkpt lat="-39.2954886798" lon="-72.3785563186"><ele>273.22</ele><time>2024-09-14T00:18:03Z</time></trkpt><trkpt lat="-39.2952710856" lon="-72.3796475586"><ele>276.53</ele><time>2024-09-14T00:18:13Z</time></trkpt><trkpt lat="-39.2950012721" lon="-72.3809633497"><ele>279.68</ele><time>2024-09-14T00:18:25Z</time></trkpt><trkpt lat="-39.2946961708" lon="-72.3825232219"><ele>280.95</ele><time>2024-09-14T00:18:39Z</time></trkpt><trkpt lat="-39.2943738028" lon="-72.3842136841"><ele>278.30</ele><time>2024-09-14T00:18:54Z</time></trkpt><trkpt lat="-39.2941476591" lon="-72.3853525333"><ele>274.90</ele><time>2024-09-14T00:19:04Z</time></trkpt><trkpt lat="-39.2938906699" lon="-72.3866928834"><ele>271.87</ele><time>2024-09-14T00:19:16Z</time></trkpt><trkpt lat="-39.2934464291" lon="-72.3890860006"><ele>270.48</ele><time>2024-09-14T00:19:38Z</time></trkpt><trkpt lat="-39.2934470158" lon="-72.3891833983"><ele>270.61</ele><time>2024-09-14T00:19:39Z</time></trkpt><trkpt lat="-39.2934586667" lon="-72.3892744258"><ele>270.49</ele><time>2024-09-14T00:19:40Z</time></trkpt><trkpt lat="-39.2934792861" lon="-72.3893623520"><ele>270.45</ele><time>2024-09-14T00:19:41Z</time></trkpt><trkpt lat="-39.2935087904" lon="-72.3894480988"><ele>270.36</ele><time>2024-09-14T00:19:42Z</time></trkpt><trkpt lat="-39.2935452517" lon="-72.3895334266"><ele>270.34</ele><time>2024-09-14T00:19:43Z</time></trkpt><trkpt lat="-39.2935876641" lon="-72.3896207660"><ele>270.32</ele><time>2024-09-14T00:19:44Z</time></trkpt><trkpt lat="-39.2943746410" lon="-72.3911062069"><ele>270.43</ele><time>2024-09-14T00:20:00Z</time></trkpt><trkpt lat="-39.2949425988" lon="-72.3929948173"><ele>270.64</ele><time>2024-09-14T00:20:18Z</time></trkpt><trkpt lat="-39.2950025294" lon="-72.3948359862"><ele>269.07</ele><time>2024-09-14T00:20:34Z</time></trkpt><trkpt lat="-39.2949888669" lon="-72.3962511867"><ele>266.00</ele><time>2024-09-14T00:20:47Z</time></trkpt><trkpt lat="-39.2949894536" lon="-72.3964458983"><ele>265.33</ele><time>2024-09-14T00:20:50Z</time></trkpt><trkpt lat="-39.2949857656" lon="-72.3964889813"><ele>265.21</ele><time>2024-09-14T00:20:51Z</time></trkpt><trkpt lat="-39.2949758749" lon="-72.3965220898"><ele>265.14</ele><time>2024-09-14T00:20:52Z</time></trkpt><trkpt lat="-39.2949568480" lon="-72.3965481576"><ele>265.11</ele><time>2024-09-14T00:20:53Z</time></trkpt><trkpt lat="-39.2949286848" lon="-72.3965639994"><ele>265.01</ele><time>2024-09-14T00:20:54Z</time></trkpt><trkpt lat="-39.2948874459" lon="-72.3965601437"><ele>265.06</ele><time>2024-09-14T00:20:55Z</time></trkpt><trkpt lat="-39.2948353104" lon="-72.3965410329"><ele>265.27</ele><time>2024-09-14T00:20:56Z</time></trkpt><trkpt lat="-39.2947730329" lon="-72.3965144623"><ele>265.33</ele><time>2024-09-14T00:20:57Z</time></trkpt><trkpt lat="-39.2938750796" lon="-72.3961433955"><ele>267.32</ele><time>2024-09-14T00:21:08Z</time></trkpt><trkpt lat="-39.2929604463" lon="-72.3957508709"><ele>270.55</ele><time>2024-09-14T00:21:19Z</time></trkpt><trkpt lat="-39.2924722843" lon="-72.3955551535"><ele>272.00</ele><time>2024-09-14T00:21:28Z</time></trkpt><trkpt lat="-39.2924431991" lon="-72.3955679778"><ele>272.07</ele><time>2024-09-14T00:21:30Z</time></trkpt><trkpt lat="-39.2924324702" lon="-72.3955838196"><ele>272.03</ele><time>2024-09-14T00:21:31Z</time></trkpt><trkpt lat="-39.2924311291" lon="-72.3955880944"><ele>271.80</ele><time>2024-09-14T00:21:35Z</time></trkpt><trkpt lat="-39.2924357392" lon="-72.3955751024"><ele>271.89</ele><time>2024-09-14T00:21:36Z</time></trkpt><trkpt lat="-39.2924375832" lon="-72.3955489509"><ele>271.89</ele><time>2024-09-14T00:21:38Z</time></trkpt><trkpt lat="-39.2925163731" lon="-72.3955860827"><ele>271.76</ele><time>2024-09-14T00:21:45Z</time></trkpt><trkpt lat="-39.2925521638" lon="-72.3955992423"><ele>271.77</ele><time>2024-09-14T00:21:46Z</time></trkpt><trkpt lat="-39.2930604424" lon="-72.3957872484"><ele>270.47</ele><time>2024-09-14T00:21:53Z</time></trkpt><trkpt lat="-39.2940336652" lon="-72.3961914238"><ele>267.15</ele><time>2024-09-14T00:22:05Z</time></trkpt><trkpt lat="-39.2949368153" lon="-72.3965607304"><ele>264.81</ele><time>2024-09-14T00:22:18Z</time></trkpt><trkpt lat="-39.2950119171" lon="-72.3966691084"><ele>264.39</ele><time>2024-09-14T00:22:23Z</time></trkpt><trkpt lat="-39.2951493803" lon="-72.3973567598"><ele>262.40</ele><time>2024-09-14T00:22:30Z</time></trkpt><trkpt lat="-39.2953345366" lon="-72.3982041702"><ele>259.14</ele><time>2024-09-14T00:22:37Z</time></trkpt><trkpt lat="-39.2956325971" lon="-72.3997650482"><ele>256.54</ele><time>2024-09-14T00:22:52Z</time></trkpt><trkpt lat="-39.2956271488" lon="-72.3998562433"><ele>256.47</ele><time>2024-09-14T00:22:53Z</time></trkpt><trkpt lat="-39.2956105527" lon="-72.3999499530"><ele>255.94</ele><time>2024-09-14T00:22:54Z</time></trkpt><trkpt lat="-39.2955870833" lon="-72.4000496138"><ele>255.75</ele><time>2024-09-14T00:22:55Z</time></trkpt><trkpt lat="-39.2955602612" lon="-72.4001523759"><ele>255.52</ele><time>2024-09-14T00:22:56Z</time></trkpt><trkpt lat="-39.2953908630" lon="-72.4011596292"><ele>252.82</ele><time>2024-09-14T00:23:05Z</time></trkpt><trkpt lat="-39.2953993287" lon="-72.4012782332"><ele>252.59</ele><time>2024-09-14T00:23:06Z</time></trkpt><trkpt lat="-39.2954150867" lon="-72.4013951607"><ele>252.31</ele><time>2024-09-14T00:23:07Z</time></trkpt><trkpt lat="-39.2957269773" lon="-72.4030478206"><ele>255.61</ele><time>2024-09-14T00:23:22Z</time></trkpt><trkpt lat="-39.2959394585" lon="-72.4042583350"><ele>256.90</ele><time>2024-09-14T00:23:37Z</time></trkpt><trkpt lat="-39.2959074397" lon="-72.4043223727"><ele>256.71</ele><time>2024-09-14T00:23:39Z</time></trkpt><trkpt lat="-39.2958791927" lon="-72.4043382984"><ele>256.61</ele><time>2024-09-14T00:23:40Z</time></trkpt><trkpt lat="-39.2958505265" lon="-72.4043434951"><ele>256.57</ele><time>2024-09-14T00:23:41Z</time></trkpt><trkpt lat="-39.2958265543" lon="-72.4043446686"><ele>256.57</ele><time>2024-09-14T00:23:42Z</time></trkpt><trkpt lat="-39.2958090361" lon="-72.4043450877"><ele>256.50</ele><time>2024-09-14T00:23:43Z</time></trkpt><trkpt lat="-39.2957333475" lon="-72.4043424055"><ele>256.15</ele><time>2024-09-14T00:24:01Z</time></trkpt><trkpt lat="-39.2957163323" lon="-72.4043307547"><ele>255.86</ele><time>2024-09-14T00:24:27Z</time></trkpt><trkpt lat="-39.2957386281" lon="-72.4043400586"><ele>255.97</ele><time>2024-09-14T00:24:56Z</time></trkpt></trkseg></trk></gpx>