<?xml version="1.0" encoding="UTF-8" standalone="no" ?><gpx xmlns="http://www.topografix.com/GPX/1/1" xmlns:gpxx="http://www.garmin.com/xmlschemas/GpxExtensions/v3" xmlns:gpxtrkx="http://www.garmin.com/xmlschemas/TrackStatsExtension/v1" xmlns:wptx1="http://www.garmin.com/xmlschemas/WaypointExtension/v1" xmlns:gpxtpx="http://www.garmin.com/xmlschemas/TrackPointExtension/v1" creator="GPSMAP 64sx" version="1.1" xmlns:xsi="http://www.w3.org/2001/XMLSchema-instance" xsi:schemaLocation="http://www.topografix.com/GPX/1/1 http://www.topografix.com/GPX/1/1/gpx.xsd http://www.garmin.com/xmlschemas/GpxExtensions/v3 http://www8.garmin.com/xmlschemas/GpxExtensionsv3.xsd http://www.garmin.com/xmlschemas/TrackStatsExtension/v1 http://www8.garmin.com/xmlschemas/TrackStatsExtension.xsd http://www.garmin.com/xmlschemas/WaypointExtension/v1 http://www8.garmin.com/xmlschemas/WaypointExtensionv1.xsd http://www.garmin.com/xmlschemas/TrackPointExtension/v1 http://www.garmin.com/xmlschemas/TrackPointExtensionv1.xsd"><metadata><link href="http://www.garmin.com"><text>Garmin International</text></link><time>2024-08-13T01:31:35Z</time></metadata><trk><name>HUIS 240812</name><extensions><gpxx:TrackExtension><gpxx:DisplayColor>Cyan</gpxx:DisplayColor></gpxx:TrackExtension><gpxtrkx:TrackStatsExtension><gpxtrkx:Distance>12934.000</gpxtrkx:Distance><gpxtrkx:TotalElapsedTime>1854</gpxtrkx:TotalElapsedTime><gpxtrkx:MovingTime>1705</gpxtrkx:MovingTime><gpxtrkx:StoppedTime>148</gpxtrkx:StoppedTime><gpxtrkx:MovingSpeed>7.586</gpxtrkx:MovingSpeed><gpxtrkx:MaxSpeed>16.637</gpxtrkx:MaxSpeed><gpxtrkx:MaxElevation>292.736</gpxtrkx:MaxElevation><gpxtrkx:MinElevation>222.827</gpxtrkx:MinElevation><gpxtrkx:Ascent>141.000</gpxtrkx:Ascent><gpxtrkx:Descent>142.702</gpxtrkx:Descent><gpxtrkx:AvgAscentRate>0.105</gpxtrkx:AvgAscentRate><gpxtrkx:MaxAscentRate>0.763</gpxtrkx:MaxAscentRate><gpxtrkx:AvgDescentRate>0.109</gpxtrkx:AvgDescentRate><gpxtrkx:MaxDescentRate>-1.540</gpxtrkx:MaxDescentRate></gpxtrkx:TrackStatsExtension></extensions><trkseg><trkpt lat="-39.2730508279" lon="-72.4093792588"><ele>292.73</ele><time>2024-08-13T01:00:41Z</time></trkpt><trkpt lat="-39.2730514985" lon="-72.4093798455"><ele>292.73</ele><time>2024-08-13T01:00:42Z</time></trkpt><trkpt lat="-39.2730534263" lon="-72.4093821086"><ele>255.65</ele><time>2024-08-13T01:00:45Z</time></trkpt><trkpt lat="-39.2730541807" lon="-72.4093826115"><ele>257.07</ele><time>2024-08-13T01:00:46Z</time></trkpt><trkpt lat="-39.2730963416" lon="-72.4093638361"><ele>255.49</ele><time>2024-08-13T01:01:18Z</time></trkpt><trkpt lat="-39.2731250077" lon="-72.4093576334"><ele>255.47</ele><time>2024-08-13T01:01:20Z</time></trkpt><trkpt lat="-39.2731505726" lon="-72.4093553703"><ele>255.31</ele><time>2024-08-13T01:01:21Z</time></trkpt><trkpt lat="-39.2731799092" lon="-72.4093573820"><ele>255.44</ele><time>2024-08-13T01:01:22Z</time></trkpt><trkpt lat="-39.2732115928" lon="-72.4093632493"><ele>255.35</ele><time>2024-08-13T01:01:23Z</time></trkpt><trkpt lat="-39.2732457072" lon="-72.4093726370"><ele>255.26</ele><time>2024-08-13T01:01:24Z</time></trkpt><trkpt lat="-39.2732843477" lon="-72.4093853775"><ele>255.18</ele><time>2024-08-13T01:01:25Z</time></trkpt><trkpt lat="-39.2739395611" lon="-72.4095712882"><ele>255.47</ele><time>2024-08-13T01:01:35Z</time></trkpt><trkpt lat="-39.2751550209" lon="-72.4099714402"><ele>256.29</ele><time>2024-08-13T01:01:46Z</time></trkpt><trkpt lat="-39.2762623541" lon="-72.4102497194"><ele>257.51</ele><time>2024-08-13T01:01:54Z</time></trkpt><trkpt lat="-39.2764063552" lon="-72.4102375656"><ele>257.58</ele><time>2024-08-13T01:01:55Z</time></trkpt><trkpt lat="-39.2765482608" lon="-72.4102109950"><ele>257.57</ele><time>2024-08-13T01:01:56Z</time></trkpt><trkpt lat="-39.2766874004" lon="-72.4101698399"><ele>257.61</ele><time>2024-08-13T01:01:57Z</time></trkpt><trkpt lat="-39.2768243607" lon="-72.4101179559"><ele>257.59</ele><time>2024-08-13T01:01:58Z</time></trkpt><trkpt lat="-39.2779308558" lon="-72.4097068235"><ele>256.53</ele><time>2024-08-13T01:02:06Z</time></trkpt><trkpt lat="-39.2780756112" lon="-72.4096888024"><ele>256.01</ele><time>2024-08-13T01:02:07Z</time></trkpt><trkpt lat="-39.2782196123" lon="-72.4096870422"><ele>255.35</ele><time>2024-08-13T01:02:08Z</time></trkpt><trkpt lat="-39.2783620209" lon="-72.4097034708"><ele>254.62</ele><time>2024-08-13T01:02:09Z</time></trkpt><trkpt lat="-39.2785018310" lon="-72.4097371660"><ele>253.82</ele><time>2024-08-13T01:02:10Z</time></trkpt><trkpt lat="-39.2786386237" lon="-72.4097870383"><ele>252.88</ele><time>2024-08-13T01:02:11Z</time></trkpt><trkpt lat="-39.2787731532" lon="-72.4098490644"><ele>251.95</ele><time>2024-08-13T01:02:12Z</time></trkpt><trkpt lat="-39.2790356744" lon="-72.4100182112"><ele>249.69</ele><time>2024-08-13T01:02:14Z</time></trkpt><trkpt lat="-39.2791515123" lon="-72.4101182073"><ele>248.43</ele><time>2024-08-13T01:02:15Z</time></trkpt><trkpt lat="-39.2792622373" lon="-72.4102348834"><ele>247.19</ele><time>2024-08-13T01:02:16Z</time></trkpt><trkpt lat="-39.2793686036" lon="-72.4103690777"><ele>245.84</ele><time>2024-08-13T01:02:17Z</time></trkpt><trkpt lat="-39.2794707790" lon="-72.4105081335"><ele>244.58</ele><time>2024-08-13T01:02:18Z</time></trkpt><trkpt lat="-39.2797808256" lon="-72.4109299947"><ele>240.51</ele><time>2024-08-13T01:02:21Z</time></trkpt><trkpt lat="-39.2800986674" lon="-72.4113241117"><ele>236.52</ele><time>2024-08-13T01:02:24Z</time></trkpt><trkpt lat="-39.2803248111" lon="-72.4115428794"><ele>233.69</ele><time>2024-08-13T01:02:26Z</time></trkpt><trkpt lat="-39.2804481927" lon="-72.4116289616"><ele>232.32</ele><time>2024-08-13T01:02:27Z</time></trkpt><trkpt lat="-39.2805763520" lon="-72.4117024709"><ele>231.26</ele><time>2024-08-13T01:02:28Z</time></trkpt><trkpt lat="-39.2807059363" lon="-72.4117666762"><ele>230.15</ele><time>2024-08-13T01:02:29Z</time></trkpt><trkpt lat="-39.2808363587" lon="-72.4118226673"><ele>229.07</ele><time>2024-08-13T01:02:30Z</time></trkpt><trkpt lat="-39.2813512590" lon="-72.4120172113"><ele>225.95</ele><time>2024-08-13T01:02:34Z</time></trkpt><trkpt lat="-39.2817121837" lon="-72.4121443648"><ele>224.70</ele><time>2024-08-13T01:02:37Z</time></trkpt><trkpt lat="-39.2827570718" lon="-72.4125019368"><ele>223.36</ele><time>2024-08-13T01:02:48Z</time></trkpt><trkpt lat="-39.2841051333" lon="-72.4129601754"><ele>224.24</ele><time>2024-08-13T01:03:03Z</time></trkpt><trkpt lat="-39.2852401268" lon="-72.4133609980"><ele>227.46</ele><time>2024-08-13T01:03:16Z</time></trkpt><trkpt lat="-39.2867159285" lon="-72.4138557818"><ele>228.60</ele><time>2024-08-13T01:03:34Z</time></trkpt><trkpt lat="-39.2884537484" lon="-72.4143664073"><ele>227.02</ele><time>2024-08-13T01:03:54Z</time></trkpt><trkpt lat="-39.2895787675" lon="-72.4141950812"><ele>224.70</ele><time>2024-08-13T01:04:06Z</time></trkpt><trkpt lat="-39.2905607074" lon="-72.4135211762"><ele>223.48</ele><time>2024-08-13T01:04:18Z</time></trkpt><trkpt lat="-39.2912310082" lon="-72.4125346262"><ele>225.74</ele><time>2024-08-13T01:04:31Z</time></trkpt><trkpt lat="-39.2915503588" lon="-72.4116784986"><ele>228.94</ele><time>2024-08-13T01:04:41Z</time></trkpt><trkpt lat="-39.2918565497" lon="-72.4107651226"><ele>231.99</ele><time>2024-08-13T01:04:51Z</time></trkpt><trkpt lat="-39.2922100145" lon="-72.4097640719"><ele>235.02</ele><time>2024-08-13T01:05:02Z</time></trkpt><trkpt lat="-39.2923335638" lon="-72.4093925860"><ele>235.80</ele><time>2024-08-13T01:05:07Z</time></trkpt><trkpt lat="-39.2923355754" lon="-72.4093455635"><ele>235.89</ele><time>2024-08-13T01:05:08Z</time></trkpt><trkpt lat="-39.2923309654" lon="-72.4093079288"><ele>235.91</ele><time>2024-08-13T01:05:09Z</time></trkpt><trkpt lat="-39.2923216615" lon="-72.4092786759"><ele>235.84</ele><time>2024-08-13T01:05:10Z</time></trkpt><trkpt lat="-39.2923091725" lon="-72.4092574697"><ele>235.88</ele><time>2024-08-13T01:05:11Z</time></trkpt><trkpt lat="-39.2922540195" lon="-72.4092151411"><ele>235.88</ele><time>2024-08-13T01:05:14Z</time></trkpt><trkpt lat="-39.2918654345" lon="-72.4090347625"><ele>233.56</ele><time>2024-08-13T01:05:29Z</time></trkpt><trkpt lat="-39.2912303377" lon="-72.4086998217"><ele>232.12</ele><time>2024-08-13T01:05:41Z</time></trkpt><trkpt lat="-39.2910538148" lon="-72.4085916951"><ele>232.10</ele><time>2024-08-13T01:05:45Z</time></trkpt><trkpt lat="-39.2909848318" lon="-72.4083040282"><ele>232.04</ele><time>2024-08-13T01:05:51Z</time></trkpt><trkpt lat="-39.2911795434" lon="-72.4077389203"><ele>232.45</ele><time>2024-08-13T01:06:01Z</time></trkpt><trkpt lat="-39.2914206069" lon="-72.4076667521"><ele>232.99</ele><time>2024-08-13T01:06:08Z</time></trkpt><trkpt lat="-39.2922313046" lon="-72.4082786310"><ele>235.68</ele><time>2024-08-13T01:06:26Z</time></trkpt><trkpt lat="-39.2925888766" lon="-72.4085535575"><ele>237.34</ele><time>2024-08-13T01:06:38Z</time></trkpt><trkpt lat="-39.2925981805" lon="-72.4086934514"><ele>237.12</ele><time>2024-08-13T01:06:43Z</time></trkpt><trkpt lat="-39.2925793212" lon="-72.4087505322"><ele>236.95</ele><time>2024-08-13T01:06:44Z</time></trkpt><trkpt lat="-39.2924099229" lon="-72.4093060009"><ele>235.75</ele><time>2024-08-13T01:06:53Z</time></trkpt><trkpt lat="-39.2925916426" lon="-72.4094708730"><ele>235.55</ele><time>2024-08-13T01:07:02Z</time></trkpt><trkpt lat="-39.2932201177" lon="-72.4098393414"><ele>238.73</ele><time>2024-08-13T01:07:12Z</time></trkpt><trkpt lat="-39.2937004846" lon="-72.4101020303"><ele>242.24</ele><time>2024-08-13T01:07:19Z</time></trkpt><trkpt lat="-39.2939290591" lon="-72.4102209695"><ele>245.77</ele><time>2024-08-13T01:07:23Z</time></trkpt><trkpt lat="-39.2939784285" lon="-72.4102343805"><ele>246.31</ele><time>2024-08-13T01:07:24Z</time></trkpt><trkpt lat="-39.2940277979" lon="-72.4102285970"><ele>246.69</ele><time>2024-08-13T01:07:25Z</time></trkpt><trkpt lat="-39.2940773349" lon="-72.4102046248"><ele>247.12</ele><time>2024-08-13T01:07:26Z</time></trkpt><trkpt lat="-39.2941259500" lon="-72.4101662356"><ele>247.55</ele><time>2024-08-13T01:07:27Z</time></trkpt><trkpt lat="-39.2941736430" lon="-72.4101180397"><ele>247.88</ele><time>2024-08-13T01:07:28Z</time></trkpt><trkpt lat="-39.2943979427" lon="-72.4098364078"><ele>249.33</ele><time>2024-08-13T01:07:35Z</time></trkpt><trkpt lat="-39.2943915725" lon="-72.4097900558"><ele>249.03</ele><time>2024-08-13T01:07:36Z</time></trkpt><trkpt lat="-39.2943746410" lon="-72.4097396806"><ele>250.10</ele><time>2024-08-13T01:07:37Z</time></trkpt><trkpt lat="-39.2943490762" lon="-72.4096848629"><ele>249.88</ele><time>2024-08-13T01:07:38Z</time></trkpt><trkpt lat="-39.2943147942" lon="-72.4096238427"><ele>249.62</ele><time>2024-08-13T01:07:39Z</time></trkpt><trkpt lat="-39.2942755669" lon="-72.4095579609"><ele>249.29</ele><time>2024-08-13T01:07:40Z</time></trkpt><trkpt lat="-39.2940458190" lon="-72.4091234431"><ele>245.90</ele><time>2024-08-13T01:07:46Z</time></trkpt><trkpt lat="-39.2938620877" lon="-72.4087473471"><ele>242.87</ele><time>2024-08-13T01:07:52Z</time></trkpt><trkpt lat="-39.2935068626" lon="-72.4084678106"><ele>242.31</ele><time>2024-08-13T01:08:01Z</time></trkpt><trkpt lat="-39.2928844225" lon="-72.4080722686"><ele>239.15</ele><time>2024-08-13T01:08:12Z</time></trkpt><trkpt lat="-39.2928525712" lon="-72.4080146011"><ele>238.61</ele><time>2024-08-13T01:08:16Z</time></trkpt><trkpt lat="-39.2928504758" lon="-72.4079855997"><ele>238.65</ele><time>2024-08-13T01:08:17Z</time></trkpt><trkpt lat="-39.2928555887" lon="-72.4079474621"><ele>238.72</ele><time>2024-08-13T01:08:18Z</time></trkpt><trkpt lat="-39.2928650603" lon="-72.4079054687"><ele>238.91</ele><time>2024-08-13T01:08:19Z</time></trkpt><trkpt lat="-39.2928796448" lon="-72.4078609608"><ele>238.96</ele><time>2024-08-13T01:08:20Z</time></trkpt><trkpt lat="-39.2928960733" lon="-72.4078157824"><ele>239.22</ele><time>2024-08-13T01:08:21Z</time></trkpt><trkpt lat="-39.2931361310" lon="-72.4071506783"><ele>242.12</ele><time>2024-08-13T01:08:31Z</time></trkpt><trkpt lat="-39.2933992390" lon="-72.4064496160"><ele>245.28</ele><time>2024-08-13T01:08:40Z</time></trkpt><trkpt lat="-39.2934928648" lon="-72.4063202832"><ele>246.29</ele><time>2024-08-13T01:08:45Z</time></trkpt><trkpt lat="-39.2935103830" lon="-72.4063178524"><ele>246.48</ele><time>2024-08-13T01:08:46Z</time></trkpt><trkpt lat="-39.2935336847" lon="-72.4063216243"><ele>247.01</ele><time>2024-08-13T01:08:47Z</time></trkpt><trkpt lat="-39.2935602553" lon="-72.4063315149"><ele>247.46</ele><time>2024-08-13T01:08:48Z</time></trkpt><trkpt lat="-39.2935923580" lon="-72.4063433334"><ele>247.87</ele><time>2024-08-13T01:08:49Z</time></trkpt><trkpt lat="-39.2937894166" lon="-72.4064282421"><ele>249.91</ele><time>2024-08-13T01:08:54Z</time></trkpt><trkpt lat="-39.2943456396" lon="-72.4067666195"><ele>249.70</ele><time>2024-08-13T01:09:04Z</time></trkpt><trkpt lat="-39.2944460548" lon="-72.4068986345"><ele>249.17</ele><time>2024-08-13T01:09:08Z</time></trkpt><trkpt lat="-39.2944410257" lon="-72.4069542065"><ele>249.05</ele><time>2024-08-13T01:09:09Z</time></trkpt><trkpt lat="-39.2944233399" lon="-72.4070146400"><ele>249.01</ele><time>2024-08-13T01:09:10Z</time></trkpt><trkpt lat="-39.2941302247" lon="-72.4078643136"><ele>245.91</ele><time>2024-08-13T01:09:20Z</time></trkpt><trkpt lat="-39.2939146422" lon="-72.4083663058"><ele>243.20</ele><time>2024-08-13T01:09:26Z</time></trkpt><trkpt lat="-39.2938306555" lon="-72.4086426571"><ele>242.06</ele><time>2024-08-13T01:09:31Z</time></trkpt><trkpt lat="-39.2938500177" lon="-72.4086766876"><ele>241.93</ele><time>2024-08-13T01:09:32Z</time></trkpt><trkpt lat="-39.2938843835" lon="-72.4086916074"><ele>241.96</ele><time>2024-08-13T01:09:33Z</time></trkpt><trkpt lat="-39.2939267959" lon="-72.4086870812"><ele>242.12</ele><time>2024-08-13T01:09:34Z</time></trkpt><trkpt lat="-39.2939722259" lon="-72.4086641148"><ele>242.56</ele><time>2024-08-13T01:09:35Z</time></trkpt><trkpt lat="-39.2940215115" lon="-72.4086304195"><ele>242.87</ele><time>2024-08-13T01:09:36Z</time></trkpt><trkpt lat="-39.2943000421" lon="-72.4084019288"><ele>246.55</ele><time>2024-08-13T01:09:41Z</time></trkpt><trkpt lat="-39.2945973482" lon="-72.4081318639"><ele>249.97</ele><time>2024-08-13T01:09:46Z</time></trkpt><trkpt lat="-39.2951179482" lon="-72.4076738767"><ele>253.09</ele><time>2024-08-13T01:09:55Z</time></trkpt><trkpt lat="-39.2953132465" lon="-72.4074646644"><ele>254.88</ele><time>2024-08-13T01:10:01Z</time></trkpt><trkpt lat="-39.2953098938" lon="-72.4074367527"><ele>255.03</ele><time>2024-08-13T01:10:02Z</time></trkpt><trkpt lat="-39.2952930462" lon="-72.4074023869"><ele>255.03</ele><time>2024-08-13T01:10:03Z</time></trkpt><trkpt lat="-39.2952617817" lon="-72.4073648360"><ele>254.93</ele><time>2024-08-13T01:10:04Z</time></trkpt><trkpt lat="-39.2952169385" lon="-72.4073282909"><ele>254.75</ele><time>2024-08-13T01:10:05Z</time></trkpt><trkpt lat="-39.2951631267" lon="-72.4072909914"><ele>254.40</ele><time>2024-08-13T01:10:06Z</time></trkpt><trkpt lat="-39.2950436845" lon="-72.4072102737"><ele>253.52</ele><time>2024-08-13T01:10:08Z</time></trkpt><trkpt lat="-39.2948460393" lon="-72.4070874788"><ele>252.43</ele><time>2024-08-13T01:10:11Z</time></trkpt><trkpt lat="-39.2945517506" lon="-72.4068889115"><ele>249.42</ele><time>2024-08-13T01:10:17Z</time></trkpt><trkpt lat="-39.2945223302" lon="-72.4068335909"><ele>248.68</ele><time>2024-08-13T01:10:19Z</time></trkpt><trkpt lat="-39.2945240904" lon="-72.4067912623"><ele>249.06</ele><time>2024-08-13T01:10:20Z</time></trkpt><trkpt lat="-39.2945342325" lon="-72.4067485984"><ele>249.12</ele><time>2024-08-13T01:10:21Z</time></trkpt><trkpt lat="-39.2945613898" lon="-72.4066556431"><ele>249.53</ele><time>2024-08-13T01:10:23Z</time></trkpt><trkpt lat="-39.2948066443" lon="-72.4059412535"><ele>252.47</ele><time>2024-08-13T01:10:32Z</time></trkpt><trkpt lat="-39.2949970812" lon="-72.4053640757"><ele>253.53</ele><time>2024-08-13T01:10:38Z</time></trkpt><trkpt lat="-39.2949959915" lon="-72.4052637443"><ele>253.91</ele><time>2024-08-13T01:10:39Z</time></trkpt><trkpt lat="-39.2949830834" lon="-72.4051661789"><ele>254.11</ele><time>2024-08-13T01:10:40Z</time></trkpt><trkpt lat="-39.2949550040" lon="-72.4049739819"><ele>253.37</ele><time>2024-08-13T01:10:42Z</time></trkpt><trkpt lat="-39.2949328758" lon="-72.4047022406"><ele>254.86</ele><time>2024-08-13T01:10:49Z</time></trkpt><trkpt lat="-39.2949454486" lon="-72.4046713114"><ele>254.17</ele><time>2024-08-13T01:10:51Z</time></trkpt><trkpt lat="-39.2949583568" lon="-72.4046518654"><ele>254.18</ele><time>2024-08-13T01:10:52Z</time></trkpt><trkpt lat="-39.2949849274" lon="-72.4046294857"><ele>254.35</ele><time>2024-08-13T01:10:53Z</time></trkpt><trkpt lat="-39.2950198799" lon="-72.4046138953"><ele>254.48</ele><time>2024-08-13T01:10:54Z</time></trkpt><trkpt lat="-39.2950607836" lon="-72.4045978021"><ele>254.60</ele><time>2024-08-13T01:10:55Z</time></trkpt><trkpt lat="-39.2957040109" lon="-72.4044201896"><ele>256.36</ele><time>2024-08-13T01:11:04Z</time></trkpt><trkpt lat="-39.2959356867" lon="-72.4043906853"><ele>256.32</ele><time>2024-08-13T01:11:09Z</time></trkpt><trkpt lat="-39.2959580664" lon="-72.4044185970"><ele>256.29</ele><time>2024-08-13T01:11:10Z</time></trkpt><trkpt lat="-39.2959744111" lon="-72.4044592492"><ele>256.38</ele><time>2024-08-13T01:11:11Z</time></trkpt><trkpt lat="-39.2959899176" lon="-72.4045149889"><ele>256.50</ele><time>2024-08-13T01:11:12Z</time></trkpt><trkpt lat="-39.2960040830" lon="-72.4045822956"><ele>256.51</ele><time>2024-08-13T01:11:13Z</time></trkpt><trkpt lat="-39.2960168235" lon="-72.4046614207"><ele>256.70</ele><time>2024-08-13T01:11:14Z</time></trkpt><trkpt lat="-39.2960319947" lon="-72.4047513586"><ele>256.63</ele><time>2024-08-13T01:11:15Z</time></trkpt><trkpt lat="-39.2961952742" lon="-72.4055971764"><ele>256.19</ele><time>2024-08-13T01:11:24Z</time></trkpt><trkpt lat="-39.2961961962" lon="-72.4056536704"><ele>256.07</ele><time>2024-08-13T01:11:25Z</time></trkpt><trkpt lat="-39.2961888202" lon="-72.4057027046"><ele>256.01</ele><time>2024-08-13T01:11:26Z</time></trkpt><trkpt lat="-39.2961700447" lon="-72.4057448655"><ele>255.96</ele><time>2024-08-13T01:11:27Z</time></trkpt><trkpt lat="-39.2961404566" lon="-72.4057686701"><ele>256.12</ele><time>2024-08-13T01:11:28Z</time></trkpt><trkpt lat="-39.2960991338" lon="-72.4057845119"><ele>256.26</ele><time>2024-08-13T01:11:29Z</time></trkpt><trkpt lat="-39.2960454896" lon="-72.4057984259"><ele>256.36</ele><time>2024-08-13T01:11:30Z</time></trkpt><trkpt lat="-39.2959824577" lon="-72.4058141839"><ele>256.40</ele><time>2024-08-13T01:11:31Z</time></trkpt><trkpt lat="-39.2952673975" lon="-72.4060254078"><ele>254.81</ele><time>2024-08-13T01:11:41Z</time></trkpt><trkpt lat="-39.2952329479" lon="-72.4060448539"><ele>254.68</ele><time>2024-08-13T01:11:42Z</time></trkpt><trkpt lat="-39.2952067126" lon="-72.4060736038"><ele>254.61</ele><time>2024-08-13T01:11:43Z</time></trkpt><trkpt lat="-39.2951909546" lon="-72.4061152618"><ele>254.52</ele><time>2024-08-13T01:11:44Z</time></trkpt><trkpt lat="-39.2951840814" lon="-72.4061728455"><ele>254.75</ele><time>2024-08-13T01:11:45Z</time></trkpt><trkpt lat="-39.2951857578" lon="-72.4062451813"><ele>254.71</ele><time>2024-08-13T01:11:46Z</time></trkpt><trkpt lat="-39.2951960675" lon="-72.4063259829"><ele>254.81</ele><time>2024-08-13T01:11:47Z</time></trkpt><trkpt lat="-39.2952123284" lon="-72.4064139090"><ele>254.87</ele><time>2024-08-13T01:11:48Z</time></trkpt><trkpt lat="-39.2953947186" lon="-72.4073095992"><ele>255.34</ele><time>2024-08-13T01:11:59Z</time></trkpt><trkpt lat="-39.2954396456" lon="-72.4073759839"><ele>255.20</ele><time>2024-08-13T01:12:01Z</time></trkpt><trkpt lat="-39.2954740115" lon="-72.4073908199"><ele>255.17</ele><time>2024-08-13T01:12:02Z</time></trkpt><trkpt lat="-39.2955143284" lon="-72.4073922448"><ele>255.19</ele><time>2024-08-13T01:12:03Z</time></trkpt><trkpt lat="-39.2956095468" lon="-72.4073733855"><ele>255.49</ele><time>2024-08-13T01:12:05Z</time></trkpt><trkpt lat="-39.2963831965" lon="-72.4071168993"><ele>255.69</ele><time>2024-08-13T01:12:16Z</time></trkpt><trkpt lat="-39.2967961729" lon="-72.4069244508"><ele>254.58</ele><time>2024-08-13T01:12:25Z</time></trkpt><trkpt lat="-39.2968724482" lon="-72.4067516159"><ele>254.81</ele><time>2024-08-13T01:12:30Z</time></trkpt><trkpt lat="-39.2969043832" lon="-72.4067191780"><ele>254.99</ele><time>2024-08-13T01:12:31Z</time></trkpt><trkpt lat="-39.2969350610" lon="-72.4066841416"><ele>255.16</ele><time>2024-08-13T01:12:32Z</time></trkpt><trkpt lat="-39.2969607934" lon="-72.4066421483"><ele>255.51</ele><time>2024-08-13T01:12:33Z</time></trkpt><trkpt lat="-39.2969797365" lon="-72.4065971375"><ele>255.62</ele><time>2024-08-13T01:12:34Z</time></trkpt><trkpt lat="-39.2969988473" lon="-72.4063078780"><ele>256.68</ele><time>2024-08-13T01:12:40Z</time></trkpt><trkpt lat="-39.2969346419" lon="-72.4060791358"><ele>256.57</ele><time>2024-08-13T01:12:44Z</time></trkpt><trkpt lat="-39.2969055567" lon="-72.4058952369"><ele>256.65</ele><time>2024-08-13T01:12:47Z</time></trkpt><trkpt lat="-39.2970610410" lon="-72.4056375772"><ele>256.59</ele><time>2024-08-13T01:12:54Z</time></trkpt><trkpt lat="-39.2971794773" lon="-72.4055904709"><ele>256.54</ele><time>2024-08-13T01:12:58Z</time></trkpt><trkpt lat="-39.2971948162" lon="-72.4054235872"><ele>256.80</ele><time>2024-08-13T01:13:02Z</time></trkpt><trkpt lat="-39.2971362267" lon="-72.4050313979"><ele>257.53</ele><time>2024-08-13T01:13:09Z</time></trkpt><trkpt lat="-39.2971379869" lon="-72.4049768317"><ele>257.59</ele><time>2024-08-13T01:13:10Z</time></trkpt><trkpt lat="-39.2971477937" lon="-72.4049264565"><ele>257.59</ele><time>2024-08-13T01:13:11Z</time></trkpt><trkpt lat="-39.2971638031" lon="-72.4048825353"><ele>257.92</ele><time>2024-08-13T01:13:12Z</time></trkpt><trkpt lat="-39.2971827462" lon="-72.4048455711"><ele>258.08</ele><time>2024-08-13T01:13:13Z</time></trkpt><trkpt lat="-39.2972026952" lon="-72.4048148096"><ele>258.26</ele><time>2024-08-13T01:13:14Z</time></trkpt><trkpt lat="-39.2972176988" lon="-72.4047891609"><ele>258.43</ele><time>2024-08-13T01:13:15Z</time></trkpt><trkpt lat="-39.2972282600" lon="-72.4047676194"><ele>258.51</ele><time>2024-08-13T01:13:16Z</time></trkpt><trkpt lat="-39.2972344626" lon="-72.4047498498"><ele>258.61</ele><time>2024-08-13T01:13:17Z</time></trkpt><trkpt lat="-39.2972392403" lon="-72.4047314934"><ele>258.68</ele><time>2024-08-13T01:13:18Z</time></trkpt><trkpt lat="-39.2972320318" lon="-72.4045626819"><ele>258.98</ele><time>2024-08-13T01:13:26Z</time></trkpt><trkpt lat="-39.2972217221" lon="-72.4045138992"><ele>259.13</ele><time>2024-08-13T01:13:27Z</time></trkpt><trkpt lat="-39.2972097360" lon="-72.4044525437"><ele>259.27</ele><time>2024-08-13T01:13:28Z</time></trkpt><trkpt lat="-39.2970952392" lon="-72.4037845060"><ele>259.73</ele><time>2024-08-13T01:13:37Z</time></trkpt><trkpt lat="-39.2971066386" lon="-72.4037402496"><ele>259.66</ele><time>2024-08-13T01:13:38Z</time></trkpt><trkpt lat="-39.2971308623" lon="-72.4037049618"><ele>259.79</ele><time>2024-08-13T01:13:39Z</time></trkpt><trkpt lat="-39.2971663177" lon="-72.4036787264"><ele>259.98</ele><time>2024-08-13T01:13:40Z</time></trkpt><trkpt lat="-39.2972099874" lon="-72.4036581069"><ele>260.19</ele><time>2024-08-13T01:13:41Z</time></trkpt><trkpt lat="-39.2972643021" lon="-72.4036434386"><ele>260.19</ele><time>2024-08-13T01:13:42Z</time></trkpt><trkpt lat="-39.2973244842" lon="-72.4036299437"><ele>260.46</ele><time>2024-08-13T01:13:43Z</time></trkpt><trkpt lat="-39.2977801245" lon="-72.4035101663"><ele>260.95</ele><time>2024-08-13T01:13:51Z</time></trkpt><trkpt lat="-39.2978257220" lon="-72.4035155308"><ele>260.93</ele><time>2024-08-13T01:13:52Z</time></trkpt><trkpt lat="-39.2978695594" lon="-72.4035400059"><ele>260.85</ele><time>2024-08-13T01:13:53Z</time></trkpt><trkpt lat="-39.2979107145" lon="-72.4035887886"><ele>260.76</ele><time>2024-08-13T01:13:54Z</time></trkpt><trkpt lat="-39.2979496904" lon="-72.4036488030"><ele>260.79</ele><time>2024-08-13T01:13:55Z</time></trkpt><trkpt lat="-39.2979895882" lon="-72.4037148524"><ele>260.69</ele><time>2024-08-13T01:13:56Z</time></trkpt><trkpt lat="-39.2985505890" lon="-72.4046004843"><ele>258.51</ele><time>2024-08-13T01:14:09Z</time></trkpt><trkpt lat="-39.2986005452" lon="-72.4046373647"><ele>258.46</ele><time>2024-08-13T01:14:10Z</time></trkpt><trkpt lat="-39.2986570392" lon="-72.4046593253"><ele>258.32</ele><time>2024-08-13T01:14:11Z</time></trkpt><trkpt lat="-39.2987201549" lon="-72.4046590738"><ele>258.29</ele><time>2024-08-13T01:14:12Z</time></trkpt><trkpt lat="-39.2987866234" lon="-72.4046433996"><ele>258.07</ele><time>2024-08-13T01:14:13Z</time></trkpt><trkpt lat="-39.2988531757" lon="-72.4046247918"><ele>258.08</ele><time>2024-08-13T01:14:14Z</time></trkpt><trkpt lat="-39.2993523180" lon="-72.4044598360"><ele>256.97</ele><time>2024-08-13T01:14:23Z</time></trkpt><trkpt lat="-39.2999751773" lon="-72.4043095484"><ele>257.02</ele><time>2024-08-13T01:14:32Z</time></trkpt><trkpt lat="-39.3000459205" lon="-72.4042957183"><ele>257.06</ele><time>2024-08-13T01:14:33Z</time></trkpt><trkpt lat="-39.3003666122" lon="-72.4042016733"><ele>257.75</ele><time>2024-08-13T01:14:38Z</time></trkpt><trkpt lat="-39.3004129641" lon="-72.4041645415"><ele>258.16</ele><time>2024-08-13T01:14:39Z</time></trkpt><trkpt lat="-39.3004402891" lon="-72.4041159265"><ele>258.57</ele><time>2024-08-13T01:14:40Z</time></trkpt><trkpt lat="-39.3004483357" lon="-72.4040561635"><ele>258.82</ele><time>2024-08-13T01:14:41Z</time></trkpt><trkpt lat="-39.3004390318" lon="-72.4039839953"><ele>258.85</ele><time>2024-08-13T01:14:42Z</time></trkpt><trkpt lat="-39.3004239444" lon="-72.4039077200"><ele>259.17</ele><time>2024-08-13T01:14:43Z</time></trkpt><trkpt lat="-39.3004077673" lon="-72.4038261641"><ele>259.42</ele><time>2024-08-13T01:14:44Z</time></trkpt><trkpt lat="-39.3003150634" lon="-72.4033371639"><ele>262.52</ele><time>2024-08-13T01:14:50Z</time></trkpt><trkpt lat="-39.3002532888" lon="-72.4029909912"><ele>265.60</ele><time>2024-08-13T01:14:55Z</time></trkpt><trkpt lat="-39.3000957090" lon="-72.4028445594"><ele>265.32</ele><time>2024-08-13T01:15:03Z</time></trkpt><trkpt lat="-39.2999033444" lon="-72.4029104412"><ele>263.15</ele><time>2024-08-13T01:15:07Z</time></trkpt><trkpt lat="-39.2993585207" lon="-72.4030598905"><ele>259.92</ele><time>2024-08-13T01:15:15Z</time></trkpt><trkpt lat="-39.2987853661" lon="-72.4032415263"><ele>259.74</ele><time>2024-08-13T01:15:26Z</time></trkpt><trkpt lat="-39.2981303204" lon="-72.4034003634"><ele>259.90</ele><time>2024-08-13T01:15:37Z</time></trkpt><trkpt lat="-39.2981003970" lon="-72.4033801630"><ele>260.02</ele><time>2024-08-13T01:15:38Z</time></trkpt><trkpt lat="-39.2980760895" lon="-72.4033441208"><ele>260.10</ele><time>2024-08-13T01:15:39Z</time></trkpt><trkpt lat="-39.2980573978" lon="-72.4032939132"><ele>260.37</ele><time>2024-08-13T01:15:40Z</time></trkpt><trkpt lat="-39.2980427295" lon="-72.4032359105"><ele>260.51</ele><time>2024-08-13T01:15:41Z</time></trkpt><trkpt lat="-39.2980288994" lon="-72.4031712022"><ele>260.62</ele><time>2024-08-13T01:15:42Z</time></trkpt><trkpt lat="-39.2978800368" lon="-72.4022047687"><ele>262.03</ele><time>2024-08-13T01:15:55Z</time></trkpt><trkpt lat="-39.2978748400" lon="-72.4021548964"><ele>262.05</ele><time>2024-08-13T01:15:56Z</time></trkpt><trkpt lat="-39.2978808749" lon="-72.4021077063"><ele>262.00</ele><time>2024-08-13T01:15:57Z</time></trkpt><trkpt lat="-39.2978996504" lon="-72.4020673055"><ele>262.10</ele><time>2024-08-13T01:15:58Z</time></trkpt><trkpt lat="-39.2979299929" lon="-72.4020377174"><ele>262.28</ele><time>2024-08-13T01:15:59Z</time></trkpt><trkpt lat="-39.2979688849" lon="-72.4020161759"><ele>262.35</ele><time>2024-08-13T01:16:00Z</time></trkpt><trkpt lat="-39.2980152369" lon="-72.4019999150"><ele>262.45</ele><time>2024-08-13T01:16:01Z</time></trkpt><trkpt lat="-39.2980678752" lon="-72.4019801337"><ele>262.48</ele><time>2024-08-13T01:16:02Z</time></trkpt><trkpt lat="-39.2981868144" lon="-72.4019396491"><ele>262.45</ele><time>2024-08-13T01:16:04Z</time></trkpt><trkpt lat="-39.2987273633" lon="-72.4017774593"><ele>263.46</ele><time>2024-08-13T01:16:16Z</time></trkpt><trkpt lat="-39.2990296986" lon="-72.4016975798"><ele>265.20</ele><time>2024-08-13T01:16:26Z</time></trkpt><trkpt lat="-39.2997614387" lon="-72.4014956597"><ele>268.44</ele><time>2024-08-13T01:16:37Z</time></trkpt><trkpt lat="-39.2998673022" lon="-72.4014633056"><ele>268.74</ele><time>2024-08-13T01:16:39Z</time></trkpt><trkpt lat="-39.2999015842" lon="-72.4014461227"><ele>268.87</ele><time>2024-08-13T01:16:40Z</time></trkpt><trkpt lat="-39.2999263108" lon="-72.4014229886"><ele>268.98</ele><time>2024-08-13T01:16:41Z</time></trkpt><trkpt lat="-39.2999466788" lon="-72.4013864435"><ele>269.07</ele><time>2024-08-13T01:16:42Z</time></trkpt><trkpt lat="-39.2999589164" lon="-72.4013354816"><ele>269.12</ele><time>2024-08-13T01:16:43Z</time></trkpt><trkpt lat="-39.2999592517" lon="-72.4012692645"><ele>268.89</ele><time>2024-08-13T01:16:44Z</time></trkpt><trkpt lat="-39.2999509536" lon="-72.4011905584"><ele>268.88</ele><time>2024-08-13T01:16:45Z</time></trkpt><trkpt lat="-39.2999385484" lon="-72.4011034705"><ele>268.49</ele><time>2024-08-13T01:16:46Z</time></trkpt><trkpt lat="-39.2997855786" lon="-72.4001895078"><ele>266.47</ele><time>2024-08-13T01:16:56Z</time></trkpt><trkpt lat="-39.2997580022" lon="-72.4001353607"><ele>266.40</ele><time>2024-08-13T01:16:57Z</time></trkpt><trkpt lat="-39.2997238878" lon="-72.4001009110"><ele>266.21</ele><time>2024-08-13T01:16:58Z</time></trkpt><trkpt lat="-39.2996854987" lon="-72.4000885058"><ele>266.05</ele><time>2024-08-13T01:16:59Z</time></trkpt><trkpt lat="-39.2996425834" lon="-72.4000943732"><ele>265.87</ele><time>2024-08-13T01:17:00Z</time></trkpt><trkpt lat="-39.2995928787" lon="-72.4001077842"><ele>265.80</ele><time>2024-08-13T01:17:01Z</time></trkpt><trkpt lat="-39.2995371390" lon="-72.4001265597"><ele>265.64</ele><time>2024-08-13T01:17:02Z</time></trkpt><trkpt lat="-39.2987764813" lon="-72.4003435671"><ele>263.20</ele><time>2024-08-13T01:17:14Z</time></trkpt><trkpt lat="-39.2982822005" lon="-72.4005024880"><ele>262.78</ele><time>2024-08-13T01:17:24Z</time></trkpt><trkpt lat="-39.2974533141" lon="-72.4006883148"><ele>260.34</ele><time>2024-08-13T01:17:38Z</time></trkpt><trkpt lat="-39.2971472070" lon="-72.4007014744"><ele>256.76</ele><time>2024-08-13T01:17:42Z</time></trkpt><trkpt lat="-39.2969845142" lon="-72.4007113650"><ele>256.11</ele><time>2024-08-13T01:17:44Z</time></trkpt><trkpt lat="-39.2965148762" lon="-72.4007398635"><ele>254.56</ele><time>2024-08-13T01:17:53Z</time></trkpt><trkpt lat="-39.2964886408" lon="-72.4007172324"><ele>254.57</ele><time>2024-08-13T01:17:54Z</time></trkpt><trkpt lat="-39.2964671832" lon="-72.4006776698"><ele>254.59</ele><time>2024-08-13T01:17:55Z</time></trkpt><trkpt lat="-39.2964489944" lon="-72.4006270431"><ele>254.70</ele><time>2024-08-13T01:17:56Z</time></trkpt><trkpt lat="-39.2963346653" lon="-72.4003413878"><ele>254.80</ele><time>2024-08-13T01:18:00Z</time></trkpt><trkpt lat="-39.2962908279" lon="-72.4002657831"><ele>254.75</ele><time>2024-08-13T01:18:01Z</time></trkpt><trkpt lat="-39.2962397821" lon="-72.4001924414"><ele>254.81</ele><time>2024-08-13T01:18:02Z</time></trkpt><trkpt lat="-39.2961304821" lon="-72.4000599235"><ele>254.73</ele><time>2024-08-13T01:18:04Z</time></trkpt><trkpt lat="-39.2960695457" lon="-72.4000057764"><ele>254.82</ele><time>2024-08-13T01:18:05Z</time></trkpt><trkpt lat="-39.2960087769" lon="-72.3999648727"><ele>254.71</ele><time>2024-08-13T01:18:06Z</time></trkpt><trkpt lat="-39.2959477566" lon="-72.3999341112"><ele>254.82</ele><time>2024-08-13T01:18:07Z</time></trkpt><trkpt lat="-39.2958882451" lon="-72.3999132402"><ele>254.92</ele><time>2024-08-13T01:18:08Z</time></trkpt><trkpt lat="-39.2958358582" lon="-72.3998987395"><ele>255.34</ele><time>2024-08-13T01:18:09Z</time></trkpt><trkpt lat="-39.2957915179" lon="-72.3998914473"><ele>255.56</ele><time>2024-08-13T01:18:10Z</time></trkpt><trkpt lat="-39.2956161685" lon="-72.3997348733"><ele>255.75</ele><time>2024-08-13T01:18:17Z</time></trkpt><trkpt lat="-39.2956015840" lon="-72.3996739369"><ele>255.83</ele><time>2024-08-13T01:18:18Z</time></trkpt><trkpt lat="-39.2954110634" lon="-72.3987602256"><ele>257.17</ele><time>2024-08-13T01:18:28Z</time></trkpt><trkpt lat="-39.2951184511" lon="-72.3973736912"><ele>260.48</ele><time>2024-08-13T01:18:41Z</time></trkpt><trkpt lat="-39.2949897051" lon="-72.3965821881"><ele>263.86</ele><time>2024-08-13T01:18:48Z</time></trkpt><trkpt lat="-39.2949878611" lon="-72.3952946439"><ele>266.99</ele><time>2024-08-13T01:18:59Z</time></trkpt><trkpt lat="-39.2949867714" lon="-72.3936011642"><ele>269.60</ele><time>2024-08-13T01:19:13Z</time></trkpt><trkpt lat="-39.2947596218" lon="-72.3921777494"><ele>269.68</ele><time>2024-08-13T01:19:25Z</time></trkpt><trkpt lat="-39.2941536941" lon="-72.3906290252"><ele>269.48</ele><time>2024-08-13T01:19:40Z</time></trkpt><trkpt lat="-39.2934947088" lon="-72.3893500306"><ele>269.27</ele><time>2024-08-13T01:19:54Z</time></trkpt><trkpt lat="-39.2934345268" lon="-72.3891555704"><ele>269.35</ele><time>2024-08-13T01:19:56Z</time></trkpt><trkpt lat="-39.2934281565" lon="-72.3890524730"><ele>269.25</ele><time>2024-08-13T01:19:57Z</time></trkpt><trkpt lat="-39.2934336886" lon="-72.3889466934"><ele>269.19</ele><time>2024-08-13T01:19:58Z</time></trkpt><trkpt lat="-39.2934460938" lon="-72.3888402432"><ele>269.38</ele><time>2024-08-13T01:19:59Z</time></trkpt><trkpt lat="-39.2934632767" lon="-72.3887333740"><ele>269.54</ele><time>2024-08-13T01:20:00Z</time></trkpt><trkpt lat="-39.2938392051" lon="-72.3869476095"><ele>270.52</ele><time>2024-08-13T01:20:16Z</time></trkpt><trkpt lat="-39.2940910812" lon="-72.3856689502"><ele>272.87</ele><time>2024-08-13T01:20:30Z</time></trkpt><trkpt lat="-39.2942910735" lon="-72.3846989125"><ele>275.99</ele><time>2024-08-13T01:20:39Z</time></trkpt><trkpt lat="-39.2945492361" lon="-72.3834204208"><ele>279.07</ele><time>2024-08-13T01:20:50Z</time></trkpt><trkpt lat="-39.2948685866" lon="-72.3817190621"><ele>279.72</ele><time>2024-08-13T01:21:04Z</time></trkpt><trkpt lat="-39.2951828241" lon="-72.3801355530"><ele>277.55</ele><time>2024-08-13T01:21:17Z</time></trkpt><trkpt lat="-39.2953783739" lon="-72.3791318201"><ele>274.61</ele><time>2024-08-13T01:21:25Z</time></trkpt><trkpt lat="-39.2956043500" lon="-72.3780239839"><ele>271.60</ele><time>2024-08-13T01:21:34Z</time></trkpt><trkpt lat="-39.2959934380" lon="-72.3761445936"><ele>270.27</ele><time>2024-08-13T01:21:50Z</time></trkpt><trkpt lat="-39.2963479087" lon="-72.3744413909"><ele>268.15</ele><time>2024-08-13T01:22:04Z</time></trkpt><trkpt lat="-39.2965328973" lon="-72.3735923041"><ele>266.63</ele><time>2024-08-13T01:22:15Z</time></trkpt><trkpt lat="-39.2965269461" lon="-72.3735714331"><ele>266.74</ele><time>2024-08-13T01:22:16Z</time></trkpt><trkpt lat="-39.2965070810" lon="-72.3735482991"><ele>266.51</ele><time>2024-08-13T01:22:19Z</time></trkpt><trkpt lat="-39.2965297122" lon="-72.3735737801"><ele>266.88</ele><time>2024-08-13T01:22:32Z</time></trkpt><trkpt lat="-39.2964812648" lon="-72.3737611156"><ele>267.11</ele><time>2024-08-13T01:22:36Z</time></trkpt><trkpt lat="-39.2963101063" lon="-72.3746258765"><ele>268.14</ele><time>2024-08-13T01:22:44Z</time></trkpt><trkpt lat="-39.2959108762" lon="-72.3764868267"><ele>270.06</ele><time>2024-08-13T01:23:00Z</time></trkpt><trkpt lat="-39.2955530528" lon="-72.3781953938"><ele>271.51</ele><time>2024-08-13T01:23:14Z</time></trkpt><trkpt lat="-39.2952995840" lon="-72.3794939183"><ele>274.72</ele><time>2024-08-13T01:23:26Z</time></trkpt><trkpt lat="-39.2950383201" lon="-72.3806837294"><ele>277.85</ele><time>2024-08-13T01:23:37Z</time></trkpt><trkpt lat="-39.2946543451" lon="-72.3826803826"><ele>279.31</ele><time>2024-08-13T01:23:54Z</time></trkpt><trkpt lat="-39.2943421192" lon="-72.3844858445"><ele>276.00</ele><time>2024-08-13T01:24:09Z</time></trkpt><trkpt lat="-39.2941448092" lon="-72.3854688741"><ele>272.76</ele><time>2024-08-13T01:24:18Z</time></trkpt><trkpt lat="-39.2938516941" lon="-72.3868701607"><ele>269.58</ele><time>2024-08-13T01:24:30Z</time></trkpt><trkpt lat="-39.2934693955" lon="-72.3887199629"><ele>268.58</ele><time>2024-08-13T01:24:47Z</time></trkpt><trkpt lat="-39.2934100516" lon="-72.3891583364"><ele>268.47</ele><time>2024-08-13T01:24:51Z</time></trkpt><trkpt lat="-39.2934223730" lon="-72.3892684747"><ele>268.38</ele><time>2024-08-13T01:24:52Z</time></trkpt><trkpt lat="-39.2934443336" lon="-72.3893786967"><ele>268.40</ele><time>2024-08-13T01:24:53Z</time></trkpt><trkpt lat="-39.2934792023" lon="-72.3894853983"><ele>268.28</ele><time>2024-08-13T01:24:54Z</time></trkpt><trkpt lat="-39.2935154960" lon="-72.3895905912"><ele>268.27</ele><time>2024-08-13T01:24:55Z</time></trkpt><trkpt lat="-39.2941496707" lon="-72.3908128403"><ele>268.03</ele><time>2024-08-13T01:25:08Z</time></trkpt><trkpt lat="-39.2947914731" lon="-72.3924476467"><ele>268.32</ele><time>2024-08-13T01:25:24Z</time></trkpt><trkpt lat="-39.2950028647" lon="-72.3940439802"><ele>268.04</ele><time>2024-08-13T01:25:38Z</time></trkpt><trkpt lat="-39.2949816585" lon="-72.3957026750"><ele>264.77</ele><time>2024-08-13T01:25:52Z</time></trkpt><trkpt lat="-39.2949616257" lon="-72.3965435475"><ele>262.05</ele><time>2024-08-13T01:26:02Z</time></trkpt><trkpt lat="-39.2949317861" lon="-72.3965635803"><ele>262.04</ele><time>2024-08-13T01:26:03Z</time></trkpt><trkpt lat="-39.2948948219" lon="-72.3965741415"><ele>262.05</ele><time>2024-08-13T01:26:04Z</time></trkpt><trkpt lat="-39.2948639765" lon="-72.3965727165"><ele>262.05</ele><time>2024-08-13T01:26:05Z</time></trkpt><trkpt lat="-39.2948242463" lon="-72.3965617362"><ele>262.37</ele><time>2024-08-13T01:26:06Z</time></trkpt><trkpt lat="-39.2947763857" lon="-72.3965412006"><ele>262.46</ele><time>2024-08-13T01:26:07Z</time></trkpt><trkpt lat="-39.2947258428" lon="-72.3965231795"><ele>262.58</ele><time>2024-08-13T01:26:08Z</time></trkpt><trkpt lat="-39.2939741537" lon="-72.3962158151"><ele>264.08</ele><time>2024-08-13T01:26:19Z</time></trkpt><trkpt lat="-39.2936073616" lon="-72.3960600793"><ele>265.89</ele><time>2024-08-13T01:26:24Z</time></trkpt><trkpt lat="-39.2926325463" lon="-72.3955964763"><ele>268.90</ele><time>2024-08-13T01:26:37Z</time></trkpt><trkpt lat="-39.2922996171" lon="-72.3954743519"><ele>270.22</ele><time>2024-08-13T01:26:45Z</time></trkpt><trkpt lat="-39.2922608089" lon="-72.3954551574"><ele>270.23</ele><time>2024-08-13T01:26:46Z</time></trkpt><trkpt lat="-39.2922255211" lon="-72.3954341188"><ele>270.43</ele><time>2024-08-13T01:26:47Z</time></trkpt><trkpt lat="-39.2922023032" lon="-72.3954130802"><ele>270.67</ele><time>2024-08-13T01:26:48Z</time></trkpt><trkpt lat="-39.2921874672" lon="-72.3953981604"><ele>271.01</ele><time>2024-08-13T01:26:49Z</time></trkpt><trkpt lat="-39.2921727989" lon="-72.3953927960"><ele>271.27</ele><time>2024-08-13T01:26:50Z</time></trkpt><trkpt lat="-39.2921575438" lon="-72.3953961488"><ele>271.62</ele><time>2024-08-13T01:26:51Z</time></trkpt><trkpt lat="-39.2921391875" lon="-72.3954077996"><ele>271.84</ele><time>2024-08-13T01:26:52Z</time></trkpt><trkpt lat="-39.2921262793" lon="-72.3954270780"><ele>272.05</ele><time>2024-08-13T01:26:53Z</time></trkpt><trkpt lat="-39.2921207473" lon="-72.3954477813"><ele>272.08</ele><time>2024-08-13T01:26:54Z</time></trkpt><trkpt lat="-39.2921880540" lon="-72.3954631202"><ele>271.17</ele><time>2024-08-13T01:27:04Z</time></trkpt><trkpt lat="-39.2922275327" lon="-72.3954637907"><ele>270.48</ele><time>2024-08-13T01:27:05Z</time></trkpt><trkpt lat="-39.2922711186" lon="-72.3954770342"><ele>270.03</ele><time>2024-08-13T01:27:06Z</time></trkpt><trkpt lat="-39.2923159618" lon="-72.3955019284"><ele>269.86</ele><time>2024-08-13T01:27:07Z</time></trkpt><trkpt lat="-39.2923574522" lon="-72.3955287505"><ele>269.65</ele><time>2024-08-13T01:27:08Z</time></trkpt><trkpt lat="-39.2924064025" lon="-72.3955574166"><ele>269.47</ele><time>2024-08-13T01:27:09Z</time></trkpt><trkpt lat="-39.2924622260" lon="-72.3955820594"><ele>269.43</ele><time>2024-08-13T01:27:10Z</time></trkpt><trkpt lat="-39.2925196420" lon="-72.3956068698"><ele>269.25</ele><time>2024-08-13T01:27:11Z</time></trkpt><trkpt lat="-39.2933060322" lon="-72.3959365301"><ele>266.76</ele><time>2024-08-13T01:27:21Z</time></trkpt><trkpt lat="-39.2942099366" lon="-72.3963179067"><ele>263.43</ele><time>2024-08-13T01:27:31Z</time></trkpt><trkpt lat="-39.2949295230" lon="-72.3966220859"><ele>261.62</ele><time>2024-08-13T01:27:42Z</time></trkpt><trkpt lat="-39.2949884478" lon="-72.3967595492"><ele>261.25</ele><time>2024-08-13T01:27:46Z</time></trkpt><trkpt lat="-39.2951523978" lon="-72.3975484539"><ele>258.85</ele><time>2024-08-13T01:27:54Z</time></trkpt><trkpt lat="-39.2952503823" lon="-72.3979558144"><ele>257.26</ele><time>2024-08-13T01:27:57Z</time></trkpt><trkpt lat="-39.2954883445" lon="-72.3990630638"><ele>254.86</ele><time>2024-08-13T01:28:07Z</time></trkpt><trkpt lat="-39.2956325132" lon="-72.3998574167"><ele>253.82</ele><time>2024-08-13T01:28:16Z</time></trkpt><trkpt lat="-39.2956302501" lon="-72.3999445885"><ele>253.57</ele><time>2024-08-13T01:28:17Z</time></trkpt><trkpt lat="-39.2956151627" lon="-72.4000315927"><ele>253.32</ele><time>2024-08-13T01:28:18Z</time></trkpt><trkpt lat="-39.2955953814" lon="-72.4001163337"><ele>253.00</ele><time>2024-08-13T01:28:19Z</time></trkpt><trkpt lat="-39.2955718283" lon="-72.4001988117"><ele>252.53</ele><time>2024-08-13T01:28:20Z</time></trkpt><trkpt lat="-39.2953961436" lon="-72.4013281055"><ele>249.60</ele><time>2024-08-13T01:28:33Z</time></trkpt><trkpt lat="-39.2956053559" lon="-72.4025511090"><ele>250.59</ele><time>2024-08-13T01:28:46Z</time></trkpt><trkpt lat="-39.2957692221" lon="-72.4033840187"><ele>253.74</ele><time>2024-08-13T01:28:55Z</time></trkpt><trkpt lat="-39.2958494369" lon="-72.4038944766"><ele>253.73</ele><time>2024-08-13T01:29:04Z</time></trkpt><trkpt lat="-39.2958586570" lon="-72.4039352126"><ele>253.86</ele><time>2024-08-13T01:29:08Z</time></trkpt><trkpt lat="-39.2958646920" lon="-72.4039642140"><ele>254.19</ele><time>2024-08-13T01:29:09Z</time></trkpt><trkpt lat="-39.2958734930" lon="-72.4039991666"><ele>253.98</ele><time>2024-08-13T01:29:10Z</time></trkpt><trkpt lat="-39.2958853953" lon="-72.4040401541"><ele>254.02</ele><time>2024-08-13T01:29:11Z</time></trkpt><trkpt lat="-39.2958972137" lon="-72.4040873442"><ele>254.11</ele><time>2024-08-13T01:29:12Z</time></trkpt><trkpt lat="-39.2959091999" lon="-72.4041379709"><ele>254.12</ele><time>2024-08-13T01:29:13Z</time></trkpt><trkpt lat="-39.2959163245" lon="-72.4043101352"><ele>254.01</ele><time>2024-08-13T01:29:17Z</time></trkpt><trkpt lat="-39.2958971299" lon="-72.4043382984"><ele>253.89</ele><time>2024-08-13T01:29:18Z</time></trkpt><trkpt lat="-39.2958733253" lon="-72.4043529667"><ele>253.78</ele><time>2024-08-13T01:29:19Z</time></trkpt><trkpt lat="-39.2958485149" lon="-72.4043559842"><ele>253.67</ele><time>2024-08-13T01:29:20Z</time></trkpt><trkpt lat="-39.2958221957" lon="-72.4043564033"><ele>253.51</ele><time>2024-08-13T01:29:21Z</time></trkpt><trkpt lat="-39.2957991455" lon="-72.4043557327"><ele>253.41</ele><time>2024-08-13T01:29:22Z</time></trkpt><trkpt lat="-39.2957431544" lon="-72.4043637794"><ele>252.88</ele><time>2024-08-13T01:29:35Z</time></trkpt><trkpt lat="-39.2957143206" lon="-72.4043349456"><ele>253.11</ele><time>2024-08-13T01:30:14Z</time></trkpt><trkpt lat="-39.2957253009" lon="-72.4043339398"><ele>253.73</ele><time>2024-08-13T01:30:48Z</time></trkpt><trkpt lat="-39.2957175896" lon="-72.4043358676"><ele>253.83</ele><time>2024-08-13T01:31:18Z</time></trkpt></trkseg></trk></gpx>