<?xml version="1.0" encoding="UTF-8" standalone="no" ?><gpx xmlns="http://www.topografix.com/GPX/1/1" xmlns:gpxx="http://www.garmin.com/xmlschemas/GpxExtensions/v3" xmlns:gpxtrkx="http://www.garmin.com/xmlschemas/TrackStatsExtension/v1" xmlns:wptx1="http://www.garmin.com/xmlschemas/WaypointExtension/v1" xmlns:gpxtpx="http://www.garmin.com/xmlschemas/TrackPointExtension/v1" creator="GPSMAP 64sx" version="1.1" xmlns:xsi="http://www.w3.org/2001/XMLSchema-instance" xsi:schemaLocation="http://www.topografix.com/GPX/1/1 http://www.topografix.com/GPX/1/1/gpx.xsd http://www.garmin.com/xmlschemas/GpxExtensions/v3 http://www8.garmin.com/xmlschemas/GpxExtensionsv3.xsd http://www.garmin.com/xmlschemas/TrackStatsExtension/v1 http://www8.garmin.com/xmlschemas/TrackStatsExtension.xsd http://www.garmin.com/xmlschemas/WaypointExtension/v1 http://www8.garmin.com/xmlschemas/WaypointExtensionv1.xsd http://www.garmin.com/xmlschemas/TrackPointExtension/v1 http://www.garmin.com/xmlschemas/TrackPointExtensionv1.xsd"><metadata><link href="http://www.garmin.com"><text>Garmin International</text></link><time>2024-08-15T04:42:56Z</time></metadata><trk><name>GPS LA PAZ 240814</name><extensions><gpxx:TrackExtension><gpxx:DisplayColor>Cyan</gpxx:DisplayColor></gpxx:TrackExtension><gpxtrkx:TrackStatsExtension><gpxtrkx:Distance>3482.000</gpxtrkx:Distance><gpxtrkx:TotalElapsedTime>820</gpxtrkx:TotalElapsedTime><gpxtrkx:MovingTime>704</gpxtrkx:MovingTime><gpxtrkx:StoppedTime>117</gpxtrkx:StoppedTime><gpxtrkx:MovingSpeed>4.946</gpxtrkx:MovingSpeed><gpxtrkx:MaxSpeed>9.324</gpxtrkx:MaxSpeed><gpxtrkx:MaxElevation>99.539</gpxtrkx:MaxElevation><gpxtrkx:MinElevation>87.461</gpxtrkx:MinElevation><gpxtrkx:Ascent>16.000</gpxtrkx:Ascent><gpxtrkx:Descent>19.203</gpxtrkx:Descent><gpxtrkx:AvgAscentRate>0.060</gpxtrkx:AvgAscentRate><gpxtrkx:MaxAscentRate>0.775</gpxtrkx:MaxAscentRate><gpxtrkx:AvgDescentRate>0.065</gpxtrkx:AvgDescentRate><gpxtrkx:MaxDescentRate>-0.749</gpxtrkx:MaxDescentRate></gpxtrkx:TrackStatsExtension></extensions><trkseg><trkpt lat="-39.4071155973" lon="-72.7049479634"><ele>97.98</ele><time>2024-08-15T04:29:16Z</time></trkpt><trkpt lat="-39.4071136694" lon="-72.7049460355"><ele>97.98</ele><time>2024-08-15T04:29:17Z</time></trkpt><trkpt lat="-39.4071123283" lon="-72.7049406711"><ele>96.43</ele><time>2024-08-15T04:29:22Z</time></trkpt><trkpt lat="-39.4071268290" lon="-72.7049814910"><ele>96.76</ele><time>2024-08-15T04:29:28Z</time></trkpt><trkpt lat="-39.4072610233" lon="-72.7054308448"><ele>94.80</ele><time>2024-08-15T04:29:37Z</time></trkpt><trkpt lat="-39.4075976405" lon="-72.7061953582"><ele>93.85</ele><time>2024-08-15T04:29:47Z</time></trkpt><trkpt lat="-39.4076276477" lon="-72.7062442247"><ele>90.38</ele><time>2024-08-15T04:29:48Z</time></trkpt><trkpt lat="-39.4076547213" lon="-72.7062940132"><ele>95.00</ele><time>2024-08-15T04:29:49Z</time></trkpt><trkpt lat="-39.4076776039" lon="-72.7063503396"><ele>94.45</ele><time>2024-08-15T04:29:50Z</time></trkpt><trkpt lat="-39.4076993130" lon="-72.7064177301"><ele>96.63</ele><time>2024-08-15T04:29:51Z</time></trkpt><trkpt lat="-39.4077189267" lon="-72.7064997051"><ele>97.69</ele><time>2024-08-15T04:29:52Z</time></trkpt><trkpt lat="-39.4077895023" lon="-72.7067600470"><ele>94.29</ele><time>2024-08-15T04:29:55Z</time></trkpt><trkpt lat="-39.4078511931" lon="-72.7069236618"><ele>90.74</ele><time>2024-08-15T04:29:57Z</time></trkpt><trkpt lat="-39.4078807812" lon="-72.7070052177"><ele>90.88</ele><time>2024-08-15T04:29:58Z</time></trkpt><trkpt lat="-39.4079064298" lon="-72.7070844267"><ele>95.76</ele><time>2024-08-15T04:29:59Z</time></trkpt><trkpt lat="-39.4079220202" lon="-72.7071718499"><ele>97.78</ele><time>2024-08-15T04:30:00Z</time></trkpt><trkpt lat="-39.4079390354" lon="-72.7072564233"><ele>97.22</ele><time>2024-08-15T04:30:01Z</time></trkpt><trkpt lat="-39.4079733174" lon="-72.7074271627"><ele>96.01</ele><time>2024-08-15T04:30:03Z</time></trkpt><trkpt lat="-39.4079989661" lon="-72.7075100597"><ele>94.80</ele><time>2024-08-15T04:30:04Z</time></trkpt><trkpt lat="-39.4080331642" lon="-72.7075870894"><ele>94.70</ele><time>2024-08-15T04:30:05Z</time></trkpt><trkpt lat="-39.4080764148" lon="-72.7076559886"><ele>94.58</ele><time>2024-08-15T04:30:06Z</time></trkpt><trkpt lat="-39.4081322383" lon="-72.7077157516"><ele>94.59</ele><time>2024-08-15T04:30:07Z</time></trkpt><trkpt lat="-39.4081985392" lon="-72.7077631932"><ele>94.45</ele><time>2024-08-15T04:30:08Z</time></trkpt><trkpt lat="-39.4082698692" lon="-72.7077915240"><ele>94.41</ele><time>2024-08-15T04:30:09Z</time></trkpt><trkpt lat="-39.4083534367" lon="-72.7077995706"><ele>93.78</ele><time>2024-08-15T04:30:10Z</time></trkpt><trkpt lat="-39.4084377587" lon="-72.7078038454"><ele>93.36</ele><time>2024-08-15T04:30:11Z</time></trkpt><trkpt lat="-39.4085183926" lon="-72.7078038454"><ele>94.63</ele><time>2024-08-15T04:30:12Z</time></trkpt><trkpt lat="-39.4088335522" lon="-72.7078693081"><ele>93.05</ele><time>2024-08-15T04:30:16Z</time></trkpt><trkpt lat="-39.4089050498" lon="-72.7079087868"><ele>94.00</ele><time>2024-08-15T04:30:17Z</time></trkpt><trkpt lat="-39.4089743681" lon="-72.7079616766"><ele>95.11</ele><time>2024-08-15T04:30:18Z</time></trkpt><trkpt lat="-39.4090410043" lon="-72.7080201823"><ele>95.35</ele><time>2024-08-15T04:30:19Z</time></trkpt><trkpt lat="-39.4091080595" lon="-72.7080804482"><ele>94.32</ele><time>2024-08-15T04:30:20Z</time></trkpt><trkpt lat="-39.4095699023" lon="-72.7085667662"><ele>91.14</ele><time>2024-08-15T04:30:30Z</time></trkpt><trkpt lat="-39.4096066151" lon="-72.7087035589"><ele>97.08</ele><time>2024-08-15T04:30:34Z</time></trkpt><trkpt lat="-39.4095914438" lon="-72.7087490726"><ele>93.22</ele><time>2024-08-15T04:30:35Z</time></trkpt><trkpt lat="-39.4095695671" lon="-72.7087915689"><ele>94.65</ele><time>2024-08-15T04:30:36Z</time></trkpt><trkpt lat="-39.4094815571" lon="-72.7089332230"><ele>93.18</ele><time>2024-08-15T04:30:39Z</time></trkpt><trkpt lat="-39.4091959018" lon="-72.7093588561"><ele>89.26</ele><time>2024-08-15T04:30:49Z</time></trkpt><trkpt lat="-39.4091635477" lon="-72.7093997598"><ele>93.02</ele><time>2024-08-15T04:30:50Z</time></trkpt><trkpt lat="-39.4089125097" lon="-72.7097217087"><ele>87.44</ele><time>2024-08-15T04:30:59Z</time></trkpt><trkpt lat="-39.4088783115" lon="-72.7097295877"><ele>88.43</ele><time>2024-08-15T04:31:00Z</time></trkpt><trkpt lat="-39.4088155311" lon="-72.7097113151"><ele>92.78</ele><time>2024-08-15T04:31:02Z</time></trkpt><trkpt lat="-39.4087860268" lon="-72.7096902765"><ele>92.29</ele><time>2024-08-15T04:31:03Z</time></trkpt><trkpt lat="-39.4087136071" lon="-72.7096244786"><ele>95.35</ele><time>2024-08-15T04:31:05Z</time></trkpt><trkpt lat="-39.4085539319" lon="-72.7094597742"><ele>91.08</ele><time>2024-08-15T04:31:09Z</time></trkpt><trkpt lat="-39.4079903327" lon="-72.7088339813"><ele>92.42</ele><time>2024-08-15T04:31:22Z</time></trkpt><trkpt lat="-39.4073581696" lon="-72.7081333380"><ele>91.89</ele><time>2024-08-15T04:31:38Z</time></trkpt><trkpt lat="-39.4071358815" lon="-72.7081161551"><ele>91.05</ele><time>2024-08-15T04:31:47Z</time></trkpt><trkpt lat="-39.4071547408" lon="-72.7087074984"><ele>91.57</ele><time>2024-08-15T04:31:58Z</time></trkpt><trkpt lat="-39.4072894379" lon="-72.7096056193"><ele>91.53</ele><time>2024-08-15T04:32:14Z</time></trkpt><trkpt lat="-39.4073194452" lon="-72.7097194456"><ele>91.83</ele><time>2024-08-15T04:32:16Z</time></trkpt><trkpt lat="-39.4073802978" lon="-72.7098864131"><ele>91.84</ele><time>2024-08-15T04:32:19Z</time></trkpt><trkpt lat="-39.4079212658" lon="-72.7105371002"><ele>92.41</ele><time>2024-08-15T04:32:34Z</time></trkpt><trkpt lat="-39.4082148001" lon="-72.7108750585"><ele>92.75</ele><time>2024-08-15T04:32:45Z</time></trkpt><trkpt lat="-39.4084887207" lon="-72.7112133522"><ele>92.97</ele><time>2024-08-15T04:32:57Z</time></trkpt><trkpt lat="-39.4088383298" lon="-72.7115889452"><ele>92.90</ele><time>2024-08-15T04:33:12Z</time></trkpt><trkpt lat="-39.4089907967" lon="-72.7117389813"><ele>92.63</ele><time>2024-08-15T04:33:19Z</time></trkpt><trkpt lat="-39.4090178702" lon="-72.7117395680"><ele>92.78</ele><time>2024-08-15T04:33:20Z</time></trkpt><trkpt lat="-39.4090443570" lon="-72.7117294259"><ele>92.80</ele><time>2024-08-15T04:33:21Z</time></trkpt><trkpt lat="-39.4090710953" lon="-72.7117050346"><ele>92.77</ele><time>2024-08-15T04:33:22Z</time></trkpt><trkpt lat="-39.4090943132" lon="-72.7116727643"><ele>92.52</ele><time>2024-08-15T04:33:23Z</time></trkpt><trkpt lat="-39.4091136754" lon="-72.7116385661"><ele>92.16</ele><time>2024-08-15T04:33:24Z</time></trkpt><trkpt lat="-39.4093927927" lon="-72.7112001926"><ele>93.15</ele><time>2024-08-15T04:33:38Z</time></trkpt><trkpt lat="-39.4096921105" lon="-72.7106703725"><ele>93.50</ele><time>2024-08-15T04:33:53Z</time></trkpt><trkpt lat="-39.4100733195" lon="-72.7100805379"><ele>92.55</ele><time>2024-08-15T04:34:07Z</time></trkpt><trkpt lat="-39.4104234315" lon="-72.7095650509"><ele>92.46</ele><time>2024-08-15T04:34:20Z</time></trkpt><trkpt lat="-39.4104530197" lon="-72.7095546573"><ele>91.27</ele><time>2024-08-15T04:34:21Z</time></trkpt><trkpt lat="-39.4104857091" lon="-72.7095630392"><ele>92.24</ele><time>2024-08-15T04:34:22Z</time></trkpt><trkpt lat="-39.4105222542" lon="-72.7095843293"><ele>92.48</ele><time>2024-08-15T04:34:23Z</time></trkpt><trkpt lat="-39.4105587993" lon="-72.7096240595"><ele>92.89</ele><time>2024-08-15T04:34:24Z</time></trkpt><trkpt lat="-39.4105981942" lon="-72.7096741833"><ele>92.67</ele><time>2024-08-15T04:34:25Z</time></trkpt><trkpt lat="-39.4106394332" lon="-72.7097291686"><ele>92.72</ele><time>2024-08-15T04:34:26Z</time></trkpt><trkpt lat="-39.4112368952" lon="-72.7104793489"><ele>91.65</ele><time>2024-08-15T04:34:43Z</time></trkpt><trkpt lat="-39.4112362247" lon="-72.7105184924"><ele>92.70</ele><time>2024-08-15T04:34:44Z</time></trkpt><trkpt lat="-39.4112269208" lon="-72.7105528582"><ele>91.66</ele><time>2024-08-15T04:34:45Z</time></trkpt><trkpt lat="-39.4112114143" lon="-72.7105860505"><ele>91.54</ele><time>2024-08-15T04:34:46Z</time></trkpt><trkpt lat="-39.4111912977" lon="-72.7106217574"><ele>91.85</ele><time>2024-08-15T04:34:47Z</time></trkpt><trkpt lat="-39.4111704268" lon="-72.7106545307"><ele>91.47</ele><time>2024-08-15T04:34:48Z</time></trkpt><trkpt lat="-39.4111488014" lon="-72.7106868848"><ele>91.65</ele><time>2024-08-15T04:34:49Z</time></trkpt><trkpt lat="-39.4107857812" lon="-72.7112182975"><ele>92.16</ele><time>2024-08-15T04:35:04Z</time></trkpt><trkpt lat="-39.4104035664" lon="-72.7118229680"><ele>92.60</ele><time>2024-08-15T04:35:18Z</time></trkpt><trkpt lat="-39.4099729043" lon="-72.7124965377"><ele>92.75</ele><time>2024-08-15T04:35:34Z</time></trkpt><trkpt lat="-39.4099722337" lon="-72.7128398605"><ele>92.50</ele><time>2024-08-15T04:35:43Z</time></trkpt><trkpt lat="-39.4100110419" lon="-72.7128784172"><ele>92.47</ele><time>2024-08-15T04:35:44Z</time></trkpt><trkpt lat="-39.4100511912" lon="-72.7129224222"><ele>92.46</ele><time>2024-08-15T04:35:45Z</time></trkpt><trkpt lat="-39.4105893932" lon="-72.7135180403"><ele>91.58</ele><time>2024-08-15T04:35:59Z</time></trkpt><trkpt lat="-39.4106269442" lon="-72.7135302778"><ele>91.42</ele><time>2024-08-15T04:36:00Z</time></trkpt><trkpt lat="-39.4106633216" lon="-72.7135315351"><ele>91.41</ele><time>2024-08-15T04:36:01Z</time></trkpt><trkpt lat="-39.4106990285" lon="-72.7135156095"><ele>91.38</ele><time>2024-08-15T04:36:02Z</time></trkpt><trkpt lat="-39.4107319694" lon="-72.7134833392"><ele>91.33</ele><time>2024-08-15T04:36:03Z</time></trkpt><trkpt lat="-39.4107621443" lon="-72.7134392504"><ele>91.30</ele><time>2024-08-15T04:36:04Z</time></trkpt><trkpt lat="-39.4107928220" lon="-72.7133883722"><ele>91.34</ele><time>2024-08-15T04:36:05Z</time></trkpt><trkpt lat="-39.4113058783" lon="-72.7125951927"><ele>90.88</ele><time>2024-08-15T04:36:20Z</time></trkpt><trkpt lat="-39.4118387997" lon="-72.7118165977"><ele>90.94</ele><time>2024-08-15T04:36:37Z</time></trkpt><trkpt lat="-39.4121415541" lon="-72.7114423458"><ele>91.01</ele><time>2024-08-15T04:36:48Z</time></trkpt><trkpt lat="-39.4121768419" lon="-72.7114574332"><ele>91.02</ele><time>2024-08-15T04:36:49Z</time></trkpt><trkpt lat="-39.4122141413" lon="-72.7114871889"><ele>90.93</ele><time>2024-08-15T04:36:50Z</time></trkpt><trkpt lat="-39.4122523628" lon="-72.7115286794"><ele>90.87</ele><time>2024-08-15T04:36:51Z</time></trkpt><trkpt lat="-39.4122884888" lon="-72.7115783002"><ele>90.83</ele><time>2024-08-15T04:36:52Z</time></trkpt><trkpt lat="-39.4123247825" lon="-72.7116314415"><ele>90.84</ele><time>2024-08-15T04:36:53Z</time></trkpt><trkpt lat="-39.4128900580" lon="-72.7123537101"><ele>90.41</ele><time>2024-08-15T04:37:10Z</time></trkpt><trkpt lat="-39.4127194863" lon="-72.7126633376"><ele>89.87</ele><time>2024-08-15T04:37:19Z</time></trkpt><trkpt lat="-39.4122773409" lon="-72.7133325487"><ele>90.45</ele><time>2024-08-15T04:37:35Z</time></trkpt><trkpt lat="-39.4121509418" lon="-72.7134074830"><ele>90.55</ele><time>2024-08-15T04:37:39Z</time></trkpt><trkpt lat="-39.4121202640" lon="-72.7133956645"><ele>90.65</ele><time>2024-08-15T04:37:40Z</time></trkpt><trkpt lat="-39.4120919332" lon="-72.7133736201"><ele>90.73</ele><time>2024-08-15T04:37:41Z</time></trkpt><trkpt lat="-39.4120629318" lon="-72.7133475523"><ele>90.72</ele><time>2024-08-15T04:37:42Z</time></trkpt><trkpt lat="-39.4120331760" lon="-72.7133165393"><ele>90.82</ele><time>2024-08-15T04:37:43Z</time></trkpt><trkpt lat="-39.4120016601" lon="-72.7132830955"><ele>90.86</ele><time>2024-08-15T04:37:44Z</time></trkpt><trkpt lat="-39.4115616940" lon="-72.7127831988"><ele>90.86</ele><time>2024-08-15T04:37:59Z</time></trkpt><trkpt lat="-39.4112799782" lon="-72.7124612499"><ele>90.88</ele><time>2024-08-15T04:38:13Z</time></trkpt><trkpt lat="-39.4108271878" lon="-72.7119447570"><ele>91.43</ele><time>2024-08-15T04:38:24Z</time></trkpt><trkpt lat="-39.4105468970" lon="-72.7116311062"><ele>91.96</ele><time>2024-08-15T04:38:35Z</time></trkpt><trkpt lat="-39.4102405384" lon="-72.7113234904"><ele>92.96</ele><time>2024-08-15T04:38:46Z</time></trkpt><trkpt lat="-39.4098214433" lon="-72.7108727954"><ele>93.40</ele><time>2024-08-15T04:39:00Z</time></trkpt><trkpt lat="-39.4093706645" lon="-72.7103832085"><ele>92.92</ele><time>2024-08-15T04:39:15Z</time></trkpt><trkpt lat="-39.4089174550" lon="-72.7098921966"><ele>92.37</ele><time>2024-08-15T04:39:27Z</time></trkpt><trkpt lat="-39.4088962488" lon="-72.7098564897"><ele>92.28</ele><time>2024-08-15T04:39:28Z</time></trkpt><trkpt lat="-39.4088835083" lon="-72.7098206151"><ele>92.22</ele><time>2024-08-15T04:39:29Z</time></trkpt><trkpt lat="-39.4088810775" lon="-72.7097785380"><ele>92.22</ele><time>2024-08-15T04:39:30Z</time></trkpt><trkpt lat="-39.4088889565" lon="-72.7097303420"><ele>92.37</ele><time>2024-08-15T04:39:31Z</time></trkpt><trkpt lat="-39.4089121744" lon="-72.7096780390"><ele>92.32</ele><time>2024-08-15T04:39:32Z</time></trkpt><trkpt lat="-39.4089473784" lon="-72.7096215449"><ele>92.41</ele><time>2024-08-15T04:39:33Z</time></trkpt><trkpt lat="-39.4089910481" lon="-72.7095601056"><ele>92.42</ele><time>2024-08-15T04:39:34Z</time></trkpt><trkpt lat="-39.4095178507" lon="-72.7087603044"><ele>92.90</ele><time>2024-08-15T04:39:45Z</time></trkpt><trkpt lat="-39.4095610175" lon="-72.7085141279"><ele>93.45</ele><time>2024-08-15T04:39:52Z</time></trkpt><trkpt lat="-39.4095294178" lon="-72.7084645908"><ele>93.49</ele><time>2024-08-15T04:39:53Z</time></trkpt><trkpt lat="-39.4094901066" lon="-72.7084149700"><ele>93.52</ele><time>2024-08-15T04:39:54Z</time></trkpt><trkpt lat="-39.4089204725" lon="-72.7078605909"><ele>94.77</ele><time>2024-08-15T04:40:03Z</time></trkpt><trkpt lat="-39.4087822549" lon="-72.7077780291"><ele>94.92</ele><time>2024-08-15T04:40:05Z</time></trkpt><trkpt lat="-39.4086325541" lon="-72.7077261452"><ele>94.83</ele><time>2024-08-15T04:40:07Z</time></trkpt><trkpt lat="-39.4085499085" lon="-72.7077163383"><ele>94.83</ele><time>2024-08-15T04:40:08Z</time></trkpt><trkpt lat="-39.4082429633" lon="-72.7076881751"><ele>94.46</ele><time>2024-08-15T04:40:12Z</time></trkpt><trkpt lat="-39.4081803504" lon="-72.7076633647"><ele>94.46</ele><time>2024-08-15T04:40:13Z</time></trkpt><trkpt lat="-39.4081207551" lon="-72.7076288313"><ele>94.31</ele><time>2024-08-15T04:40:14Z</time></trkpt><trkpt lat="-39.4080652669" lon="-72.7075829823"><ele>94.34</ele><time>2024-08-15T04:40:15Z</time></trkpt><trkpt lat="-39.4080173224" lon="-72.7075245604"><ele>94.35</ele><time>2024-08-15T04:40:16Z</time></trkpt><trkpt lat="-39.4079789333" lon="-72.7074541524"><ele>94.33</ele><time>2024-08-15T04:40:17Z</time></trkpt><trkpt lat="-39.4079529494" lon="-72.7073787153"><ele>94.45</ele><time>2024-08-15T04:40:18Z</time></trkpt><trkpt lat="-39.4079431426" lon="-72.7073036972"><ele>94.56</ele><time>2024-08-15T04:40:19Z</time></trkpt><trkpt lat="-39.4079474173" lon="-72.7072406653"><ele>94.43</ele><time>2024-08-15T04:40:20Z</time></trkpt><trkpt lat="-39.4079589844" lon="-72.7071973309"><ele>94.55</ele><time>2024-08-15T04:40:21Z</time></trkpt><trkpt lat="-39.4079715572" lon="-72.7071727719"><ele>94.62</ele><time>2024-08-15T04:40:22Z</time></trkpt><trkpt lat="-39.4079822022" lon="-72.7071539126"><ele>94.59</ele><time>2024-08-15T04:40:23Z</time></trkpt><trkpt lat="-39.4082473218" lon="-72.7070882823"><ele>94.77</ele><time>2024-08-15T04:40:30Z</time></trkpt><trkpt lat="-39.4083017204" lon="-72.7070813254"><ele>94.76</ele><time>2024-08-15T04:40:31Z</time></trkpt><trkpt lat="-39.4083589688" lon="-72.7070628013"><ele>94.83</ele><time>2024-08-15T04:40:32Z</time></trkpt><trkpt lat="-39.4084180612" lon="-72.7070321236"><ele>94.97</ele><time>2024-08-15T04:40:33Z</time></trkpt><trkpt lat="-39.4084761478" lon="-72.7069951594"><ele>94.97</ele><time>2024-08-15T04:40:34Z</time></trkpt><trkpt lat="-39.4086143654" lon="-72.7068225760"><ele>94.96</ele><time>2024-08-15T04:40:37Z</time></trkpt><trkpt lat="-39.4086481445" lon="-72.7067545149"><ele>94.89</ele><time>2024-08-15T04:40:38Z</time></trkpt><trkpt lat="-39.4087095000" lon="-72.7065544389"><ele>94.92</ele><time>2024-08-15T04:40:42Z</time></trkpt><trkpt lat="-39.4087131042" lon="-72.7064935863"><ele>95.02</ele><time>2024-08-15T04:40:43Z</time></trkpt><trkpt lat="-39.4087096676" lon="-72.7063600626"><ele>95.27</ele><time>2024-08-15T04:40:45Z</time></trkpt><trkpt lat="-39.4087003637" lon="-72.7062993776"><ele>95.31</ele><time>2024-08-15T04:40:46Z</time></trkpt><trkpt lat="-39.4085889682" lon="-72.7060643490"><ele>95.27</ele><time>2024-08-15T04:40:53Z</time></trkpt><trkpt lat="-39.4085582905" lon="-72.7060239483"><ele>95.22</ele><time>2024-08-15T04:40:54Z</time></trkpt><trkpt lat="-39.4085298758" lon="-72.7059813682"><ele>95.28</ele><time>2024-08-15T04:40:55Z</time></trkpt><trkpt lat="-39.4085041434" lon="-72.7059371956"><ele>95.11</ele><time>2024-08-15T04:40:56Z</time></trkpt><trkpt lat="-39.4084836915" lon="-72.7058947831"><ele>95.31</ele><time>2024-08-15T04:40:57Z</time></trkpt><trkpt lat="-39.4084661733" lon="-72.7058643568"><ele>95.19</ele><time>2024-08-15T04:40:58Z</time></trkpt><trkpt lat="-39.4084419496" lon="-72.7058502752"><ele>95.17</ele><time>2024-08-15T04:41:09Z</time></trkpt><trkpt lat="-39.4084324781" lon="-72.7058465034"><ele>95.61</ele><time>2024-08-15T04:41:54Z</time></trkpt><trkpt lat="-39.4084389322" lon="-72.7058422286"><ele>95.56</ele><time>2024-08-15T04:42:31Z</time></trkpt></trkseg></trk></gpx>