<?xml version="1.0" encoding="UTF-8" standalone="no" ?><gpx xmlns="http://www.topografix.com/GPX/1/1" xmlns:gpxx="http://www.garmin.com/xmlschemas/GpxExtensions/v3" xmlns:gpxtrkx="http://www.garmin.com/xmlschemas/TrackStatsExtension/v1" xmlns:wptx1="http://www.garmin.com/xmlschemas/WaypointExtension/v1" xmlns:gpxtpx="http://www.garmin.com/xmlschemas/TrackPointExtension/v1" creator="GPSMAP 64sx" version="1.1" xmlns:xsi="http://www.w3.org/2001/XMLSchema-instance" xsi:schemaLocation="http://www.topografix.com/GPX/1/1 http://www.topografix.com/GPX/1/1/gpx.xsd http://www.garmin.com/xmlschemas/GpxExtensions/v3 http://www8.garmin.com/xmlschemas/GpxExtensionsv3.xsd http://www.garmin.com/xmlschemas/TrackStatsExtension/v1 http://www8.garmin.com/xmlschemas/TrackStatsExtension.xsd http://www.garmin.com/xmlschemas/WaypointExtension/v1 http://www8.garmin.com/xmlschemas/WaypointExtensionv1.xsd http://www.garmin.com/xmlschemas/TrackPointExtension/v1 http://www.garmin.com/xmlschemas/TrackPointExtensionv1.xsd"><metadata><link href="http://www.garmin.com"><text>Garmin International</text></link><time>2024-08-25T01:28:47Z</time></metadata><trk><name>GPS HUIS240824</name><extensions><gpxx:TrackExtension><gpxx:DisplayColor>Cyan</gpxx:DisplayColor></gpxx:TrackExtension><gpxtrkx:TrackStatsExtension><gpxtrkx:Distance>12869.000</gpxtrkx:Distance><gpxtrkx:TotalElapsedTime>1908</gpxtrkx:TotalElapsedTime><gpxtrkx:MovingTime>1822</gpxtrkx:MovingTime><gpxtrkx:StoppedTime>86</gpxtrkx:StoppedTime><gpxtrkx:MovingSpeed>7.063</gpxtrkx:MovingSpeed><gpxtrkx:MaxSpeed>15.301</gpxtrkx:MaxSpeed><gpxtrkx:MaxElevation>286.145</gpxtrkx:MaxElevation><gpxtrkx:MinElevation>232.530</gpxtrkx:MinElevation><gpxtrkx:Ascent>133.000</gpxtrkx:Ascent><gpxtrkx:Descent>140.388</gpxtrkx:Descent><gpxtrkx:AvgAscentRate>0.097</gpxtrkx:AvgAscentRate><gpxtrkx:MaxAscentRate>0.670</gpxtrkx:MaxAscentRate><gpxtrkx:AvgDescentRate>0.110</gpxtrkx:AvgDescentRate><gpxtrkx:MaxDescentRate>-1.174</gpxtrkx:MaxDescentRate></gpxtrkx:TrackStatsExtension></extensions><trkseg><trkpt lat="-39.2732725292" lon="-72.4093817733"><ele>266.58</ele><time>2024-08-25T00:56:59Z</time></trkpt><trkpt lat="-39.2732739542" lon="-72.4093844555"><ele>266.58</ele><time>2024-08-25T00:57:00Z</time></trkpt><trkpt lat="-39.2732698470" lon="-72.4093933403"><ele>265.75</ele><time>2024-08-25T00:57:05Z</time></trkpt><trkpt lat="-39.2732768878" lon="-72.4094215035"><ele>265.65</ele><time>2024-08-25T00:57:27Z</time></trkpt><trkpt lat="-39.2733428534" lon="-72.4094375968"><ele>265.58</ele><time>2024-08-25T00:57:30Z</time></trkpt><trkpt lat="-39.2738082167" lon="-72.4095595535"><ele>266.08</ele><time>2024-08-25T00:57:37Z</time></trkpt><trkpt lat="-39.2749650870" lon="-72.4099552631"><ele>267.05</ele><time>2024-08-25T00:57:47Z</time></trkpt><trkpt lat="-39.2762678862" lon="-72.4103060458"><ele>268.17</ele><time>2024-08-25T00:57:57Z</time></trkpt><trkpt lat="-39.2764028348" lon="-72.4102995079"><ele>268.46</ele><time>2024-08-25T00:57:58Z</time></trkpt><trkpt lat="-39.2765351851" lon="-72.4102788046"><ele>268.38</ele><time>2024-08-25T00:57:59Z</time></trkpt><trkpt lat="-39.2766601592" lon="-72.4102481268"><ele>268.27</ele><time>2024-08-25T00:58:00Z</time></trkpt><trkpt lat="-39.2767798528" lon="-72.4102114979"><ele>268.17</ele><time>2024-08-25T00:58:01Z</time></trkpt><trkpt lat="-39.2778335419" lon="-72.4097888824"><ele>267.53</ele><time>2024-08-25T00:58:10Z</time></trkpt><trkpt lat="-39.2779536545" lon="-72.4097648263"><ele>267.21</ele><time>2024-08-25T00:58:11Z</time></trkpt><trkpt lat="-39.2780734319" lon="-72.4097527564"><ele>266.83</ele><time>2024-08-25T00:58:12Z</time></trkpt><trkpt lat="-39.2781930417" lon="-72.4097490683"><ele>266.45</ele><time>2024-08-25T00:58:13Z</time></trkpt><trkpt lat="-39.2783121485" lon="-72.4097554386"><ele>265.85</ele><time>2024-08-25T00:58:14Z</time></trkpt><trkpt lat="-39.2786579020" lon="-72.4098396767"><ele>263.96</ele><time>2024-08-25T00:58:17Z</time></trkpt><trkpt lat="-39.2787671182" lon="-72.4098934047"><ele>263.06</ele><time>2024-08-25T00:58:18Z</time></trkpt><trkpt lat="-39.2790962756" lon="-72.4100949895"><ele>259.18</ele><time>2024-08-25T00:58:21Z</time></trkpt><trkpt lat="-39.2792007141" lon="-72.4101864360"><ele>258.14</ele><time>2024-08-25T00:58:22Z</time></trkpt><trkpt lat="-39.2792932503" lon="-72.4102912098"><ele>257.16</ele><time>2024-08-25T00:58:23Z</time></trkpt><trkpt lat="-39.2795654107" lon="-72.4106637854"><ele>253.29</ele><time>2024-08-25T00:58:26Z</time></trkpt><trkpt lat="-39.2798340507" lon="-72.4110514484"><ele>249.58</ele><time>2024-08-25T00:58:29Z</time></trkpt><trkpt lat="-39.2801040318" lon="-72.4114124570"><ele>246.09</ele><time>2024-08-25T00:58:32Z</time></trkpt><trkpt lat="-39.2804126535" lon="-72.4116948433"><ele>242.78</ele><time>2024-08-25T00:58:35Z</time></trkpt><trkpt lat="-39.2805214506" lon="-72.4117674306"><ele>241.74</ele><time>2024-08-25T00:58:36Z</time></trkpt><trkpt lat="-39.2806318402" lon="-72.4118271098"><ele>240.82</ele><time>2024-08-25T00:58:37Z</time></trkpt><trkpt lat="-39.2810590658" lon="-72.4119977653"><ele>237.20</ele><time>2024-08-25T00:58:41Z</time></trkpt><trkpt lat="-39.2820907943" lon="-72.4123410042"><ele>234.83</ele><time>2024-08-25T00:58:52Z</time></trkpt><trkpt lat="-39.2831326649" lon="-72.4127039406"><ele>232.92</ele><time>2024-08-25T00:59:06Z</time></trkpt><trkpt lat="-39.2845589295" lon="-72.4131760933"><ele>235.81</ele><time>2024-08-25T00:59:23Z</time></trkpt><trkpt lat="-39.2862400040" lon="-72.4137228448"><ele>238.55</ele><time>2024-08-25T00:59:42Z</time></trkpt><trkpt lat="-39.2879651673" lon="-72.4143131822"><ele>237.97</ele><time>2024-08-25T01:00:02Z</time></trkpt><trkpt lat="-39.2892809585" lon="-72.4143671617"><ele>235.02</ele><time>2024-08-25T01:00:17Z</time></trkpt><trkpt lat="-39.2898760736" lon="-72.4141509924"><ele>233.53</ele><time>2024-08-25T01:00:24Z</time></trkpt><trkpt lat="-39.2907841690" lon="-72.4133400433"><ele>232.83</ele><time>2024-08-25T01:00:37Z</time></trkpt><trkpt lat="-39.2913955450" lon="-72.4122374039"><ele>236.01</ele><time>2024-08-25T01:00:49Z</time></trkpt><trkpt lat="-39.2917496804" lon="-72.4112134706"><ele>239.46</ele><time>2024-08-25T01:00:59Z</time></trkpt><trkpt lat="-39.2920837831" lon="-72.4102329556"><ele>242.74</ele><time>2024-08-25T01:01:09Z</time></trkpt><trkpt lat="-39.2923639901" lon="-72.4093826115"><ele>244.81</ele><time>2024-08-25T01:01:21Z</time></trkpt><trkpt lat="-39.2922911514" lon="-72.4092486687"><ele>244.62</ele><time>2024-08-25T01:01:27Z</time></trkpt><trkpt lat="-39.2916444875" lon="-72.4088972993"><ele>241.58</ele><time>2024-08-25T01:01:39Z</time></trkpt><trkpt lat="-39.2910559941" lon="-72.4085711595"><ele>240.72</ele><time>2024-08-25T01:01:49Z</time></trkpt><trkpt lat="-39.2909987457" lon="-72.4083160982"><ele>240.54</ele><time>2024-08-25T01:01:54Z</time></trkpt><trkpt lat="-39.2911909427" lon="-72.4077658262"><ele>241.10</ele><time>2024-08-25T01:02:02Z</time></trkpt><trkpt lat="-39.2914371192" lon="-72.4077004474"><ele>241.43</ele><time>2024-08-25T01:02:09Z</time></trkpt><trkpt lat="-39.2917340901" lon="-72.4079477135"><ele>242.46</ele><time>2024-08-25T01:02:15Z</time></trkpt><trkpt lat="-39.2924255133" lon="-72.4084471911"><ele>244.74</ele><time>2024-08-25T01:02:29Z</time></trkpt><trkpt lat="-39.2925992701" lon="-72.4086185172"><ele>245.77</ele><time>2024-08-25T01:02:38Z</time></trkpt><trkpt lat="-39.2925685085" lon="-72.4087789468"><ele>245.66</ele><time>2024-08-25T01:02:42Z</time></trkpt><trkpt lat="-39.2923980206" lon="-72.4092253670"><ele>244.76</ele><time>2024-08-25T01:02:48Z</time></trkpt><trkpt lat="-39.2923911475" lon="-72.4092820287"><ele>244.57</ele><time>2024-08-25T01:02:49Z</time></trkpt><trkpt lat="-39.2923960090" lon="-72.4093235191"><ele>244.36</ele><time>2024-08-25T01:02:50Z</time></trkpt><trkpt lat="-39.2924050614" lon="-72.4093480781"><ele>244.29</ele><time>2024-08-25T01:02:51Z</time></trkpt><trkpt lat="-39.2924146168" lon="-72.4093667697"><ele>244.18</ele><time>2024-08-25T01:02:52Z</time></trkpt><trkpt lat="-39.2924273573" lon="-72.4093852937"><ele>244.09</ele><time>2024-08-25T01:02:53Z</time></trkpt><trkpt lat="-39.2925031297" lon="-72.4094576295"><ele>243.93</ele><time>2024-08-25T01:02:56Z</time></trkpt><trkpt lat="-39.2930883542" lon="-72.4098002817"><ele>246.09</ele><time>2024-08-25T01:03:06Z</time></trkpt><trkpt lat="-39.2934746761" lon="-72.4100222345"><ele>248.78</ele><time>2024-08-25T01:03:12Z</time></trkpt><trkpt lat="-39.2938069347" lon="-72.4102031160"><ele>252.07</ele><time>2024-08-25T01:03:17Z</time></trkpt><trkpt lat="-39.2939825356" lon="-72.4102915451"><ele>254.57</ele><time>2024-08-25T01:03:21Z</time></trkpt><trkpt lat="-39.2940263730" lon="-72.4102858454"><ele>255.08</ele><time>2024-08-25T01:03:22Z</time></trkpt><trkpt lat="-39.2940677796" lon="-72.4102612026"><ele>255.16</ele><time>2024-08-25T01:03:23Z</time></trkpt><trkpt lat="-39.2941070069" lon="-72.4102257472"><ele>255.52</ele><time>2024-08-25T01:03:24Z</time></trkpt><trkpt lat="-39.2941504251" lon="-72.4101877771"><ele>255.81</ele><time>2024-08-25T01:03:25Z</time></trkpt><trkpt lat="-39.2941981182" lon="-72.4101510644"><ele>256.22</ele><time>2024-08-25T01:03:26Z</time></trkpt><trkpt lat="-39.2944431212" lon="-72.4098387547"><ele>258.15</ele><time>2024-08-25T01:03:34Z</time></trkpt><trkpt lat="-39.2944262736" lon="-72.4097899720"><ele>258.33</ele><time>2024-08-25T01:03:35Z</time></trkpt><trkpt lat="-39.2944007087" lon="-72.4097341485"><ele>258.25</ele><time>2024-08-25T01:03:36Z</time></trkpt><trkpt lat="-39.2943654209" lon="-72.4096707813"><ele>258.06</ele><time>2024-08-25T01:03:37Z</time></trkpt><trkpt lat="-39.2943254393" lon="-72.4096007086"><ele>257.97</ele><time>2024-08-25T01:03:38Z</time></trkpt><trkpt lat="-39.2940661032" lon="-72.4091386981"><ele>254.89</ele><time>2024-08-25T01:03:44Z</time></trkpt><trkpt lat="-39.2938980460" lon="-72.4088171683"><ele>251.62</ele><time>2024-08-25T01:03:49Z</time></trkpt><trkpt lat="-39.2937647738" lon="-72.4086486921"><ele>250.83</ele><time>2024-08-25T01:03:54Z</time></trkpt><trkpt lat="-39.2937226128" lon="-72.4086126499"><ele>250.93</ele><time>2024-08-25T01:03:55Z</time></trkpt><trkpt lat="-39.2936669569" lon="-72.4085746799"><ele>251.09</ele><time>2024-08-25T01:03:56Z</time></trkpt><trkpt lat="-39.2929265834" lon="-72.4080911279"><ele>248.32</ele><time>2024-08-25T01:04:08Z</time></trkpt><trkpt lat="-39.2928848416" lon="-72.4079224840"><ele>247.44</ele><time>2024-08-25T01:04:16Z</time></trkpt><trkpt lat="-39.2928995937" lon="-72.4078692589"><ele>247.65</ele><time>2024-08-25T01:04:17Z</time></trkpt><trkpt lat="-39.2930079717" lon="-72.4075795803"><ele>249.05</ele><time>2024-08-25T01:04:21Z</time></trkpt><trkpt lat="-39.2932830658" lon="-72.4068192579"><ele>252.17</ele><time>2024-08-25T01:04:29Z</time></trkpt><trkpt lat="-39.2933782842" lon="-72.4065551441"><ele>253.40</ele><time>2024-08-25T01:04:32Z</time></trkpt><trkpt lat="-39.2935019173" lon="-72.4063490331"><ele>254.84</ele><time>2024-08-25T01:04:39Z</time></trkpt><trkpt lat="-39.2937828787" lon="-72.4064777792"><ele>258.23</ele><time>2024-08-25T01:04:48Z</time></trkpt><trkpt lat="-39.2943817656" lon="-72.4068609159"><ele>258.24</ele><time>2024-08-25T01:05:01Z</time></trkpt><trkpt lat="-39.2944489885" lon="-72.4069456570"><ele>257.94</ele><time>2024-08-25T01:05:04Z</time></trkpt><trkpt lat="-39.2944524251" lon="-72.4069910031"><ele>257.79</ele><time>2024-08-25T01:05:05Z</time></trkpt><trkpt lat="-39.2944436241" lon="-72.4070398696"><ele>257.81</ele><time>2024-08-25T01:05:06Z</time></trkpt><trkpt lat="-39.2944223341" lon="-72.4070961960"><ele>257.65</ele><time>2024-08-25T01:05:07Z</time></trkpt><trkpt lat="-39.2943935841" lon="-72.4071642570"><ele>257.45</ele><time>2024-08-25T01:05:08Z</time></trkpt><trkpt lat="-39.2941045761" lon="-72.4079183768"><ele>254.09</ele><time>2024-08-25T01:05:18Z</time></trkpt><trkpt lat="-39.2938537896" lon="-72.4085456785"><ele>250.88</ele><time>2024-08-25T01:05:28Z</time></trkpt><trkpt lat="-39.2938450724" lon="-72.4085969757"><ele>250.74</ele><time>2024-08-25T01:05:29Z</time></trkpt><trkpt lat="-39.2938518617" lon="-72.4086431600"><ele>250.62</ele><time>2024-08-25T01:05:30Z</time></trkpt><trkpt lat="-39.2938756663" lon="-72.4086735863"><ele>250.48</ele><time>2024-08-25T01:05:31Z</time></trkpt><trkpt lat="-39.2939062603" lon="-72.4086913560"><ele>250.46</ele><time>2024-08-25T01:05:32Z</time></trkpt><trkpt lat="-39.2939440627" lon="-72.4086890928"><ele>250.59</ele><time>2024-08-25T01:05:33Z</time></trkpt><trkpt lat="-39.2939853854" lon="-72.4086713232"><ele>250.67</ele><time>2024-08-25T01:05:34Z</time></trkpt><trkpt lat="-39.2940297257" lon="-72.4086435791"><ele>250.99</ele><time>2024-08-25T01:05:35Z</time></trkpt><trkpt lat="-39.2940753233" lon="-72.4086098000"><ele>251.52</ele><time>2024-08-25T01:05:36Z</time></trkpt><trkpt lat="-39.2942617368" lon="-72.4084556568"><ele>254.86</ele><time>2024-08-25T01:05:40Z</time></trkpt><trkpt lat="-39.2945507448" lon="-72.4082118273"><ele>258.24</ele><time>2024-08-25T01:05:46Z</time></trkpt><trkpt lat="-39.2950622924" lon="-72.4077737052"><ele>261.37</ele><time>2024-08-25T01:05:56Z</time></trkpt><trkpt lat="-39.2953419127" lon="-72.4075039756"><ele>263.42</ele><time>2024-08-25T01:06:03Z</time></trkpt><trkpt lat="-39.2953420803" lon="-72.4074660055"><ele>263.88</ele><time>2024-08-25T01:06:04Z</time></trkpt><trkpt lat="-39.2953241430" lon="-72.4074277841"><ele>263.84</ele><time>2024-08-25T01:06:05Z</time></trkpt><trkpt lat="-39.2952937167" lon="-72.4073949270"><ele>263.90</ele><time>2024-08-25T01:06:06Z</time></trkpt><trkpt lat="-39.2952570878" lon="-72.4073660932"><ele>263.81</ele><time>2024-08-25T01:06:07Z</time></trkpt><trkpt lat="-39.2952130828" lon="-72.4073362537"><ele>262.83</ele><time>2024-08-25T01:06:08Z</time></trkpt><trkpt lat="-39.2951625399" lon="-72.4073033966"><ele>262.64</ele><time>2024-08-25T01:06:09Z</time></trkpt><trkpt lat="-39.2946638167" lon="-72.4069878180"><ele>259.44</ele><time>2024-08-25T01:06:18Z</time></trkpt><trkpt lat="-39.2945235036" lon="-72.4068549648"><ele>257.76</ele><time>2024-08-25T01:06:23Z</time></trkpt><trkpt lat="-39.2945268564" lon="-72.4068134744"><ele>257.72</ele><time>2024-08-25T01:06:24Z</time></trkpt><trkpt lat="-39.2945374176" lon="-72.4067647755"><ele>257.67</ele><time>2024-08-25T01:06:25Z</time></trkpt><trkpt lat="-39.2945546005" lon="-72.4067103770"><ele>257.73</ele><time>2024-08-25T01:06:26Z</time></trkpt><trkpt lat="-39.2945764773" lon="-72.4066500273"><ele>258.03</ele><time>2024-08-25T01:06:27Z</time></trkpt><trkpt lat="-39.2948286887" lon="-72.4060080573"><ele>261.22</ele><time>2024-08-25T01:06:36Z</time></trkpt><trkpt lat="-39.2950156052" lon="-72.4054333102"><ele>262.30</ele><time>2024-08-25T01:06:44Z</time></trkpt><trkpt lat="-39.2950231489" lon="-72.4053712841"><ele>262.40</ele><time>2024-08-25T01:06:45Z</time></trkpt><trkpt lat="-39.2950218078" lon="-72.4053057376"><ele>262.35</ele><time>2024-08-25T01:06:46Z</time></trkpt><trkpt lat="-39.2950138450" lon="-72.4052386824"><ele>262.41</ele><time>2024-08-25T01:06:47Z</time></trkpt><trkpt lat="-39.2950039543" lon="-72.4051691964"><ele>262.62</ele><time>2024-08-25T01:06:48Z</time></trkpt><trkpt lat="-39.2949596979" lon="-72.4047453236"><ele>262.73</ele><time>2024-08-25T01:06:58Z</time></trkpt><trkpt lat="-39.2949734442" lon="-72.4047289789"><ele>262.83</ele><time>2024-08-25T01:06:59Z</time></trkpt><trkpt lat="-39.2949855141" lon="-72.4047112931"><ele>262.85</ele><time>2024-08-25T01:07:00Z</time></trkpt><trkpt lat="-39.2950037029" lon="-72.4046944454"><ele>262.82</ele><time>2024-08-25T01:07:01Z</time></trkpt><trkpt lat="-39.2950337939" lon="-72.4046783522"><ele>262.89</ele><time>2024-08-25T01:07:02Z</time></trkpt><trkpt lat="-39.2950668186" lon="-72.4046646059"><ele>263.05</ele><time>2024-08-25T01:07:03Z</time></trkpt><trkpt lat="-39.2951089796" lon="-72.4046535417"><ele>263.19</ele><time>2024-08-25T01:07:04Z</time></trkpt><trkpt lat="-39.2951588519" lon="-72.4046398792"><ele>263.38</ele><time>2024-08-25T01:07:05Z</time></trkpt><trkpt lat="-39.2958279792" lon="-72.4044452514"><ele>265.06</ele><time>2024-08-25T01:07:16Z</time></trkpt><trkpt lat="-39.2959955335" lon="-72.4044621829"><ele>265.08</ele><time>2024-08-25T01:07:24Z</time></trkpt><trkpt lat="-39.2960162368" lon="-72.4045453314"><ele>265.00</ele><time>2024-08-25T01:07:26Z</time></trkpt><trkpt lat="-39.2961734813" lon="-72.4053859524"><ele>265.10</ele><time>2024-08-25T01:07:37Z</time></trkpt><trkpt lat="-39.2962008901" lon="-72.4057042133"><ele>264.69</ele><time>2024-08-25T01:07:43Z</time></trkpt><trkpt lat="-39.2961753253" lon="-72.4057353102"><ele>264.76</ele><time>2024-08-25T01:07:44Z</time></trkpt><trkpt lat="-39.2961376905" lon="-72.4057586119"><ele>264.75</ele><time>2024-08-25T01:07:45Z</time></trkpt><trkpt lat="-39.2960922606" lon="-72.4057768006"><ele>264.78</ele><time>2024-08-25T01:07:46Z</time></trkpt><trkpt lat="-39.2960392032" lon="-72.4057922233"><ele>264.82</ele><time>2024-08-25T01:07:47Z</time></trkpt><trkpt lat="-39.2959828768" lon="-72.4058096576"><ele>264.91</ele><time>2024-08-25T01:07:48Z</time></trkpt><trkpt lat="-39.2952357978" lon="-72.4060326163"><ele>262.79</ele><time>2024-08-25T01:08:02Z</time></trkpt><trkpt lat="-39.2951627076" lon="-72.4060700834"><ele>262.25</ele><time>2024-08-25T01:08:05Z</time></trkpt><trkpt lat="-39.2951466981" lon="-72.4061070476"><ele>262.24</ele><time>2024-08-25T01:08:06Z</time></trkpt><trkpt lat="-39.2951408308" lon="-72.4061523937"><ele>262.31</ele><time>2024-08-25T01:08:07Z</time></trkpt><trkpt lat="-39.2951428425" lon="-72.4062057026"><ele>262.22</ele><time>2024-08-25T01:08:08Z</time></trkpt><trkpt lat="-39.2951496318" lon="-72.4062662199"><ele>262.22</ele><time>2024-08-25T01:08:09Z</time></trkpt><trkpt lat="-39.2951616179" lon="-72.4063295871"><ele>262.32</ele><time>2024-08-25T01:08:10Z</time></trkpt><trkpt lat="-39.2952135857" lon="-72.4066171702"><ele>262.53</ele><time>2024-08-25T01:08:14Z</time></trkpt><trkpt lat="-39.2952263262" lon="-72.4066922721"><ele>262.67</ele><time>2024-08-25T01:08:15Z</time></trkpt><trkpt lat="-39.2953626998" lon="-72.4073878024"><ele>262.73</ele><time>2024-08-25T01:08:26Z</time></trkpt><trkpt lat="-39.2953884322" lon="-72.4074186478"><ele>262.51</ele><time>2024-08-25T01:08:27Z</time></trkpt><trkpt lat="-39.2954216246" lon="-72.4074390158"><ele>262.58</ele><time>2024-08-25T01:08:28Z</time></trkpt><trkpt lat="-39.2954682279" lon="-72.4074434582"><ele>262.56</ele><time>2024-08-25T01:08:29Z</time></trkpt><trkpt lat="-39.2955179326" lon="-72.4074351601"><ele>262.83</ele><time>2024-08-25T01:08:30Z</time></trkpt><trkpt lat="-39.2955710739" lon="-72.4074214976"><ele>262.92</ele><time>2024-08-25T01:08:31Z</time></trkpt><trkpt lat="-39.2956245504" lon="-72.4074021354"><ele>263.25</ele><time>2024-08-25T01:08:32Z</time></trkpt><trkpt lat="-39.2964428756" lon="-72.4071235210"><ele>263.31</ele><time>2024-08-25T01:08:44Z</time></trkpt><trkpt lat="-39.2968291137" lon="-72.4069753289"><ele>261.89</ele><time>2024-08-25T01:08:54Z</time></trkpt><trkpt lat="-39.2969539203" lon="-72.4067434017"><ele>262.65</ele><time>2024-08-25T01:09:03Z</time></trkpt><trkpt lat="-39.2970532458" lon="-72.4063370470"><ele>263.97</ele><time>2024-08-25T01:09:16Z</time></trkpt><trkpt lat="-39.2969563510" lon="-72.4058265891"><ele>264.07</ele><time>2024-08-25T01:09:29Z</time></trkpt><trkpt lat="-39.2971881106" lon="-72.4056440312"><ele>263.38</ele><time>2024-08-25T01:09:40Z</time></trkpt><trkpt lat="-39.2972095683" lon="-72.4056327995"><ele>263.44</ele><time>2024-08-25T01:09:41Z</time></trkpt><trkpt lat="-39.2972381506" lon="-72.4054728728"><ele>263.63</ele><time>2024-08-25T01:09:46Z</time></trkpt><trkpt lat="-39.2972182017" lon="-72.4048790988"><ele>264.97</ele><time>2024-08-25T01:10:02Z</time></trkpt><trkpt lat="-39.2972461134" lon="-72.4045881629"><ele>265.71</ele><time>2024-08-25T01:10:12Z</time></trkpt><trkpt lat="-39.2971346341" lon="-72.4038829934"><ele>266.31</ele><time>2024-08-25T01:10:22Z</time></trkpt><trkpt lat="-39.2971336283" lon="-72.4037703406"><ele>266.38</ele><time>2024-08-25T01:10:26Z</time></trkpt><trkpt lat="-39.2971558403" lon="-72.4037386570"><ele>266.54</ele><time>2024-08-25T01:10:27Z</time></trkpt><trkpt lat="-39.2971910443" lon="-72.4037143495"><ele>266.57</ele><time>2024-08-25T01:10:28Z</time></trkpt><trkpt lat="-39.2972415034" lon="-72.4036943167"><ele>266.70</ele><time>2024-08-25T01:10:29Z</time></trkpt><trkpt lat="-39.2973040324" lon="-72.4036770500"><ele>266.79</ele><time>2024-08-25T01:10:30Z</time></trkpt><trkpt lat="-39.2973741889" lon="-72.4036607891"><ele>267.07</ele><time>2024-08-25T01:10:31Z</time></trkpt><trkpt lat="-39.2978632730" lon="-72.4035472982"><ele>267.80</ele><time>2024-08-25T01:10:39Z</time></trkpt><trkpt lat="-39.2979033384" lon="-72.4035603739"><ele>267.67</ele><time>2024-08-25T01:10:40Z</time></trkpt><trkpt lat="-39.2979420628" lon="-72.4035913870"><ele>267.70</ele><time>2024-08-25T01:10:41Z</time></trkpt><trkpt lat="-39.2979788594" lon="-72.4036436062"><ele>267.60</ele><time>2024-08-25T01:10:42Z</time></trkpt><trkpt lat="-39.2980162427" lon="-72.4037094880"><ele>267.23</ele><time>2024-08-25T01:10:43Z</time></trkpt><trkpt lat="-39.2985824402" lon="-72.4046602473"><ele>264.93</ele><time>2024-08-25T01:10:56Z</time></trkpt><trkpt lat="-39.2986174766" lon="-72.4046894163"><ele>264.88</ele><time>2024-08-25T01:10:57Z</time></trkpt><trkpt lat="-39.2986551113" lon="-72.4047054257"><ele>264.72</ele><time>2024-08-25T01:10:58Z</time></trkpt><trkpt lat="-39.2987023853" lon="-72.4047086108"><ele>264.52</ele><time>2024-08-25T01:10:59Z</time></trkpt><trkpt lat="-39.2987572029" lon="-72.4047008995"><ele>264.48</ele><time>2024-08-25T01:11:00Z</time></trkpt><trkpt lat="-39.2988188099" lon="-72.4046844710"><ele>264.46</ele><time>2024-08-25T01:11:01Z</time></trkpt><trkpt lat="-39.2988843564" lon="-72.4046643544"><ele>264.47</ele><time>2024-08-25T01:11:02Z</time></trkpt><trkpt lat="-39.2994593550" lon="-72.4044960458"><ele>263.59</ele><time>2024-08-25T01:11:13Z</time></trkpt><trkpt lat="-39.3001138140" lon="-72.4043130688"><ele>263.66</ele><time>2024-08-25T01:11:23Z</time></trkpt><trkpt lat="-39.3004587293" lon="-72.4041730072"><ele>264.41</ele><time>2024-08-25T01:11:31Z</time></trkpt><trkpt lat="-39.3004715536" lon="-72.4041291699"><ele>264.62</ele><time>2024-08-25T01:11:32Z</time></trkpt><trkpt lat="-39.3004751578" lon="-72.4040756095"><ele>264.75</ele><time>2024-08-25T01:11:33Z</time></trkpt><trkpt lat="-39.3004703801" lon="-72.4040168524"><ele>264.85</ele><time>2024-08-25T01:11:34Z</time></trkpt><trkpt lat="-39.3004622497" lon="-72.4039533176"><ele>265.08</ele><time>2024-08-25T01:11:35Z</time></trkpt><trkpt lat="-39.3004507665" lon="-72.4038896151"><ele>265.37</ele><time>2024-08-25T01:11:36Z</time></trkpt><trkpt lat="-39.3004387803" lon="-72.4038244039"><ele>265.69</ele><time>2024-08-25T01:11:37Z</time></trkpt><trkpt lat="-39.3003573921" lon="-72.4033928197"><ele>268.98</ele><time>2024-08-25T01:11:44Z</time></trkpt><trkpt lat="-39.3002910074" lon="-72.4030427914"><ele>272.10</ele><time>2024-08-25T01:11:50Z</time></trkpt><trkpt lat="-39.3002698850" lon="-72.4029495008"><ele>272.81</ele><time>2024-08-25T01:11:52Z</time></trkpt><trkpt lat="-39.3000302464" lon="-72.4028491694"><ele>271.88</ele><time>2024-08-25T01:12:01Z</time></trkpt><trkpt lat="-39.2997252289" lon="-72.4029268697"><ele>268.59</ele><time>2024-08-25T01:12:06Z</time></trkpt><trkpt lat="-39.2991494760" lon="-72.4030795041"><ele>265.48</ele><time>2024-08-25T01:12:18Z</time></trkpt><trkpt lat="-39.2984610703" lon="-72.4032810051"><ele>266.16</ele><time>2024-08-25T01:12:31Z</time></trkpt><trkpt lat="-39.2981199268" lon="-72.4033598788"><ele>266.48</ele><time>2024-08-25T01:12:41Z</time></trkpt><trkpt lat="-39.2980955355" lon="-72.4033413548"><ele>266.56</ele><time>2024-08-25T01:12:42Z</time></trkpt><trkpt lat="-39.2980742455" lon="-72.4033075757"><ele>266.68</ele><time>2024-08-25T01:12:43Z</time></trkpt><trkpt lat="-39.2980560567" lon="-72.4032618105"><ele>266.74</ele><time>2024-08-25T01:12:44Z</time></trkpt><trkpt lat="-39.2980411369" lon="-72.4032071605"><ele>266.76</ele><time>2024-08-25T01:12:45Z</time></trkpt><trkpt lat="-39.2980284803" lon="-72.4031470623"><ele>266.89</ele><time>2024-08-25T01:12:46Z</time></trkpt><trkpt lat="-39.2979136482" lon="-72.4022162519"><ele>268.24</ele><time>2024-08-25T01:12:59Z</time></trkpt><trkpt lat="-39.2979025841" lon="-72.4020888470"><ele>268.54</ele><time>2024-08-25T01:13:02Z</time></trkpt><trkpt lat="-39.2979203537" lon="-72.4020597618"><ele>268.61</ele><time>2024-08-25T01:13:03Z</time></trkpt><trkpt lat="-39.2979494389" lon="-72.4020373821"><ele>268.67</ele><time>2024-08-25T01:13:04Z</time></trkpt><trkpt lat="-39.2979882471" lon="-72.4020214565"><ele>268.67</ele><time>2024-08-25T01:13:05Z</time></trkpt><trkpt lat="-39.2980366107" lon="-72.4020086322"><ele>268.72</ele><time>2024-08-25T01:13:06Z</time></trkpt><trkpt lat="-39.2980910093" lon="-72.4019943830"><ele>268.84</ele><time>2024-08-25T01:13:07Z</time></trkpt><trkpt lat="-39.2988641560" lon="-72.4017908704"><ele>270.67</ele><time>2024-08-25T01:13:21Z</time></trkpt><trkpt lat="-39.2995482869" lon="-72.4016052112"><ele>273.85</ele><time>2024-08-25T01:13:34Z</time></trkpt><trkpt lat="-39.2999288253" lon="-72.4015094899"><ele>275.12</ele><time>2024-08-25T01:13:45Z</time></trkpt><trkpt lat="-39.2999422364" lon="-72.4014954083"><ele>274.96</ele><time>2024-08-25T01:13:46Z</time></trkpt><trkpt lat="-39.2999598384" lon="-72.4014786445"><ele>274.99</ele><time>2024-08-25T01:13:47Z</time></trkpt><trkpt lat="-39.2999781109" lon="-72.4014491402"><ele>275.24</ele><time>2024-08-25T01:13:48Z</time></trkpt><trkpt lat="-39.2999881692" lon="-72.4014079012"><ele>275.14</ele><time>2024-08-25T01:13:49Z</time></trkpt><trkpt lat="-39.2999920249" lon="-72.4013562687"><ele>275.25</ele><time>2024-08-25T01:13:50Z</time></trkpt><trkpt lat="-39.2999870796" lon="-72.4012944102"><ele>274.97</ele><time>2024-08-25T01:13:51Z</time></trkpt><trkpt lat="-39.2999750935" lon="-72.4012258463"><ele>274.78</ele><time>2024-08-25T01:13:52Z</time></trkpt><trkpt lat="-39.2999596708" lon="-72.4011518341"><ele>274.68</ele><time>2024-08-25T01:13:53Z</time></trkpt><trkpt lat="-39.2998005822" lon="-72.4002526235"><ele>272.80</ele><time>2024-08-25T01:14:04Z</time></trkpt><trkpt lat="-39.2997778673" lon="-72.4001916032"><ele>272.62</ele><time>2024-08-25T01:14:05Z</time></trkpt><trkpt lat="-39.2997432500" lon="-72.4001468439"><ele>272.50</ele><time>2024-08-25T01:14:06Z</time></trkpt><trkpt lat="-39.2996975686" lon="-72.4001273140"><ele>272.36</ele><time>2024-08-25T01:14:07Z</time></trkpt><trkpt lat="-39.2996428348" lon="-72.4001273140"><ele>272.39</ele><time>2024-08-25T01:14:08Z</time></trkpt><trkpt lat="-39.2995829880" lon="-72.4001382105"><ele>272.19</ele><time>2024-08-25T01:14:09Z</time></trkpt><trkpt lat="-39.2995199561" lon="-72.4001555610"><ele>272.04</ele><time>2024-08-25T01:14:10Z</time></trkpt><trkpt lat="-39.2986727133" lon="-72.4003843870"><ele>269.38</ele><time>2024-08-25T01:14:24Z</time></trkpt><trkpt lat="-39.2979634367" lon="-72.4005774222"><ele>268.89</ele><time>2024-08-25T01:14:34Z</time></trkpt><trkpt lat="-39.2973309383" lon="-72.4006549548"><ele>265.55</ele><time>2024-08-25T01:14:43Z</time></trkpt><trkpt lat="-39.2970019486" lon="-72.4006816093"><ele>262.23</ele><time>2024-08-25T01:14:47Z</time></trkpt><trkpt lat="-39.2964726314" lon="-72.4006923381"><ele>260.54</ele><time>2024-08-25T01:14:57Z</time></trkpt><trkpt lat="-39.2964488268" lon="-72.4006671924"><ele>260.57</ele><time>2024-08-25T01:14:58Z</time></trkpt><trkpt lat="-39.2964300513" lon="-72.4006257858"><ele>260.47</ele><time>2024-08-25T01:14:59Z</time></trkpt><trkpt lat="-39.2964130361" lon="-72.4005677830"><ele>260.42</ele><time>2024-08-25T01:15:00Z</time></trkpt><trkpt lat="-39.2963062506" lon="-72.4002832174"><ele>260.47</ele><time>2024-08-25T01:15:04Z</time></trkpt><trkpt lat="-39.2962659337" lon="-72.4002123065"><ele>260.44</ele><time>2024-08-25T01:15:05Z</time></trkpt><trkpt lat="-39.2962220125" lon="-72.4001453351"><ele>260.39</ele><time>2024-08-25T01:15:06Z</time></trkpt><trkpt lat="-39.2961728945" lon="-72.4000826385"><ele>260.37</ele><time>2024-08-25T01:15:07Z</time></trkpt><trkpt lat="-39.2961207591" lon="-72.4000255577"><ele>260.33</ele><time>2024-08-25T01:15:08Z</time></trkpt><trkpt lat="-39.2960646003" lon="-72.3999758530"><ele>260.27</ele><time>2024-08-25T01:15:09Z</time></trkpt><trkpt lat="-39.2960068490" lon="-72.3999319319"><ele>260.40</ele><time>2024-08-25T01:15:10Z</time></trkpt><trkpt lat="-39.2959506903" lon="-72.3998990748"><ele>260.38</ele><time>2024-08-25T01:15:11Z</time></trkpt><trkpt lat="-39.2958978005" lon="-72.3998720013"><ele>260.68</ele><time>2024-08-25T01:15:12Z</time></trkpt><trkpt lat="-39.2958529573" lon="-72.3998576682"><ele>260.67</ele><time>2024-08-25T01:15:13Z</time></trkpt><trkpt lat="-39.2956618499" lon="-72.3998065386"><ele>261.85</ele><time>2024-08-25T01:15:20Z</time></trkpt><trkpt lat="-39.2956467625" lon="-72.3997784592"><ele>261.73</ele><time>2024-08-25T01:15:21Z</time></trkpt><trkpt lat="-39.2956344411" lon="-72.3997373879"><ele>261.72</ele><time>2024-08-25T01:15:22Z</time></trkpt><trkpt lat="-39.2956242990" lon="-72.3996813968"><ele>261.97</ele><time>2024-08-25T01:15:23Z</time></trkpt><trkpt lat="-39.2956131510" lon="-72.3996152636"><ele>262.10</ele><time>2024-08-25T01:15:24Z</time></trkpt><trkpt lat="-39.2954321019" lon="-72.3986520153"><ele>263.44</ele><time>2024-08-25T01:15:34Z</time></trkpt><trkpt lat="-39.2951457761" lon="-72.3973425943"><ele>266.65</ele><time>2024-08-25T01:15:47Z</time></trkpt><trkpt lat="-39.2950487975" lon="-72.3968294542"><ele>269.10</ele><time>2024-08-25T01:15:52Z</time></trkpt><trkpt lat="-39.2949965782" lon="-72.3956319317"><ele>272.31</ele><time>2024-08-25T01:16:03Z</time></trkpt><trkpt lat="-39.2949994281" lon="-72.3941096105"><ele>274.91</ele><time>2024-08-25T01:16:17Z</time></trkpt><trkpt lat="-39.2948571034" lon="-72.3924618959"><ele>275.63</ele><time>2024-08-25T01:16:32Z</time></trkpt><trkpt lat="-39.2943024728" lon="-72.3908919655"><ele>275.60</ele><time>2024-08-25T01:16:48Z</time></trkpt><trkpt lat="-39.2934945412" lon="-72.3892788682"><ele>275.60</ele><time>2024-08-25T01:17:06Z</time></trkpt><trkpt lat="-39.2934689764" lon="-72.3891777825"><ele>275.81</ele><time>2024-08-25T01:17:07Z</time></trkpt><trkpt lat="-39.2934562359" lon="-72.3890764453"><ele>275.79</ele><time>2024-08-25T01:17:08Z</time></trkpt><trkpt lat="-39.2934567388" lon="-72.3889746889"><ele>275.73</ele><time>2024-08-25T01:17:09Z</time></trkpt><trkpt lat="-39.2934683897" lon="-72.3888727650"><ele>275.74</ele><time>2024-08-25T01:17:10Z</time></trkpt><trkpt lat="-39.2934858240" lon="-72.3887720983"><ele>275.85</ele><time>2024-08-25T01:17:11Z</time></trkpt><trkpt lat="-39.2938905861" lon="-72.3867961485"><ele>276.84</ele><time>2024-08-25T01:17:30Z</time></trkpt><trkpt lat="-39.2941755708" lon="-72.3853737395"><ele>279.29</ele><time>2024-08-25T01:17:44Z</time></trkpt><trkpt lat="-39.2943779100" lon="-72.3843780532"><ele>282.50</ele><time>2024-08-25T01:17:54Z</time></trkpt><trkpt lat="-39.2944793310" lon="-72.3837493267"><ele>284.11</ele><time>2024-08-25T01:18:00Z</time></trkpt><trkpt lat="-39.2947784811" lon="-72.3822349682"><ele>285.81</ele><time>2024-08-25T01:18:14Z</time></trkpt><trkpt lat="-39.2950752843" lon="-72.3807784449"><ele>284.52</ele><time>2024-08-25T01:18:28Z</time></trkpt><trkpt lat="-39.2953601852" lon="-72.3793991189"><ele>281.26</ele><time>2024-08-25T01:18:41Z</time></trkpt><trkpt lat="-39.2955936212" lon="-72.3782311846"><ele>278.13</ele><time>2024-08-25T01:18:52Z</time></trkpt><trkpt lat="-39.2959981319" lon="-72.3762025125"><ele>276.36</ele><time>2024-08-25T01:19:12Z</time></trkpt><trkpt lat="-39.2960166559" lon="-72.3761081323"><ele>276.41</ele><time>2024-08-25T01:19:13Z</time></trkpt><trkpt lat="-39.2960354313" lon="-72.3760140035"><ele>276.30</ele><time>2024-08-25T01:19:14Z</time></trkpt><trkpt lat="-39.2963233497" lon="-72.3747192509"><ele>274.65</ele><time>2024-08-25T01:19:29Z</time></trkpt><trkpt lat="-39.2965276167" lon="-72.3738777079"><ele>273.46</ele><time>2024-08-25T01:19:40Z</time></trkpt><trkpt lat="-39.2965585459" lon="-72.3736698367"><ele>272.82</ele><time>2024-08-25T01:19:45Z</time></trkpt><trkpt lat="-39.2965477332" lon="-72.3736461159"><ele>272.78</ele><time>2024-08-25T01:19:46Z</time></trkpt><trkpt lat="-39.2965328135" lon="-72.3736239038"><ele>272.83</ele><time>2024-08-25T01:19:47Z</time></trkpt><trkpt lat="-39.2965140380" lon="-72.3736037035"><ele>272.74</ele><time>2024-08-25T01:19:48Z</time></trkpt><trkpt lat="-39.2965273652" lon="-72.3735782225"><ele>272.70</ele><time>2024-08-25T01:19:59Z</time></trkpt><trkpt lat="-39.2964735534" lon="-72.3736989219"><ele>272.70</ele><time>2024-08-25T01:20:03Z</time></trkpt><trkpt lat="-39.2962834518" lon="-72.3745414708"><ele>273.93</ele><time>2024-08-25T01:20:15Z</time></trkpt><trkpt lat="-39.2960050888" lon="-72.3758498859"><ele>275.98</ele><time>2024-08-25T01:20:29Z</time></trkpt><trkpt lat="-39.2957030050" lon="-72.3772893101"><ele>277.55</ele><time>2024-08-25T01:20:43Z</time></trkpt><trkpt lat="-39.2952968180" lon="-72.3792880587"><ele>280.80</ele><time>2024-08-25T01:21:02Z</time></trkpt><trkpt lat="-39.2950431816" lon="-72.3805534746"><ele>284.06</ele><time>2024-08-25T01:21:14Z</time></trkpt><trkpt lat="-39.2946747132" lon="-72.3824859224"><ele>285.99</ele><time>2024-08-25T01:21:32Z</time></trkpt><trkpt lat="-39.2943021376" lon="-72.3844145145"><ele>283.17</ele><time>2024-08-25T01:21:50Z</time></trkpt><trkpt lat="-39.2940915003" lon="-72.3854850512"><ele>280.07</ele><time>2024-08-25T01:22:00Z</time></trkpt><trkpt lat="-39.2937930208" lon="-72.3870469350"><ele>276.81</ele><time>2024-08-25T01:22:15Z</time></trkpt><trkpt lat="-39.2934106383" lon="-72.3890699912"><ele>276.09</ele><time>2024-08-25T01:22:34Z</time></trkpt><trkpt lat="-39.2934121471" lon="-72.3891806323"><ele>276.08</ele><time>2024-08-25T01:22:35Z</time></trkpt><trkpt lat="-39.2934270669" lon="-72.3892890103"><ele>276.10</ele><time>2024-08-25T01:22:36Z</time></trkpt><trkpt lat="-39.2934538051" lon="-72.3893908504"><ele>276.04</ele><time>2024-08-25T01:22:37Z</time></trkpt><trkpt lat="-39.2934897635" lon="-72.3894893378"><ele>275.97</ele><time>2024-08-25T01:22:38Z</time></trkpt><trkpt lat="-39.2935302481" lon="-72.3895828798"><ele>275.82</ele><time>2024-08-25T01:22:39Z</time></trkpt><trkpt lat="-39.2941987887" lon="-72.3908430990"><ele>275.82</ele><time>2024-08-25T01:22:53Z</time></trkpt><trkpt lat="-39.2947855219" lon="-72.3924090900"><ele>275.91</ele><time>2024-08-25T01:23:09Z</time></trkpt><trkpt lat="-39.2949805688" lon="-72.3940190859"><ele>275.62</ele><time>2024-08-25T01:23:24Z</time></trkpt><trkpt lat="-39.2949710134" lon="-72.3955611046"><ele>272.61</ele><time>2024-08-25T01:23:38Z</time></trkpt><trkpt lat="-39.2949684151" lon="-72.3964902386"><ele>270.12</ele><time>2024-08-25T01:23:49Z</time></trkpt><trkpt lat="-39.2949593626" lon="-72.3965237662"><ele>270.11</ele><time>2024-08-25T01:23:50Z</time></trkpt><trkpt lat="-39.2949435208" lon="-72.3965466488"><ele>269.93</ele><time>2024-08-25T01:23:51Z</time></trkpt><trkpt lat="-39.2949199677" lon="-72.3965633288"><ele>269.95</ele><time>2024-08-25T01:23:52Z</time></trkpt><trkpt lat="-39.2948891222" lon="-72.3965700343"><ele>269.96</ele><time>2024-08-25T01:23:53Z</time></trkpt><trkpt lat="-39.2948493082" lon="-72.3965594731"><ele>269.80</ele><time>2024-08-25T01:23:54Z</time></trkpt><trkpt lat="-39.2947996873" lon="-72.3965380155"><ele>269.86</ele><time>2024-08-25T01:23:55Z</time></trkpt><trkpt lat="-39.2947411817" lon="-72.3965120316"><ele>269.91</ele><time>2024-08-25T01:23:56Z</time></trkpt><trkpt lat="-39.2937830463" lon="-72.3960899189"><ele>272.32</ele><time>2024-08-25T01:24:10Z</time></trkpt><trkpt lat="-39.2928591091" lon="-72.3956920300"><ele>275.33</ele><time>2024-08-25T01:24:23Z</time></trkpt><trkpt lat="-39.2924765591" lon="-72.3955396470"><ele>276.71</ele><time>2024-08-25T01:24:32Z</time></trkpt><trkpt lat="-39.2924604658" lon="-72.3955479451"><ele>276.90</ele><time>2024-08-25T01:24:33Z</time></trkpt><trkpt lat="-39.2924473900" lon="-72.3955599312"><ele>276.96</ele><time>2024-08-25T01:24:34Z</time></trkpt><trkpt lat="-39.2924530897" lon="-72.3955409881"><ele>276.48</ele><time>2024-08-25T01:24:45Z</time></trkpt><trkpt lat="-39.2924753856" lon="-72.3955604341"><ele>276.52</ele><time>2024-08-25T01:24:47Z</time></trkpt><trkpt lat="-39.2924975976" lon="-72.3955738451"><ele>276.55</ele><time>2024-08-25T01:24:48Z</time></trkpt><trkpt lat="-39.2925287783" lon="-72.3955863342"><ele>276.49</ele><time>2024-08-25T01:24:49Z</time></trkpt><trkpt lat="-39.2925657425" lon="-72.3956012540"><ele>276.33</ele><time>2024-08-25T01:24:50Z</time></trkpt><trkpt lat="-39.2926104181" lon="-72.3956215382"><ele>276.28</ele><time>2024-08-25T01:24:51Z</time></trkpt><trkpt lat="-39.2935230397" lon="-72.3960153200"><ele>273.49</ele><time>2024-08-25T01:25:07Z</time></trkpt><trkpt lat="-39.2942799255" lon="-72.3963306472"><ele>270.38</ele><time>2024-08-25T01:25:18Z</time></trkpt><trkpt lat="-39.2949275952" lon="-72.3966146260"><ele>268.88</ele><time>2024-08-25T01:25:30Z</time></trkpt><trkpt lat="-39.2949942313" lon="-72.3967391811"><ele>268.69</ele><time>2024-08-25T01:25:34Z</time></trkpt><trkpt lat="-39.2951585166" lon="-72.3975813948"><ele>265.32</ele><time>2024-08-25T01:25:44Z</time></trkpt><trkpt lat="-39.2952312715" lon="-72.3978737555"><ele>264.01</ele><time>2024-08-25T01:25:47Z</time></trkpt><trkpt lat="-39.2953204550" lon="-72.3982980475"><ele>263.03</ele><time>2024-08-25T01:25:51Z</time></trkpt><trkpt lat="-39.2953471933" lon="-72.3985553719"><ele>262.73</ele><time>2024-08-25T01:25:53Z</time></trkpt><trkpt lat="-39.2953659687" lon="-72.3986714613"><ele>262.50</ele><time>2024-08-25T01:25:54Z</time></trkpt><trkpt lat="-39.2956062779" lon="-72.3998189438"><ele>260.41</ele><time>2024-08-25T01:26:08Z</time></trkpt><trkpt lat="-39.2956066970" lon="-72.3998811375"><ele>260.23</ele><time>2024-08-25T01:26:09Z</time></trkpt><trkpt lat="-39.2955983989" lon="-72.3999509588"><ele>260.01</ele><time>2024-08-25T01:26:10Z</time></trkpt><trkpt lat="-39.2955829762" lon="-72.4000284914"><ele>259.87</ele><time>2024-08-25T01:26:11Z</time></trkpt><trkpt lat="-39.2955610994" lon="-72.4001108855"><ele>259.73</ele><time>2024-08-25T01:26:12Z</time></trkpt><trkpt lat="-39.2955372110" lon="-72.4001976382"><ele>259.45</ele><time>2024-08-25T01:26:13Z</time></trkpt><trkpt lat="-39.2953688186" lon="-72.4012745451"><ele>256.57</ele><time>2024-08-25T01:26:24Z</time></trkpt><trkpt lat="-39.2953839898" lon="-72.4013876170"><ele>256.42</ele><time>2024-08-25T01:26:25Z</time></trkpt><trkpt lat="-39.2956439126" lon="-72.4027423840"><ele>258.41</ele><time>2024-08-25T01:26:38Z</time></trkpt><trkpt lat="-39.2958117183" lon="-72.4036084022"><ele>260.65</ele><time>2024-08-25T01:26:47Z</time></trkpt><trkpt lat="-39.2958258837" lon="-72.4036960769"><ele>260.74</ele><time>2024-08-25T01:26:48Z</time></trkpt><trkpt lat="-39.2959092837" lon="-72.4043023400"><ele>260.44</ele><time>2024-08-25T01:26:58Z</time></trkpt><trkpt lat="-39.2958889157" lon="-72.4043248873"><ele>260.31</ele><time>2024-08-25T01:26:59Z</time></trkpt><trkpt lat="-39.2958629318" lon="-72.4043393042"><ele>260.20</ele><time>2024-08-25T01:27:00Z</time></trkpt><trkpt lat="-39.2958375346" lon="-72.4043446686"><ele>260.20</ele><time>2024-08-25T01:27:01Z</time></trkpt><trkpt lat="-39.2958189268" lon="-72.4043447524"><ele>260.08</ele><time>2024-08-25T01:27:02Z</time></trkpt><trkpt lat="-39.2958066054" lon="-72.4043424893"><ele>259.89</ele><time>2024-08-25T01:27:03Z</time></trkpt><trkpt lat="-39.2957346886" lon="-72.4043393880"><ele>259.66</ele><time>2024-08-25T01:27:15Z</time></trkpt><trkpt lat="-39.2957312521" lon="-72.4043165892"><ele>259.65</ele><time>2024-08-25T01:27:46Z</time></trkpt><trkpt lat="-39.2957292404" lon="-72.4043224566"><ele>257.29</ele><time>2024-08-25T01:27:55Z</time></trkpt><trkpt lat="-39.2957238760" lon="-72.4043325987"><ele>259.63</ele><time>2024-08-25T01:27:59Z</time></trkpt><trkpt lat="-39.2957290728" lon="-72.4043432437"><ele>259.38</ele><time>2024-08-25T01:28:29Z</time></trkpt></trkseg></trk></gpx>