<?xml version="1.0" encoding="UTF-8" standalone="no" ?><gpx xmlns="http://www.topografix.com/GPX/1/1" xmlns:gpxx="http://www.garmin.com/xmlschemas/GpxExtensions/v3" xmlns:gpxtrkx="http://www.garmin.com/xmlschemas/TrackStatsExtension/v1" xmlns:wptx1="http://www.garmin.com/xmlschemas/WaypointExtension/v1" xmlns:gpxtpx="http://www.garmin.com/xmlschemas/TrackPointExtension/v1" creator="GPSMAP 64sx" version="1.1" xmlns:xsi="http://www.w3.org/2001/XMLSchema-instance" xsi:schemaLocation="http://www.topografix.com/GPX/1/1 http://www.topografix.com/GPX/1/1/gpx.xsd http://www.garmin.com/xmlschemas/GpxExtensions/v3 http://www8.garmin.com/xmlschemas/GpxExtensionsv3.xsd http://www.garmin.com/xmlschemas/TrackStatsExtension/v1 http://www8.garmin.com/xmlschemas/TrackStatsExtension.xsd http://www.garmin.com/xmlschemas/WaypointExtension/v1 http://www8.garmin.com/xmlschemas/WaypointExtensionv1.xsd http://www.garmin.com/xmlschemas/TrackPointExtension/v1 http://www.garmin.com/xmlschemas/TrackPointExtensionv1.xsd"><metadata><link href="http://www.garmin.com"><text>Garmin International</text></link><time>2024-08-28T01:28:01Z</time></metadata><trk><name>GPS HUIS 240827</name><extensions><gpxx:TrackExtension><gpxx:DisplayColor>Cyan</gpxx:DisplayColor></gpxx:TrackExtension><gpxtrkx:TrackStatsExtension><gpxtrkx:Distance>12926.000</gpxtrkx:Distance><gpxtrkx:TotalElapsedTime>1818</gpxtrkx:TotalElapsedTime><gpxtrkx:MovingTime>1747</gpxtrkx:MovingTime><gpxtrkx:StoppedTime>71</gpxtrkx:StoppedTime><gpxtrkx:MovingSpeed>7.399</gpxtrkx:MovingSpeed><gpxtrkx:MaxSpeed>16.793</gpxtrkx:MaxSpeed><gpxtrkx:MaxElevation>276.340</gpxtrkx:MaxElevation><gpxtrkx:MinElevation>203.891</gpxtrkx:MinElevation><gpxtrkx:Ascent>148.000</gpxtrkx:Ascent><gpxtrkx:Descent>144.629</gpxtrkx:Descent><gpxtrkx:AvgAscentRate>0.104</gpxtrkx:AvgAscentRate><gpxtrkx:MaxAscentRate>0.773</gpxtrkx:MaxAscentRate><gpxtrkx:AvgDescentRate>0.106</gpxtrkx:AvgDescentRate><gpxtrkx:MaxDescentRate>-1.387</gpxtrkx:MaxDescentRate></gpxtrkx:TrackStatsExtension></extensions><trkseg><trkpt lat="-39.2732211482" lon="-72.4094153848"><ele>247.68</ele><time>2024-08-28T00:57:43Z</time></trkpt><trkpt lat="-39.2732201423" lon="-72.4094149657"><ele>247.68</ele><time>2024-08-28T00:57:44Z</time></trkpt><trkpt lat="-39.2732144427" lon="-72.4094120320"><ele>246.44</ele><time>2024-08-28T00:57:48Z</time></trkpt><trkpt lat="-39.2732306197" lon="-72.4094081763"><ele>245.30</ele><time>2024-08-28T00:57:59Z</time></trkpt><trkpt lat="-39.2736202944" lon="-72.4094777461"><ele>245.88</ele><time>2024-08-28T00:58:08Z</time></trkpt><trkpt lat="-39.2745680362" lon="-72.4097885471"><ele>245.95</ele><time>2024-08-28T00:58:18Z</time></trkpt><trkpt lat="-39.2748018075" lon="-72.4098623917"><ele>246.89</ele><time>2024-08-28T00:58:20Z</time></trkpt><trkpt lat="-39.2762749270" lon="-72.4102445226"><ele>247.83</ele><time>2024-08-28T00:58:31Z</time></trkpt><trkpt lat="-39.2765748315" lon="-72.4101907108"><ele>248.23</ele><time>2024-08-28T00:58:33Z</time></trkpt><trkpt lat="-39.2767158989" lon="-72.4101446941"><ele>247.90</ele><time>2024-08-28T00:58:34Z</time></trkpt><trkpt lat="-39.2779575940" lon="-72.4097014591"><ele>246.54</ele><time>2024-08-28T00:58:43Z</time></trkpt><trkpt lat="-39.2780984938" lon="-72.4096914008"><ele>245.88</ele><time>2024-08-28T00:58:44Z</time></trkpt><trkpt lat="-39.2782429140" lon="-72.4096914008"><ele>245.50</ele><time>2024-08-28T00:58:45Z</time></trkpt><trkpt lat="-39.2783871666" lon="-72.4097106792"><ele>244.65</ele><time>2024-08-28T00:58:46Z</time></trkpt><trkpt lat="-39.2785306647" lon="-72.4097391777"><ele>243.97</ele><time>2024-08-28T00:58:47Z</time></trkpt><trkpt lat="-39.2787967063" lon="-72.4098379165"><ele>242.14</ele><time>2024-08-28T00:58:49Z</time></trkpt><trkpt lat="-39.2789223511" lon="-72.4099166226"><ele>240.58</ele><time>2024-08-28T00:58:50Z</time></trkpt><trkpt lat="-39.2790438049" lon="-72.4100194685"><ele>239.77</ele><time>2024-08-28T00:58:51Z</time></trkpt><trkpt lat="-39.2791672703" lon="-72.4101418443"><ele>238.37</ele><time>2024-08-28T00:58:52Z</time></trkpt><trkpt lat="-39.2792799231" lon="-72.4102697521"><ele>236.90</ele><time>2024-08-28T00:58:53Z</time></trkpt><trkpt lat="-39.2793901451" lon="-72.4104016833"><ele>235.70</ele><time>2024-08-28T00:58:54Z</time></trkpt><trkpt lat="-39.2797040474" lon="-72.4108180963"><ele>231.54</ele><time>2024-08-28T00:58:57Z</time></trkpt><trkpt lat="-39.2800065503" lon="-72.4112391192"><ele>227.40</ele><time>2024-08-28T00:59:00Z</time></trkpt><trkpt lat="-39.2802314367" lon="-72.4114915822"><ele>224.73</ele><time>2024-08-28T00:59:02Z</time></trkpt><trkpt lat="-39.2803518008" lon="-72.4115992058"><ele>223.63</ele><time>2024-08-28T00:59:03Z</time></trkpt><trkpt lat="-39.2804800440" lon="-72.4116862938"><ele>222.25</ele><time>2024-08-28T00:59:04Z</time></trkpt><trkpt lat="-39.2806196027" lon="-72.4117578752"><ele>220.99</ele><time>2024-08-28T00:59:05Z</time></trkpt><trkpt lat="-39.2807647772" lon="-72.4118204042"><ele>219.77</ele><time>2024-08-28T00:59:06Z</time></trkpt><trkpt lat="-39.2811936792" lon="-72.4119841866"><ele>217.24</ele><time>2024-08-28T00:59:09Z</time></trkpt><trkpt lat="-39.2814621516" lon="-72.4120793212"><ele>215.95</ele><time>2024-08-28T00:59:11Z</time></trkpt><trkpt lat="-39.2822275870" lon="-72.4123651441"><ele>214.04</ele><time>2024-08-28T00:59:19Z</time></trkpt><trkpt lat="-39.2831381131" lon="-72.4126702454"><ele>212.88</ele><time>2024-08-28T00:59:31Z</time></trkpt><trkpt lat="-39.2848335207" lon="-72.4132317491"><ele>216.27</ele><time>2024-08-28T00:59:51Z</time></trkpt><trkpt lat="-39.2863814067" lon="-72.4137717113"><ele>218.05</ele><time>2024-08-28T01:00:09Z</time></trkpt><trkpt lat="-39.2877463996" lon="-72.4142401759"><ele>217.59</ele><time>2024-08-28T01:00:25Z</time></trkpt><trkpt lat="-39.2890927847" lon="-72.4143875297"><ele>214.84</ele><time>2024-08-28T01:00:40Z</time></trkpt><trkpt lat="-39.2899352498" lon="-72.4140643235"><ele>209.42</ele><time>2024-08-28T01:00:50Z</time></trkpt><trkpt lat="-39.2900143750" lon="-72.4140191451"><ele>209.76</ele><time>2024-08-28T01:00:51Z</time></trkpt><trkpt lat="-39.2900911532" lon="-72.4139670935"><ele>203.79</ele><time>2024-08-28T01:00:52Z</time></trkpt><trkpt lat="-39.2901660036" lon="-72.4139103480"><ele>217.63</ele><time>2024-08-28T01:00:53Z</time></trkpt><trkpt lat="-39.2902383395" lon="-72.4138500821"><ele>217.51</ele><time>2024-08-28T01:00:54Z</time></trkpt><trkpt lat="-39.2903079093" lon="-72.4137883075"><ele>213.95</ele><time>2024-08-28T01:00:55Z</time></trkpt><trkpt lat="-39.2905806564" lon="-72.4135184102"><ele>211.66</ele><time>2024-08-28T01:00:59Z</time></trkpt><trkpt lat="-39.2910531443" lon="-72.4128675554"><ele>214.04</ele><time>2024-08-28T01:01:07Z</time></trkpt><trkpt lat="-39.2914606724" lon="-72.4118741322"><ele>217.05</ele><time>2024-08-28T01:01:17Z</time></trkpt><trkpt lat="-39.2917147279" lon="-72.4111326691"><ele>219.63</ele><time>2024-08-28T01:01:24Z</time></trkpt><trkpt lat="-39.2918936815" lon="-72.4106453452"><ele>215.58</ele><time>2024-08-28T01:01:29Z</time></trkpt><trkpt lat="-39.2919260357" lon="-72.4105590116"><ele>221.99</ele><time>2024-08-28T01:01:30Z</time></trkpt><trkpt lat="-39.2919914983" lon="-72.4103780463"><ele>223.20</ele><time>2024-08-28T01:01:32Z</time></trkpt><trkpt lat="-39.2923338991" lon="-72.4093627464"><ele>223.98</ele><time>2024-08-28T01:01:45Z</time></trkpt><trkpt lat="-39.2922264431" lon="-72.4091688730"><ele>224.70</ele><time>2024-08-28T01:01:52Z</time></trkpt><trkpt lat="-39.2916615866" lon="-72.4089143146"><ele>221.84</ele><time>2024-08-28T01:02:01Z</time></trkpt><trkpt lat="-39.2910172697" lon="-72.4085636158"><ele>220.40</ele><time>2024-08-28T01:02:12Z</time></trkpt><trkpt lat="-39.2909959797" lon="-72.4082236458"><ele>221.50</ele><time>2024-08-28T01:02:18Z</time></trkpt><trkpt lat="-39.2911583371" lon="-72.4077687599"><ele>222.21</ele><time>2024-08-28T01:02:24Z</time></trkpt><trkpt lat="-39.2914644442" lon="-72.4077224918"><ele>222.56</ele><time>2024-08-28T01:02:32Z</time></trkpt><trkpt lat="-39.2923774011" lon="-72.4084046111"><ele>225.13</ele><time>2024-08-28T01:02:48Z</time></trkpt><trkpt lat="-39.2925856914" lon="-72.4085735902"><ele>227.45</ele><time>2024-08-28T01:02:57Z</time></trkpt><trkpt lat="-39.2925946601" lon="-72.4086832255"><ele>226.15</ele><time>2024-08-28T01:03:00Z</time></trkpt><trkpt lat="-39.2925804947" lon="-72.4087321758"><ele>226.94</ele><time>2024-08-28T01:03:01Z</time></trkpt><trkpt lat="-39.2924145330" lon="-72.4092074297"><ele>223.32</ele><time>2024-08-28T01:03:08Z</time></trkpt><trkpt lat="-39.2924155388" lon="-72.4093422946"><ele>226.47</ele><time>2024-08-28T01:03:11Z</time></trkpt><trkpt lat="-39.2927699257" lon="-72.4096007086"><ele>225.08</ele><time>2024-08-28T01:03:20Z</time></trkpt><trkpt lat="-39.2931871768" lon="-72.4098346476"><ele>228.46</ele><time>2024-08-28T01:03:26Z</time></trkpt><trkpt lat="-39.2932546511" lon="-72.4098696839"><ele>228.66</ele><time>2024-08-28T01:03:27Z</time></trkpt><trkpt lat="-39.2937191762" lon="-72.4101172853"><ele>232.11</ele><time>2024-08-28T01:03:34Z</time></trkpt><trkpt lat="-39.2939302325" lon="-72.4102381524"><ele>235.24</ele><time>2024-08-28T01:03:38Z</time></trkpt><trkpt lat="-39.2939796858" lon="-72.4102340452"><ele>235.44</ele><time>2024-08-28T01:03:39Z</time></trkpt><trkpt lat="-39.2940268759" lon="-72.4102192093"><ele>236.92</ele><time>2024-08-28T01:03:40Z</time></trkpt><trkpt lat="-39.2940739822" lon="-72.4101875257"><ele>237.42</ele><time>2024-08-28T01:03:41Z</time></trkpt><trkpt lat="-39.2941274587" lon="-72.4101437721"><ele>237.15</ele><time>2024-08-28T01:03:42Z</time></trkpt><trkpt lat="-39.2944357451" lon="-72.4098217394"><ele>239.53</ele><time>2024-08-28T01:03:50Z</time></trkpt><trkpt lat="-39.2944287043" lon="-72.4097730406"><ele>239.86</ele><time>2024-08-28T01:03:51Z</time></trkpt><trkpt lat="-39.2944027204" lon="-72.4097188935"><ele>239.18</ele><time>2024-08-28T01:03:52Z</time></trkpt><trkpt lat="-39.2943717912" lon="-72.4096596334"><ele>238.95</ele><time>2024-08-28T01:03:53Z</time></trkpt><trkpt lat="-39.2943361681" lon="-72.4095977750"><ele>239.18</ele><time>2024-08-28T01:03:54Z</time></trkpt><trkpt lat="-39.2942971084" lon="-72.4095310550"><ele>235.96</ele><time>2024-08-28T01:03:55Z</time></trkpt><trkpt lat="-39.2940091901" lon="-72.4090063479"><ele>234.57</ele><time>2024-08-28T01:04:02Z</time></trkpt><trkpt lat="-39.2939101160" lon="-72.4088192638"><ele>232.51</ele><time>2024-08-28T01:04:05Z</time></trkpt><trkpt lat="-39.2938516941" lon="-72.4087310862"><ele>232.22</ele><time>2024-08-28T01:04:07Z</time></trkpt><trkpt lat="-39.2938163225" lon="-72.4086978938"><ele>232.82</ele><time>2024-08-28T01:04:08Z</time></trkpt><trkpt lat="-39.2937769275" lon="-72.4086593371"><ele>232.57</ele><time>2024-08-28T01:04:09Z</time></trkpt><trkpt lat="-39.2932218779" lon="-72.4082777090"><ele>231.87</ele><time>2024-08-28T01:04:18Z</time></trkpt><trkpt lat="-39.2930919584" lon="-72.4081907887"><ele>230.53</ele><time>2024-08-28T01:04:20Z</time></trkpt><trkpt lat="-39.2928750347" lon="-72.4080221448"><ele>230.82</ele><time>2024-08-28T01:04:27Z</time></trkpt><trkpt lat="-39.2928525712" lon="-72.4079558440"><ele>228.16</ele><time>2024-08-28T01:04:30Z</time></trkpt><trkpt lat="-39.2928570975" lon="-72.4079177063"><ele>215.94</ele><time>2024-08-28T01:04:31Z</time></trkpt><trkpt lat="-39.2928671557" lon="-72.4078768026"><ele>232.55</ele><time>2024-08-28T01:04:32Z</time></trkpt><trkpt lat="-39.2928840872" lon="-72.4078276008"><ele>234.74</ele><time>2024-08-28T01:04:33Z</time></trkpt><trkpt lat="-39.2929030303" lon="-72.4077773932"><ele>231.37</ele><time>2024-08-28T01:04:34Z</time></trkpt><trkpt lat="-39.2931709159" lon="-72.4070568010"><ele>233.02</ele><time>2024-08-28T01:04:43Z</time></trkpt><trkpt lat="-39.2934570741" lon="-72.4062978197"><ele>237.53</ele><time>2024-08-28T01:04:53Z</time></trkpt><trkpt lat="-39.2935374565" lon="-72.4062747695"><ele>237.91</ele><time>2024-08-28T01:04:57Z</time></trkpt><trkpt lat="-39.2935671285" lon="-72.4062880967"><ele>237.92</ele><time>2024-08-28T01:04:58Z</time></trkpt><trkpt lat="-39.2936005723" lon="-72.4063055310"><ele>238.42</ele><time>2024-08-28T01:04:59Z</time></trkpt><trkpt lat="-39.2937574815" lon="-72.4064105563"><ele>240.16</ele><time>2024-08-28T01:05:03Z</time></trkpt><trkpt lat="-39.2943421192" lon="-72.4067933578"><ele>239.66</ele><time>2024-08-28T01:05:15Z</time></trkpt><trkpt lat="-39.2944095936" lon="-72.4068881571"><ele>239.61</ele><time>2024-08-28T01:05:18Z</time></trkpt><trkpt lat="-39.2944104318" lon="-72.4069463275"><ele>240.22</ele><time>2024-08-28T01:05:19Z</time></trkpt><trkpt lat="-39.2944027204" lon="-72.4070082698"><ele>240.07</ele><time>2024-08-28T01:05:20Z</time></trkpt><trkpt lat="-39.2941546161" lon="-72.4077230785"><ele>236.70</ele><time>2024-08-28T01:05:28Z</time></trkpt><trkpt lat="-39.2941230163" lon="-72.4078174587"><ele>236.46</ele><time>2024-08-28T01:05:29Z</time></trkpt><trkpt lat="-39.2938640993" lon="-72.4084967282"><ele>232.94</ele><time>2024-08-28T01:05:37Z</time></trkpt><trkpt lat="-39.2938179988" lon="-72.4086563196"><ele>232.69</ele><time>2024-08-28T01:05:40Z</time></trkpt><trkpt lat="-39.2938273866" lon="-72.4086891767"><ele>233.06</ele><time>2024-08-28T01:05:41Z</time></trkpt><trkpt lat="-39.2938476708" lon="-72.4087114725"><ele>233.41</ele><time>2024-08-28T01:05:42Z</time></trkpt><trkpt lat="-39.2938769236" lon="-72.4087173399"><ele>233.10</ele><time>2024-08-28T01:05:43Z</time></trkpt><trkpt lat="-39.2939117085" lon="-72.4087111373"><ele>232.89</ele><time>2024-08-28T01:05:44Z</time></trkpt><trkpt lat="-39.2939594015" lon="-72.4086852372"><ele>232.95</ele><time>2024-08-28T01:05:45Z</time></trkpt><trkpt lat="-39.2940101959" lon="-72.4086491112"><ele>233.55</ele><time>2024-08-28T01:05:46Z</time></trkpt><trkpt lat="-39.2940687854" lon="-72.4086038489"><ele>234.05</ele><time>2024-08-28T01:05:47Z</time></trkpt><trkpt lat="-39.2943462264" lon="-72.4083748553"><ele>237.61</ele><time>2024-08-28T01:05:51Z</time></trkpt><trkpt lat="-39.2946135253" lon="-72.4081398267"><ele>240.69</ele><time>2024-08-28T01:05:55Z</time></trkpt><trkpt lat="-39.2951096501" lon="-72.4076918978"><ele>243.83</ele><time>2024-08-28T01:06:03Z</time></trkpt><trkpt lat="-39.2953299265" lon="-72.4074386805"><ele>246.19</ele><time>2024-08-28T01:06:10Z</time></trkpt><trkpt lat="-39.2953208741" lon="-72.4073992018"><ele>246.22</ele><time>2024-08-28T01:06:11Z</time></trkpt><trkpt lat="-39.2952975724" lon="-72.4073638301"><ele>245.93</ele><time>2024-08-28T01:06:12Z</time></trkpt><trkpt lat="-39.2952603567" lon="-72.4073277041"><ele>245.67</ele><time>2024-08-28T01:06:13Z</time></trkpt><trkpt lat="-39.2952119932" lon="-72.4072945956"><ele>244.96</ele><time>2024-08-28T01:06:14Z</time></trkpt><trkpt lat="-39.2951567564" lon="-72.4072571285"><ele>245.03</ele><time>2024-08-28T01:06:15Z</time></trkpt><trkpt lat="-39.2946555186" lon="-72.4069475010"><ele>241.43</ele><time>2024-08-28T01:06:23Z</time></trkpt><trkpt lat="-39.2946041375" lon="-72.4069177452"><ele>241.23</ele><time>2024-08-28T01:06:24Z</time></trkpt><trkpt lat="-39.2945302930" lon="-72.4068763386"><ele>240.05</ele><time>2024-08-28T01:06:26Z</time></trkpt><trkpt lat="-39.2945105955" lon="-72.4068564735"><ele>241.11</ele><time>2024-08-28T01:06:27Z</time></trkpt><trkpt lat="-39.2944981065" lon="-72.4068252929"><ele>240.12</ele><time>2024-08-28T01:06:28Z</time></trkpt><trkpt lat="-39.2944963463" lon="-72.4067839701"><ele>239.99</ele><time>2024-08-28T01:06:29Z</time></trkpt><trkpt lat="-39.2945100088" lon="-72.4067356065"><ele>239.94</ele><time>2024-08-28T01:06:30Z</time></trkpt><trkpt lat="-39.2945320532" lon="-72.4066776037"><ele>240.80</ele><time>2024-08-28T01:06:31Z</time></trkpt><trkpt lat="-39.2948087398" lon="-72.4059606157"><ele>243.81</ele><time>2024-08-28T01:06:39Z</time></trkpt><trkpt lat="-39.2950154375" lon="-72.4053788278"><ele>244.66</ele><time>2024-08-28T01:06:47Z</time></trkpt><trkpt lat="-39.2950230651" lon="-72.4053201545"><ele>244.76</ele><time>2024-08-28T01:06:48Z</time></trkpt><trkpt lat="-39.2950222269" lon="-72.4052658398"><ele>245.41</ele><time>2024-08-28T01:06:49Z</time></trkpt><trkpt lat="-39.2950164434" lon="-72.4052109383"><ele>244.88</ele><time>2024-08-28T01:06:50Z</time></trkpt><trkpt lat="-39.2950073909" lon="-72.4051549472"><ele>245.09</ele><time>2024-08-28T01:06:51Z</time></trkpt><trkpt lat="-39.2949944828" lon="-72.4050981179"><ele>245.06</ele><time>2024-08-28T01:06:52Z</time></trkpt><trkpt lat="-39.2949801497" lon="-72.4050359242"><ele>245.14</ele><time>2024-08-28T01:06:53Z</time></trkpt><trkpt lat="-39.2949677445" lon="-72.4049714673"><ele>245.06</ele><time>2024-08-28T01:06:54Z</time></trkpt><trkpt lat="-39.2949933931" lon="-72.4046424776"><ele>245.93</ele><time>2024-08-28T01:07:03Z</time></trkpt><trkpt lat="-39.2950646393" lon="-72.4045997299"><ele>245.64</ele><time>2024-08-28T01:07:05Z</time></trkpt><trkpt lat="-39.2951135896" lon="-72.4045822956"><ele>246.59</ele><time>2024-08-28T01:07:06Z</time></trkpt><trkpt lat="-39.2951692455" lon="-72.4045693874"><ele>246.65</ele><time>2024-08-28T01:07:07Z</time></trkpt><trkpt lat="-39.2958385404" lon="-72.4043769389"><ele>247.61</ele><time>2024-08-28T01:07:17Z</time></trkpt><trkpt lat="-39.2959592398" lon="-72.4043756817"><ele>247.86</ele><time>2024-08-28T01:07:23Z</time></trkpt><trkpt lat="-39.2959766742" lon="-72.4043989833"><ele>248.32</ele><time>2024-08-28T01:07:24Z</time></trkpt><trkpt lat="-39.2959929351" lon="-72.4044315051"><ele>248.33</ele><time>2024-08-28T01:07:25Z</time></trkpt><trkpt lat="-39.2960068490" lon="-72.4044722412"><ele>248.25</ele><time>2024-08-28T01:07:26Z</time></trkpt><trkpt lat="-39.2960203439" lon="-72.4045241252"><ele>248.38</ele><time>2024-08-28T01:07:27Z</time></trkpt><trkpt lat="-39.2960317433" lon="-72.4045891687"><ele>248.18</ele><time>2024-08-28T01:07:28Z</time></trkpt><trkpt lat="-39.2962177377" lon="-72.4054943305"><ele>247.97</ele><time>2024-08-28T01:07:38Z</time></trkpt><trkpt lat="-39.2962366808" lon="-72.4056255072"><ele>247.90</ele><time>2024-08-28T01:07:40Z</time></trkpt><trkpt lat="-39.2962303944" lon="-72.4056726974"><ele>247.86</ele><time>2024-08-28T01:07:41Z</time></trkpt><trkpt lat="-39.2962117866" lon="-72.4057089910"><ele>248.22</ele><time>2024-08-28T01:07:42Z</time></trkpt><trkpt lat="-39.2961795162" lon="-72.4057383277"><ele>248.16</ele><time>2024-08-28T01:07:43Z</time></trkpt><trkpt lat="-39.2961340025" lon="-72.4057594500"><ele>248.17</ele><time>2024-08-28T01:07:44Z</time></trkpt><trkpt lat="-39.2960747425" lon="-72.4057772197"><ele>248.11</ele><time>2024-08-28T01:07:45Z</time></trkpt><trkpt lat="-39.2953259870" lon="-72.4060021061"><ele>246.07</ele><time>2024-08-28T01:07:57Z</time></trkpt><trkpt lat="-39.2952112388" lon="-72.4062103126"><ele>246.40</ele><time>2024-08-28T01:08:03Z</time></trkpt><trkpt lat="-39.2952237278" lon="-72.4062953889"><ele>246.20</ele><time>2024-08-28T01:08:04Z</time></trkpt><trkpt lat="-39.2953866720" lon="-72.4072592240"><ele>246.52</ele><time>2024-08-28T01:08:15Z</time></trkpt><trkpt lat="-39.2954185233" lon="-72.4073482398"><ele>246.95</ele><time>2024-08-28T01:08:17Z</time></trkpt><trkpt lat="-39.2954490334" lon="-72.4073835276"><ele>246.59</ele><time>2024-08-28T01:08:18Z</time></trkpt><trkpt lat="-39.2954886798" lon="-72.4074064940"><ele>246.80</ele><time>2024-08-28T01:08:19Z</time></trkpt><trkpt lat="-39.2955363728" lon="-72.4074095953"><ele>247.08</ele><time>2024-08-28T01:08:20Z</time></trkpt><trkpt lat="-39.2955933698" lon="-72.4073984474"><ele>247.02</ele><time>2024-08-28T01:08:21Z</time></trkpt><trkpt lat="-39.2956560664" lon="-72.4073794205"><ele>247.04</ele><time>2024-08-28T01:08:22Z</time></trkpt><trkpt lat="-39.2957229540" lon="-72.4073556997"><ele>247.33</ele><time>2024-08-28T01:08:23Z</time></trkpt><trkpt lat="-39.2966806702" lon="-72.4070273805"><ele>246.61</ele><time>2024-08-28T01:08:37Z</time></trkpt><trkpt lat="-39.2968471348" lon="-72.4068863969"><ele>245.89</ele><time>2024-08-28T01:08:45Z</time></trkpt><trkpt lat="-39.2970225681" lon="-72.4065726623"><ele>247.47</ele><time>2024-08-28T01:08:56Z</time></trkpt><trkpt lat="-39.2969560996" lon="-72.4061181117"><ele>248.00</ele><time>2024-08-28T01:09:06Z</time></trkpt><trkpt lat="-39.2969336361" lon="-72.4057950731"><ele>247.72</ele><time>2024-08-28T01:09:13Z</time></trkpt><trkpt lat="-39.2970819119" lon="-72.4056519102"><ele>248.27</ele><time>2024-08-28T01:09:19Z</time></trkpt><trkpt lat="-39.2971917987" lon="-72.4056070670"><ele>247.84</ele><time>2024-08-28T01:09:23Z</time></trkpt><trkpt lat="-39.2972303554" lon="-72.4054389261"><ele>248.27</ele><time>2024-08-28T01:09:28Z</time></trkpt><trkpt lat="-39.2972140945" lon="-72.4048501812"><ele>249.67</ele><time>2024-08-28T01:09:41Z</time></trkpt><trkpt lat="-39.2972689960" lon="-72.4046827946"><ele>250.02</ele><time>2024-08-28T01:09:47Z</time></trkpt><trkpt lat="-39.2971065547" lon="-72.4038605299"><ele>250.50</ele><time>2024-08-28T01:09:58Z</time></trkpt><trkpt lat="-39.2970975023" lon="-72.4037732743"><ele>251.74</ele><time>2024-08-28T01:10:01Z</time></trkpt><trkpt lat="-39.2971100751" lon="-72.4037342146"><ele>251.10</ele><time>2024-08-28T01:10:02Z</time></trkpt><trkpt lat="-39.2971316166" lon="-72.4036989268"><ele>251.48</ele><time>2024-08-28T01:10:03Z</time></trkpt><trkpt lat="-39.2971715983" lon="-72.4036703445"><ele>251.73</ele><time>2024-08-28T01:10:04Z</time></trkpt><trkpt lat="-39.2972272541" lon="-72.4036505632"><ele>252.22</ele><time>2024-08-28T01:10:05Z</time></trkpt><trkpt lat="-39.2972968239" lon="-72.4036381580"><ele>252.18</ele><time>2024-08-28T01:10:06Z</time></trkpt><trkpt lat="-39.2973767873" lon="-72.4036233220"><ele>252.22</ele><time>2024-08-28T01:10:07Z</time></trkpt><trkpt lat="-39.2978669610" lon="-72.4035126809"><ele>253.12</ele><time>2024-08-28T01:10:15Z</time></trkpt><trkpt lat="-39.2979078647" lon="-72.4035429396"><ele>252.92</ele><time>2024-08-28T01:10:16Z</time></trkpt><trkpt lat="-39.2979486845" lon="-72.4035927281"><ele>252.74</ele><time>2024-08-28T01:10:17Z</time></trkpt><trkpt lat="-39.2979891691" lon="-72.4036552571"><ele>252.70</ele><time>2024-08-28T01:10:18Z</time></trkpt><trkpt lat="-39.2980304081" lon="-72.4037218932"><ele>252.59</ele><time>2024-08-28T01:10:19Z</time></trkpt><trkpt lat="-39.2985235993" lon="-72.4045702256"><ele>255.65</ele><time>2024-08-28T01:10:31Z</time></trkpt><trkpt lat="-39.2986251041" lon="-72.4046713114"><ele>254.56</ele><time>2024-08-28T01:10:34Z</time></trkpt><trkpt lat="-39.2986691091" lon="-72.4046821240"><ele>254.91</ele><time>2024-08-28T01:10:35Z</time></trkpt><trkpt lat="-39.2987167183" lon="-72.4046771787"><ele>255.03</ele><time>2024-08-28T01:10:36Z</time></trkpt><trkpt lat="-39.2987688538" lon="-72.4046654440"><ele>255.23</ele><time>2024-08-28T01:10:37Z</time></trkpt><trkpt lat="-39.2988261860" lon="-72.4046480935"><ele>252.72</ele><time>2024-08-28T01:10:38Z</time></trkpt><trkpt lat="-39.2990105879" lon="-72.4046019092"><ele>249.67</ele><time>2024-08-28T01:10:41Z</time></trkpt><trkpt lat="-39.2994813994" lon="-72.4044688046"><ele>248.49</ele><time>2024-08-28T01:10:51Z</time></trkpt><trkpt lat="-39.3001993094" lon="-72.4042529706"><ele>248.78</ele><time>2024-08-28T01:11:03Z</time></trkpt><trkpt lat="-39.3002971262" lon="-72.4042298365"><ele>248.93</ele><time>2024-08-28T01:11:05Z</time></trkpt><trkpt lat="-39.3003942724" lon="-72.4042064510"><ele>249.35</ele><time>2024-08-28T01:11:07Z</time></trkpt><trkpt lat="-39.3004294764" lon="-72.4041791260"><ele>249.83</ele><time>2024-08-28T01:11:08Z</time></trkpt><trkpt lat="-39.3004535325" lon="-72.4041419104"><ele>250.14</ele><time>2024-08-28T01:11:09Z</time></trkpt><trkpt lat="-39.3004640099" lon="-72.4040924571"><ele>250.23</ele><time>2024-08-28T01:11:10Z</time></trkpt><trkpt lat="-39.3004654348" lon="-72.4040390644"><ele>250.59</ele><time>2024-08-28T01:11:11Z</time></trkpt><trkpt lat="-39.3004618306" lon="-72.4039808102"><ele>250.69</ele><time>2024-08-28T01:11:12Z</time></trkpt><trkpt lat="-39.3004522752" lon="-72.4039179459"><ele>250.69</ele><time>2024-08-28T01:11:13Z</time></trkpt><trkpt lat="-39.3004391994" lon="-72.4038519803"><ele>250.98</ele><time>2024-08-28T01:11:14Z</time></trkpt><trkpt lat="-39.3004249502" lon="-72.4037819076"><ele>251.39</ele><time>2024-08-28T01:11:15Z</time></trkpt><trkpt lat="-39.3003428914" lon="-72.4033435341"><ele>254.42</ele><time>2024-08-28T01:11:21Z</time></trkpt><trkpt lat="-39.3003298994" lon="-72.4032734614"><ele>254.65</ele><time>2024-08-28T01:11:22Z</time></trkpt><trkpt lat="-39.3002465833" lon="-72.4028951861"><ele>258.38</ele><time>2024-08-28T01:11:29Z</time></trkpt><trkpt lat="-39.3001949508" lon="-72.4028472416"><ele>258.26</ele><time>2024-08-28T01:11:31Z</time></trkpt><trkpt lat="-39.3001566455" lon="-72.4028396141"><ele>258.19</ele><time>2024-08-28T01:11:32Z</time></trkpt><trkpt lat="-39.3001134787" lon="-72.4028402846"><ele>257.56</ele><time>2024-08-28T01:11:33Z</time></trkpt><trkpt lat="-39.3000668753" lon="-72.4028475769"><ele>257.38</ele><time>2024-08-28T01:11:34Z</time></trkpt><trkpt lat="-39.3000141531" lon="-72.4028588925"><ele>256.68</ele><time>2024-08-28T01:11:35Z</time></trkpt><trkpt lat="-39.2999533005" lon="-72.4028731417"><ele>256.19</ele><time>2024-08-28T01:11:36Z</time></trkpt><trkpt lat="-39.2996194493" lon="-72.4029672705"><ele>252.99</ele><time>2024-08-28T01:11:41Z</time></trkpt><trkpt lat="-39.2995513044" lon="-72.4029848725"><ele>252.74</ele><time>2024-08-28T01:11:42Z</time></trkpt><trkpt lat="-39.2987695243" lon="-72.4032332283"><ele>251.69</ele><time>2024-08-28T01:11:54Z</time></trkpt><trkpt lat="-39.2982129660" lon="-72.4034042191"><ele>251.62</ele><time>2024-08-28T01:12:04Z</time></trkpt><trkpt lat="-39.2981223576" lon="-72.4033960048"><ele>252.31</ele><time>2024-08-28T01:12:08Z</time></trkpt><trkpt lat="-39.2981011514" lon="-72.4033656623"><ele>252.88</ele><time>2024-08-28T01:12:09Z</time></trkpt><trkpt lat="-39.2980860639" lon="-72.4033136945"><ele>252.98</ele><time>2024-08-28T01:12:10Z</time></trkpt><trkpt lat="-39.2980745807" lon="-72.4032473098"><ele>253.19</ele><time>2024-08-28T01:12:11Z</time></trkpt><trkpt lat="-39.2980634328" lon="-72.4031689391"><ele>253.17</ele><time>2024-08-28T01:12:12Z</time></trkpt><trkpt lat="-39.2979118880" lon="-72.4021994043"><ele>254.80</ele><time>2024-08-28T01:12:23Z</time></trkpt><trkpt lat="-39.2979181744" lon="-72.4021016713"><ele>254.95</ele><time>2024-08-28T01:12:25Z</time></trkpt><trkpt lat="-39.2979415599" lon="-72.4020615220"><ele>254.93</ele><time>2024-08-28T01:12:26Z</time></trkpt><trkpt lat="-39.2979783565" lon="-72.4020286649"><ele>255.05</ele><time>2024-08-28T01:12:27Z</time></trkpt><trkpt lat="-39.2980265524" lon="-72.4020038545"><ele>255.12</ele><time>2024-08-28T01:12:28Z</time></trkpt><trkpt lat="-39.2980825435" lon="-72.4019841570"><ele>255.20</ele><time>2024-08-28T01:12:29Z</time></trkpt><trkpt lat="-39.2981453240" lon="-72.4019673094"><ele>255.15</ele><time>2024-08-28T01:12:30Z</time></trkpt><trkpt lat="-39.2982138041" lon="-72.4019501265"><ele>255.01</ele><time>2024-08-28T01:12:31Z</time></trkpt><trkpt lat="-39.2991600372" lon="-72.4016960710"><ele>258.60</ele><time>2024-08-28T01:12:45Z</time></trkpt><trkpt lat="-39.2999204434" lon="-72.4015021138"><ele>261.81</ele><time>2024-08-28T01:12:56Z</time></trkpt><trkpt lat="-39.2999878339" lon="-72.4014174566"><ele>261.94</ele><time>2024-08-28T01:12:59Z</time></trkpt><trkpt lat="-39.2999969702" lon="-72.4013558496"><ele>261.61</ele><time>2024-08-28T01:13:00Z</time></trkpt><trkpt lat="-39.2999915220" lon="-72.4012784008"><ele>261.76</ele><time>2024-08-28T01:13:01Z</time></trkpt><trkpt lat="-39.2999781109" lon="-72.4011870380"><ele>261.47</ele><time>2024-08-28T01:13:02Z</time></trkpt><trkpt lat="-39.2999619339" lon="-72.4010868743"><ele>261.23</ele><time>2024-08-28T01:13:03Z</time></trkpt><trkpt lat="-39.2998173460" lon="-72.4002199341"><ele>258.90</ele><time>2024-08-28T01:13:12Z</time></trkpt><trkpt lat="-39.2997976486" lon="-72.4001651164"><ele>259.23</ele><time>2024-08-28T01:13:13Z</time></trkpt><trkpt lat="-39.2997663841" lon="-72.4001228716"><ele>258.70</ele><time>2024-08-28T01:13:14Z</time></trkpt><trkpt lat="-39.2997240555" lon="-72.4001018330"><ele>259.16</ele><time>2024-08-28T01:13:15Z</time></trkpt><trkpt lat="-39.2996709980" lon="-72.4001014140"><ele>259.01</ele><time>2024-08-28T01:13:16Z</time></trkpt><trkpt lat="-39.2996095587" lon="-72.4001136515"><ele>258.58</ele><time>2024-08-28T01:13:17Z</time></trkpt><trkpt lat="-39.2995399050" lon="-72.4001300801"><ele>258.21</ele><time>2024-08-28T01:13:18Z</time></trkpt><trkpt lat="-39.2987649143" lon="-72.4003760889"><ele>256.19</ele><time>2024-08-28T01:13:30Z</time></trkpt><trkpt lat="-39.2982166540" lon="-72.4005371891"><ele>255.63</ele><time>2024-08-28T01:13:38Z</time></trkpt><trkpt lat="-39.2974860035" lon="-72.4006973673"><ele>253.87</ele><time>2024-08-28T01:13:49Z</time></trkpt><trkpt lat="-39.2972198781" lon="-72.4007040728"><ele>250.82</ele><time>2024-08-28T01:13:52Z</time></trkpt><trkpt lat="-39.2969861068" lon="-72.4007134605"><ele>249.53</ele><time>2024-08-28T01:13:55Z</time></trkpt><trkpt lat="-39.2964970227" lon="-72.4007285479"><ele>247.94</ele><time>2024-08-28T01:14:05Z</time></trkpt><trkpt lat="-39.2964684404" lon="-72.4006903265"><ele>247.96</ele><time>2024-08-28T01:14:06Z</time></trkpt><trkpt lat="-39.2964462284" lon="-72.4006359279"><ele>248.09</ele><time>2024-08-28T01:14:07Z</time></trkpt><trkpt lat="-39.2962645926" lon="-72.4001870770"><ele>247.85</ele><time>2024-08-28T01:14:13Z</time></trkpt><trkpt lat="-39.2962206714" lon="-72.4001246318"><ele>247.77</ele><time>2024-08-28T01:14:14Z</time></trkpt><trkpt lat="-39.2961765826" lon="-72.4000727478"><ele>247.66</ele><time>2024-08-28T01:14:15Z</time></trkpt><trkpt lat="-39.2960884888" lon="-72.3999855760"><ele>247.81</ele><time>2024-08-28T01:14:17Z</time></trkpt><trkpt lat="-39.2959963717" lon="-72.3999273218"><ele>248.05</ele><time>2024-08-28T01:14:19Z</time></trkpt><trkpt lat="-39.2956997361" lon="-72.3998691514"><ele>249.73</ele><time>2024-08-28T01:14:28Z</time></trkpt><trkpt lat="-39.2956262268" lon="-72.3997293413"><ele>249.07</ele><time>2024-08-28T01:14:33Z</time></trkpt><trkpt lat="-39.2954878416" lon="-72.3989271931"><ele>250.30</ele><time>2024-08-28T01:14:42Z</time></trkpt><trkpt lat="-39.2951705866" lon="-72.3975142557"><ele>253.39</ele><time>2024-08-28T01:14:55Z</time></trkpt><trkpt lat="-39.2950502224" lon="-72.3968556896"><ele>256.59</ele><time>2024-08-28T01:15:01Z</time></trkpt><trkpt lat="-39.2950016074" lon="-72.3958268948"><ele>259.66</ele><time>2024-08-28T01:15:10Z</time></trkpt><trkpt lat="-39.2950342130" lon="-72.3943552002"><ele>262.69</ele><time>2024-08-28T01:15:23Z</time></trkpt><trkpt lat="-39.2948697601" lon="-72.3925287835"><ele>264.56</ele><time>2024-08-28T01:15:39Z</time></trkpt><trkpt lat="-39.2943220865" lon="-72.3909797240"><ele>264.25</ele><time>2024-08-28T01:15:54Z</time></trkpt><trkpt lat="-39.2935281526" lon="-72.3894667067"><ele>264.61</ele><time>2024-08-28T01:16:10Z</time></trkpt><trkpt lat="-39.2934544757" lon="-72.3892611824"><ele>264.44</ele><time>2024-08-28T01:16:12Z</time></trkpt><trkpt lat="-39.2934367061" lon="-72.3891487811"><ele>264.54</ele><time>2024-08-28T01:16:13Z</time></trkpt><trkpt lat="-39.2934315931" lon="-72.3890348710"><ele>264.63</ele><time>2024-08-28T01:16:14Z</time></trkpt><trkpt lat="-39.2934367899" lon="-72.3889214639"><ele>264.56</ele><time>2024-08-28T01:16:15Z</time></trkpt><trkpt lat="-39.2934507038" lon="-72.3888081405"><ele>264.57</ele><time>2024-08-28T01:16:16Z</time></trkpt><trkpt lat="-39.2934699822" lon="-72.3886968289"><ele>264.83</ele><time>2024-08-28T01:16:17Z</time></trkpt><trkpt lat="-39.2938630097" lon="-72.3866927996"><ele>265.40</ele><time>2024-08-28T01:16:35Z</time></trkpt><trkpt lat="-39.2941532750" lon="-72.3852777667"><ele>268.63</ele><time>2024-08-28T01:16:48Z</time></trkpt><trkpt lat="-39.2943634931" lon="-72.3843006883"><ele>271.80</ele><time>2024-08-28T01:16:57Z</time></trkpt><trkpt lat="-39.2946640681" lon="-72.3827549815"><ele>274.98</ele><time>2024-08-28T01:17:11Z</time></trkpt><trkpt lat="-39.2950379848" lon="-72.3808943667"><ele>274.14</ele><time>2024-08-28T01:17:28Z</time></trkpt><trkpt lat="-39.2953231372" lon="-72.3794614803"><ele>271.03</ele><time>2024-08-28T01:17:41Z</time></trkpt><trkpt lat="-39.2955057789" lon="-72.3784588370"><ele>267.88</ele><time>2024-08-28T01:17:51Z</time></trkpt><trkpt lat="-39.2957204394" lon="-72.3773759790"><ele>266.72</ele><time>2024-08-28T01:18:03Z</time></trkpt><trkpt lat="-39.2960454058" lon="-72.3758588545"><ele>265.85</ele><time>2024-08-28T01:18:18Z</time></trkpt><trkpt lat="-39.2962983716" lon="-72.3746462446"><ele>264.16</ele><time>2024-08-28T01:18:31Z</time></trkpt><trkpt lat="-39.2965128645" lon="-72.3736771289"><ele>262.59</ele><time>2024-08-28T01:18:43Z</time></trkpt><trkpt lat="-39.2965116072" lon="-72.3735793121"><ele>262.85</ele><time>2024-08-28T01:18:46Z</time></trkpt><trkpt lat="-39.2965018842" lon="-72.3735606205"><ele>262.96</ele><time>2024-08-28T01:18:47Z</time></trkpt><trkpt lat="-39.2964908201" lon="-72.3735484667"><ele>262.87</ele><time>2024-08-28T01:18:48Z</time></trkpt><trkpt lat="-39.2964686081" lon="-72.3735387437"><ele>262.98</ele><time>2024-08-28T01:18:50Z</time></trkpt><trkpt lat="-39.2964836955" lon="-72.3736540787"><ele>263.24</ele><time>2024-08-28T01:19:02Z</time></trkpt><trkpt lat="-39.2964722961" lon="-72.3737090640"><ele>263.42</ele><time>2024-08-28T01:19:03Z</time></trkpt><trkpt lat="-39.2963187397" lon="-72.3744724039"><ele>264.51</ele><time>2024-08-28T01:19:11Z</time></trkpt><trkpt lat="-39.2960486747" lon="-72.3758316133"><ele>266.49</ele><time>2024-08-28T01:19:24Z</time></trkpt><trkpt lat="-39.2957177572" lon="-72.3774554394"><ele>267.20</ele><time>2024-08-28T01:19:39Z</time></trkpt><trkpt lat="-39.2953687347" lon="-72.3791355919"><ele>270.17</ele><time>2024-08-28T01:19:55Z</time></trkpt><trkpt lat="-39.2951854225" lon="-72.3800903745"><ele>273.32</ele><time>2024-08-28T01:20:04Z</time></trkpt><trkpt lat="-39.2948317900" lon="-72.3818678409"><ele>275.97</ele><time>2024-08-28T01:20:21Z</time></trkpt><trkpt lat="-39.2945414409" lon="-72.3833915871"><ele>275.26</ele><time>2024-08-28T01:20:35Z</time></trkpt><trkpt lat="-39.2943360843" lon="-72.3844760377"><ele>271.87</ele><time>2024-08-28T01:20:45Z</time></trkpt><trkpt lat="-39.2941314820" lon="-72.3855707981"><ele>268.72</ele><time>2024-08-28T01:20:55Z</time></trkpt><trkpt lat="-39.2938240338" lon="-72.3871600069"><ele>265.97</ele><time>2024-08-28T01:21:10Z</time></trkpt><trkpt lat="-39.2934434954" lon="-72.3890759423"><ele>264.96</ele><time>2024-08-28T01:21:28Z</time></trkpt><trkpt lat="-39.2934521288" lon="-72.3891900200"><ele>265.40</ele><time>2024-08-28T01:21:29Z</time></trkpt><trkpt lat="-39.2934702337" lon="-72.3893012479"><ele>265.08</ele><time>2024-08-28T01:21:30Z</time></trkpt><trkpt lat="-39.2934982292" lon="-72.3894092906"><ele>265.20</ele><time>2024-08-28T01:21:31Z</time></trkpt><trkpt lat="-39.2935366184" lon="-72.3895120528"><ele>265.13</ele><time>2024-08-28T01:21:32Z</time></trkpt><trkpt lat="-39.2935801204" lon="-72.3896075226"><ele>265.20</ele><time>2024-08-28T01:21:33Z</time></trkpt><trkpt lat="-39.2943037301" lon="-72.3909822386"><ele>265.15</ele><time>2024-08-28T01:21:48Z</time></trkpt><trkpt lat="-39.2948876973" lon="-72.3926861957"><ele>265.69</ele><time>2024-08-28T01:22:05Z</time></trkpt><trkpt lat="-39.2950321175" lon="-72.3942192458"><ele>264.97</ele><time>2024-08-28T01:22:19Z</time></trkpt><trkpt lat="-39.2950191256" lon="-72.3956621904"><ele>261.82</ele><time>2024-08-28T01:22:32Z</time></trkpt><trkpt lat="-39.2950099893" lon="-72.3965506721"><ele>259.07</ele><time>2024-08-28T01:22:44Z</time></trkpt><trkpt lat="-39.2949827481" lon="-72.3966035619"><ele>259.07</ele><time>2024-08-28T01:22:46Z</time></trkpt><trkpt lat="-39.2949569318" lon="-72.3966181464"><ele>258.99</ele><time>2024-08-28T01:22:47Z</time></trkpt><trkpt lat="-39.2949234881" lon="-72.3966220021"><ele>258.94</ele><time>2024-08-28T01:22:48Z</time></trkpt><trkpt lat="-39.2948841769" lon="-72.3966101836"><ele>259.02</ele><time>2024-08-28T01:22:49Z</time></trkpt><trkpt lat="-39.2948394176" lon="-72.3965883907"><ele>258.99</ele><time>2024-08-28T01:22:50Z</time></trkpt><trkpt lat="-39.2947893776" lon="-72.3965639155"><ele>259.15</ele><time>2024-08-28T01:22:51Z</time></trkpt><trkpt lat="-39.2939397879" lon="-72.3961569741"><ele>261.44</ele><time>2024-08-28T01:23:04Z</time></trkpt><trkpt lat="-39.2929830775" lon="-72.3957559839"><ele>264.60</ele><time>2024-08-28T01:23:17Z</time></trkpt><trkpt lat="-39.2925339751" lon="-72.3955667205"><ele>266.88</ele><time>2024-08-28T01:23:25Z</time></trkpt><trkpt lat="-39.2924737930" lon="-72.3955653794"><ele>267.26</ele><time>2024-08-28T01:23:28Z</time></trkpt><trkpt lat="-39.2924615555" lon="-72.3955770303"><ele>266.80</ele><time>2024-08-28T01:23:29Z</time></trkpt><trkpt lat="-39.2924531735" lon="-72.3955895193"><ele>266.45</ele><time>2024-08-28T01:23:30Z</time></trkpt><trkpt lat="-39.2924818397" lon="-72.3955891002"><ele>266.83</ele><time>2024-08-28T01:23:40Z</time></trkpt><trkpt lat="-39.2925024591" lon="-72.3956023436"><ele>266.95</ele><time>2024-08-28T01:23:41Z</time></trkpt><trkpt lat="-39.2925306223" lon="-72.3956152517"><ele>266.80</ele><time>2024-08-28T01:23:42Z</time></trkpt><trkpt lat="-39.2930128332" lon="-72.3958091252"><ele>265.28</ele><time>2024-08-28T01:23:50Z</time></trkpt><trkpt lat="-39.2939256225" lon="-72.3961579800"><ele>262.12</ele><time>2024-08-28T01:24:02Z</time></trkpt><trkpt lat="-39.2948961630" lon="-72.3965728004"><ele>259.25</ele><time>2024-08-28T01:24:16Z</time></trkpt><trkpt lat="-39.2950389907" lon="-72.3967138678"><ele>258.95</ele><time>2024-08-28T01:24:23Z</time></trkpt><trkpt lat="-39.2950518150" lon="-72.3967700265"><ele>258.70</ele><time>2024-08-28T01:24:24Z</time></trkpt><trkpt lat="-39.2952121608" lon="-72.3975995835"><ele>255.38</ele><time>2024-08-28T01:24:33Z</time></trkpt><trkpt lat="-39.2955164239" lon="-72.3991254251"><ele>252.32</ele><time>2024-08-28T01:24:48Z</time></trkpt><trkpt lat="-39.2956385482" lon="-72.3998472746"><ele>250.95</ele><time>2024-08-28T01:24:56Z</time></trkpt><trkpt lat="-39.2956345249" lon="-72.3999294173"><ele>250.74</ele><time>2024-08-28T01:24:57Z</time></trkpt><trkpt lat="-39.2956193537" lon="-72.4000160862"><ele>250.28</ele><time>2024-08-28T01:24:58Z</time></trkpt><trkpt lat="-39.2955989018" lon="-72.4001056887"><ele>249.83</ele><time>2024-08-28T01:24:59Z</time></trkpt><trkpt lat="-39.2955760192" lon="-72.4001992308"><ele>249.53</ele><time>2024-08-28T01:25:00Z</time></trkpt><trkpt lat="-39.2954128236" lon="-72.4011132773"><ele>247.37</ele><time>2024-08-28T01:25:09Z</time></trkpt><trkpt lat="-39.2954173498" lon="-72.4012201466"><ele>246.83</ele><time>2024-08-28T01:25:10Z</time></trkpt><trkpt lat="-39.2956476845" lon="-72.4025911745"><ele>248.05</ele><time>2024-08-28T01:25:23Z</time></trkpt><trkpt lat="-39.2957883328" lon="-72.4032879621"><ele>251.07</ele><time>2024-08-28T01:25:30Z</time></trkpt><trkpt lat="-39.2959905043" lon="-72.4043078721"><ele>250.64</ele><time>2024-08-28T01:25:43Z</time></trkpt><trkpt lat="-39.2959786858" lon="-72.4043382984"><ele>250.82</ele><time>2024-08-28T01:25:44Z</time></trkpt><trkpt lat="-39.2959560547" lon="-72.4043611810"><ele>250.56</ele><time>2024-08-28T01:25:45Z</time></trkpt><trkpt lat="-39.2959296517" lon="-72.4043772742"><ele>250.61</ele><time>2024-08-28T01:25:46Z</time></trkpt><trkpt lat="-39.2958988901" lon="-72.4043850694"><ele>250.21</ele><time>2024-08-28T01:25:47Z</time></trkpt><trkpt lat="-39.2958725709" lon="-72.4043872487"><ele>250.07</ele><time>2024-08-28T01:25:48Z</time></trkpt><trkpt lat="-39.2958542984" lon="-72.4043868296"><ele>250.35</ele><time>2024-08-28T01:25:49Z</time></trkpt><trkpt lat="-39.2958395462" lon="-72.4043856561"><ele>250.20</ele><time>2024-08-28T01:25:50Z</time></trkpt><trkpt lat="-39.2957666237" lon="-72.4043909367"><ele>253.41</ele><time>2024-08-28T01:25:58Z</time></trkpt><trkpt lat="-39.2957654502" lon="-72.4043883383"><ele>253.41</ele><time>2024-08-28T01:25:59Z</time></trkpt><trkpt lat="-39.2957638577" lon="-72.4043833092"><ele>250.17</ele><time>2024-08-28T01:26:01Z</time></trkpt><trkpt lat="-39.2957774363" lon="-72.4044195190"><ele>250.07</ele><time>2024-08-28T01:26:30Z</time></trkpt><trkpt lat="-39.2957545538" lon="-72.4043850694"><ele>248.36</ele><time>2024-08-28T01:27:03Z</time></trkpt><trkpt lat="-39.2957537994" lon="-72.4043843150"><ele>250.09</ele><time>2024-08-28T01:27:06Z</time></trkpt><trkpt lat="-39.2957043462" lon="-72.4043598399"><ele>250.26</ele><time>2024-08-28T01:27:38Z</time></trkpt></trkseg></trk></gpx>