<?xml version="1.0" encoding="UTF-8" standalone="no" ?><gpx xmlns="http://www.topografix.com/GPX/1/1" xmlns:gpxx="http://www.garmin.com/xmlschemas/GpxExtensions/v3" xmlns:gpxtrkx="http://www.garmin.com/xmlschemas/TrackStatsExtension/v1" xmlns:wptx1="http://www.garmin.com/xmlschemas/WaypointExtension/v1" xmlns:gpxtpx="http://www.garmin.com/xmlschemas/TrackPointExtension/v1" creator="GPSMAP 64sx" version="1.1" xmlns:xsi="http://www.w3.org/2001/XMLSchema-instance" xsi:schemaLocation="http://www.topografix.com/GPX/1/1 http://www.topografix.com/GPX/1/1/gpx.xsd http://www.garmin.com/xmlschemas/GpxExtensions/v3 http://www8.garmin.com/xmlschemas/GpxExtensionsv3.xsd http://www.garmin.com/xmlschemas/TrackStatsExtension/v1 http://www8.garmin.com/xmlschemas/TrackStatsExtension.xsd http://www.garmin.com/xmlschemas/WaypointExtension/v1 http://www8.garmin.com/xmlschemas/WaypointExtensionv1.xsd http://www.garmin.com/xmlschemas/TrackPointExtension/v1 http://www.garmin.com/xmlschemas/TrackPointExtensionv1.xsd"><metadata><link href="http://www.garmin.com"><text>Garmin International</text></link><time>2024-07-28T01:19:38Z</time></metadata><trk><name>2024-07-27 21:19:32</name><extensions><gpxx:TrackExtension><gpxx:DisplayColor>Cyan</gpxx:DisplayColor></gpxx:TrackExtension><gpxtrkx:TrackStatsExtension><gpxtrkx:Distance>8740.000</gpxtrkx:Distance><gpxtrkx:TotalElapsedTime>1644</gpxtrkx:TotalElapsedTime><gpxtrkx:MovingTime>1570</gpxtrkx:MovingTime><gpxtrkx:StoppedTime>74</gpxtrkx:StoppedTime><gpxtrkx:MovingSpeed>5.567</gpxtrkx:MovingSpeed><gpxtrkx:MaxSpeed>14.931</gpxtrkx:MaxSpeed><gpxtrkx:MaxElevation>264.176</gpxtrkx:MaxElevation><gpxtrkx:MinElevation>208.486</gpxtrkx:MinElevation><gpxtrkx:Ascent>115.000</gpxtrkx:Ascent><gpxtrkx:Descent>109.744</gpxtrkx:Descent><gpxtrkx:AvgAscentRate>0.098</gpxtrkx:AvgAscentRate><gpxtrkx:MaxAscentRate>0.588</gpxtrkx:MaxAscentRate><gpxtrkx:AvgDescentRate>0.095</gpxtrkx:AvgDescentRate><gpxtrkx:MaxDescentRate>-1.100</gpxtrkx:MaxDescentRate></gpxtrkx:TrackStatsExtension></extensions><trkseg><trkpt lat="-39.2730608024" lon="-72.4092940148"><ele>246.43</ele><time>2024-07-28T00:52:14Z</time></trkpt><trkpt lat="-39.2730619758" lon="-72.4092959426"><ele>246.43</ele><time>2024-07-28T00:52:15Z</time></trkpt><trkpt lat="-39.2730553541" lon="-72.4092965294"><ele>241.78</ele><time>2024-07-28T00:52:19Z</time></trkpt><trkpt lat="-39.2730535939" lon="-72.4092968646"><ele>241.94</ele><time>2024-07-28T00:52:20Z</time></trkpt><trkpt lat="-39.2730518337" lon="-72.4092966132"><ele>241.86</ele><time>2024-07-28T00:52:44Z</time></trkpt><trkpt lat="-39.2730927374" lon="-72.4093110301"><ele>241.80</ele><time>2024-07-28T00:53:11Z</time></trkpt><trkpt lat="-39.2731666658" lon="-72.4093143828"><ele>241.47</ele><time>2024-07-28T00:53:14Z</time></trkpt><trkpt lat="-39.2731992714" lon="-72.4093219265"><ele>242.58</ele><time>2024-07-28T00:53:15Z</time></trkpt><trkpt lat="-39.2732549272" lon="-72.4093320686"><ele>242.08</ele><time>2024-07-28T00:53:16Z</time></trkpt><trkpt lat="-39.2733239941" lon="-72.4093507603"><ele>242.47</ele><time>2024-07-28T00:53:17Z</time></trkpt><trkpt lat="-39.2733985931" lon="-72.4093749002"><ele>242.13</ele><time>2024-07-28T00:53:18Z</time></trkpt><trkpt lat="-39.2744624242" lon="-72.4097250961"><ele>242.26</ele><time>2024-07-28T00:53:29Z</time></trkpt><trkpt lat="-39.2759928759" lon="-72.4102140963"><ele>243.35</ele><time>2024-07-28T00:53:43Z</time></trkpt><trkpt lat="-39.2769586388" lon="-72.4100635573"><ele>243.52</ele><time>2024-07-28T00:53:52Z</time></trkpt><trkpt lat="-39.2783470172" lon="-72.4097193964"><ele>240.92</ele><time>2024-07-28T00:54:05Z</time></trkpt><trkpt lat="-39.2787845526" lon="-72.4098767247"><ele>237.45</ele><time>2024-07-28T00:54:09Z</time></trkpt><trkpt lat="-39.2790888995" lon="-72.4101151899"><ele>234.19</ele><time>2024-07-28T00:54:12Z</time></trkpt><trkpt lat="-39.2791795917" lon="-72.4102234840"><ele>233.18</ele><time>2024-07-28T00:54:13Z</time></trkpt><trkpt lat="-39.2794452980" lon="-72.4105692375"><ele>229.91</ele><time>2024-07-28T00:54:16Z</time></trkpt><trkpt lat="-39.2797224876" lon="-72.4109368678"><ele>226.37</ele><time>2024-07-28T00:54:19Z</time></trkpt><trkpt lat="-39.2799926363" lon="-72.4112816993"><ele>222.59</ele><time>2024-07-28T00:54:22Z</time></trkpt><trkpt lat="-39.2802486196" lon="-72.4115704559"><ele>219.37</ele><time>2024-07-28T00:54:25Z</time></trkpt><trkpt lat="-39.2803492025" lon="-72.4116497487"><ele>218.57</ele><time>2024-07-28T00:54:26Z</time></trkpt><trkpt lat="-39.2804528028" lon="-72.4117174745"><ele>217.15</ele><time>2024-07-28T00:54:27Z</time></trkpt><trkpt lat="-39.2805599235" lon="-72.4117712025"><ele>216.02</ele><time>2024-07-28T00:54:28Z</time></trkpt><trkpt lat="-39.2806671280" lon="-72.4118193984"><ele>215.13</ele><time>2024-07-28T00:54:29Z</time></trkpt><trkpt lat="-39.2810884863" lon="-72.4119731225"><ele>212.59</ele><time>2024-07-28T00:54:33Z</time></trkpt><trkpt lat="-39.2828237917" lon="-72.4125417508"><ele>209.37</ele><time>2024-07-28T00:54:49Z</time></trkpt><trkpt lat="-39.2843267508" lon="-72.4130317569"><ele>211.21</ele><time>2024-07-28T00:55:04Z</time></trkpt><trkpt lat="-39.2857490759" lon="-72.4134988803"><ele>214.32</ele><time>2024-07-28T00:55:16Z</time></trkpt><trkpt lat="-39.2874498479" lon="-72.4140814226"><ele>214.45</ele><time>2024-07-28T00:55:30Z</time></trkpt><trkpt lat="-39.2885135114" lon="-72.4143674131"><ele>212.43</ele><time>2024-07-28T00:55:41Z</time></trkpt><trkpt lat="-39.2886001803" lon="-72.4143737834"><ele>212.19</ele><time>2024-07-28T00:55:42Z</time></trkpt><trkpt lat="-39.2895250395" lon="-72.4142162036"><ele>209.90</ele><time>2024-07-28T00:55:54Z</time></trkpt><trkpt lat="-39.2904055584" lon="-72.4136635009"><ele>208.49</ele><time>2024-07-28T00:56:07Z</time></trkpt><trkpt lat="-39.2911009211" lon="-72.4127615243"><ele>210.60</ele><time>2024-07-28T00:56:20Z</time></trkpt><trkpt lat="-39.2914573196" lon="-72.4118613917"><ele>213.87</ele><time>2024-07-28T00:56:32Z</time></trkpt><trkpt lat="-39.2918058392" lon="-72.4108569883"><ele>217.00</ele><time>2024-07-28T00:56:45Z</time></trkpt><trkpt lat="-39.2921224236" lon="-72.4100125115"><ele>220.14</ele><time>2024-07-28T00:56:57Z</time></trkpt><trkpt lat="-39.2923256848" lon="-72.4094786681"><ele>221.44</ele><time>2024-07-28T00:57:08Z</time></trkpt><trkpt lat="-39.2922712862" lon="-72.4092454836"><ele>221.76</ele><time>2024-07-28T00:57:18Z</time></trkpt><trkpt lat="-39.2918161489" lon="-72.4089932721"><ele>219.24</ele><time>2024-07-28T00:57:32Z</time></trkpt><trkpt lat="-39.2912842333" lon="-72.4087060243"><ele>218.30</ele><time>2024-07-28T00:57:48Z</time></trkpt><trkpt lat="-39.2909456883" lon="-72.4084126577"><ele>218.18</ele><time>2024-07-28T00:58:00Z</time></trkpt><trkpt lat="-39.2909867596" lon="-72.4082311895"><ele>218.16</ele><time>2024-07-28T00:58:04Z</time></trkpt><trkpt lat="-39.2913031764" lon="-72.4076292012"><ele>219.06</ele><time>2024-07-28T00:58:20Z</time></trkpt><trkpt lat="-39.2916265503" lon="-72.4078545906"><ele>220.04</ele><time>2024-07-28T00:58:30Z</time></trkpt><trkpt lat="-39.2921111081" lon="-72.4082508869"><ele>221.57</ele><time>2024-07-28T00:58:45Z</time></trkpt><trkpt lat="-39.2925058957" lon="-72.4085433315"><ele>223.97</ele><time>2024-07-28T00:58:58Z</time></trkpt><trkpt lat="-39.2925293650" lon="-72.4085579999"><ele>223.70</ele><time>2024-07-28T00:59:02Z</time></trkpt><trkpt lat="-39.2925513256" lon="-72.4086370412"><ele>223.80</ele><time>2024-07-28T00:59:06Z</time></trkpt><trkpt lat="-39.2925416026" lon="-72.4086780287"><ele>223.69</ele><time>2024-07-28T00:59:07Z</time></trkpt><trkpt lat="-39.2925260961" lon="-72.4087266438"><ele>223.70</ele><time>2024-07-28T00:59:08Z</time></trkpt><trkpt lat="-39.2925050575" lon="-72.4087839760"><ele>223.57</ele><time>2024-07-28T00:59:09Z</time></trkpt><trkpt lat="-39.2923533451" lon="-72.4093210883"><ele>222.32</ele><time>2024-07-28T00:59:19Z</time></trkpt><trkpt lat="-39.2923573684" lon="-72.4093346670"><ele>222.28</ele><time>2024-07-28T00:59:20Z</time></trkpt><trkpt lat="-39.2923650797" lon="-72.4093499221"><ele>222.22</ele><time>2024-07-28T00:59:21Z</time></trkpt><trkpt lat="-39.2926949915" lon="-72.4095737189"><ele>222.67</ele><time>2024-07-28T00:59:31Z</time></trkpt><trkpt lat="-39.2932202015" lon="-72.4098849390"><ele>225.79</ele><time>2024-07-28T00:59:41Z</time></trkpt><trkpt lat="-39.2936406378" lon="-72.4101081491"><ele>229.33</ele><time>2024-07-28T00:59:49Z</time></trkpt><trkpt lat="-39.2938496824" lon="-72.4102246575"><ele>232.59</ele><time>2024-07-28T00:59:54Z</time></trkpt><trkpt lat="-39.2940215953" lon="-72.4102125876"><ele>233.97</ele><time>2024-07-28T00:59:59Z</time></trkpt><trkpt lat="-39.2940576375" lon="-72.4101827480"><ele>234.18</ele><time>2024-07-28T01:00:00Z</time></trkpt><trkpt lat="-39.2943691090" lon="-72.4098670855"><ele>236.75</ele><time>2024-07-28T01:00:10Z</time></trkpt><trkpt lat="-39.2943712045" lon="-72.4098173808"><ele>237.04</ele><time>2024-07-28T01:00:11Z</time></trkpt><trkpt lat="-39.2943633255" lon="-72.4097666703"><ele>237.15</ele><time>2024-07-28T01:00:12Z</time></trkpt><trkpt lat="-39.2943479866" lon="-72.4097183067"><ele>237.19</ele><time>2024-07-28T01:00:13Z</time></trkpt><trkpt lat="-39.2943288758" lon="-72.4096735474"><ele>237.02</ele><time>2024-07-28T01:00:14Z</time></trkpt><trkpt lat="-39.2943081725" lon="-72.4096312188"><ele>236.68</ele><time>2024-07-28T01:00:15Z</time></trkpt><trkpt lat="-39.2940774187" lon="-72.4092029035"><ele>233.66</ele><time>2024-07-28T01:00:24Z</time></trkpt><trkpt lat="-39.2938897479" lon="-72.4088422302"><ele>230.62</ele><time>2024-07-28T01:00:31Z</time></trkpt><trkpt lat="-39.2936202697" lon="-72.4085382186"><ele>229.77</ele><time>2024-07-28T01:00:42Z</time></trkpt><trkpt lat="-39.2929095682" lon="-72.4080829974"><ele>227.17</ele><time>2024-07-28T01:00:57Z</time></trkpt><trkpt lat="-39.2928445246" lon="-72.4079157785"><ele>226.67</ele><time>2024-07-28T01:01:06Z</time></trkpt><trkpt lat="-39.2930780444" lon="-72.4072865490"><ele>229.06</ele><time>2024-07-28T01:01:16Z</time></trkpt><trkpt lat="-39.2933181021" lon="-72.4066063575"><ele>232.31</ele><time>2024-07-28T01:01:24Z</time></trkpt><trkpt lat="-39.2933750991" lon="-72.4064550642"><ele>233.16</ele><time>2024-07-28T01:01:26Z</time></trkpt><trkpt lat="-39.2935009953" lon="-72.4063013401"><ele>234.57</ele><time>2024-07-28T01:01:33Z</time></trkpt><trkpt lat="-39.2937319167" lon="-72.4064153340"><ele>237.72</ele><time>2024-07-28T01:01:40Z</time></trkpt><trkpt lat="-39.2942656763" lon="-72.4067520350"><ele>238.41</ele><time>2024-07-28T01:01:52Z</time></trkpt><trkpt lat="-39.2944239266" lon="-72.4068915937"><ele>237.63</ele><time>2024-07-28T01:01:59Z</time></trkpt><trkpt lat="-39.2944287881" lon="-72.4069316592"><ele>237.65</ele><time>2024-07-28T01:02:00Z</time></trkpt><trkpt lat="-39.2944245972" lon="-72.4069745746"><ele>237.63</ele><time>2024-07-28T01:02:01Z</time></trkpt><trkpt lat="-39.2944118567" lon="-72.4070223514"><ele>237.48</ele><time>2024-07-28T01:02:02Z</time></trkpt><trkpt lat="-39.2943932489" lon="-72.4070721399"><ele>237.36</ele><time>2024-07-28T01:02:03Z</time></trkpt><trkpt lat="-39.2943729647" lon="-72.4071225151"><ele>237.06</ele><time>2024-07-28T01:02:04Z</time></trkpt><trkpt lat="-39.2940920033" lon="-72.4078765512"><ele>233.85</ele><time>2024-07-28T01:02:16Z</time></trkpt><trkpt lat="-39.2938058451" lon="-72.4086060282"><ele>230.72</ele><time>2024-07-28T01:02:28Z</time></trkpt><trkpt lat="-39.2938125506" lon="-72.4086415675"><ele>230.50</ele><time>2024-07-28T01:02:29Z</time></trkpt><trkpt lat="-39.2938282248" lon="-72.4086653721"><ele>230.49</ele><time>2024-07-28T01:02:30Z</time></trkpt><trkpt lat="-39.2938538734" lon="-72.4086796213"><ele>230.60</ele><time>2024-07-28T01:02:31Z</time></trkpt><trkpt lat="-39.2938854732" lon="-72.4086813815"><ele>230.85</ele><time>2024-07-28T01:02:32Z</time></trkpt><trkpt lat="-39.2939229403" lon="-72.4086713232"><ele>231.10</ele><time>2024-07-28T01:02:33Z</time></trkpt><trkpt lat="-39.2939620838" lon="-72.4086521287"><ele>231.48</ele><time>2024-07-28T01:02:34Z</time></trkpt><trkpt lat="-39.2940013949" lon="-72.4086266477"><ele>231.79</ele><time>2024-07-28T01:02:35Z</time></trkpt><trkpt lat="-39.2940397840" lon="-72.4085954670"><ele>232.25</ele><time>2024-07-28T01:02:36Z</time></trkpt><trkpt lat="-39.2940783408" lon="-72.4085628614"><ele>232.88</ele><time>2024-07-28T01:02:37Z</time></trkpt><trkpt lat="-39.2943158001" lon="-72.4083538167"><ele>236.17</ele><time>2024-07-28T01:02:43Z</time></trkpt><trkpt lat="-39.2945654131" lon="-72.4081285950"><ele>239.33</ele><time>2024-07-28T01:02:49Z</time></trkpt><trkpt lat="-39.2950649746" lon="-72.4076920655"><ele>242.41</ele><time>2024-07-28T01:02:59Z</time></trkpt><trkpt lat="-39.2952699959" lon="-72.4074530974"><ele>244.34</ele><time>2024-07-28T01:03:06Z</time></trkpt><trkpt lat="-39.2952693254" lon="-72.4074116908"><ele>244.44</ele><time>2024-07-28T01:03:07Z</time></trkpt><trkpt lat="-39.2952571716" lon="-72.4073764030"><ele>244.60</ele><time>2024-07-28T01:03:08Z</time></trkpt><trkpt lat="-39.2952335346" lon="-72.4073437974"><ele>244.55</ele><time>2024-07-28T01:03:09Z</time></trkpt><trkpt lat="-39.2952028569" lon="-72.4073132034"><ele>244.29</ele><time>2024-07-28T01:03:10Z</time></trkpt><trkpt lat="-39.2951639649" lon="-72.4072836991"><ele>244.04</ele><time>2024-07-28T01:03:11Z</time></trkpt><trkpt lat="-39.2951187026" lon="-72.4072556198"><ele>243.69</ele><time>2024-07-28T01:03:12Z</time></trkpt><trkpt lat="-39.2949830834" lon="-72.4071642570"><ele>242.70</ele><time>2024-07-28T01:03:15Z</time></trkpt><trkpt lat="-39.2949397489" lon="-72.4071310647"><ele>242.34</ele><time>2024-07-28T01:03:16Z</time></trkpt><trkpt lat="-39.2948518228" lon="-72.4070701282"><ele>241.78</ele><time>2024-07-28T01:03:18Z</time></trkpt><trkpt lat="-39.2947136052" lon="-72.4069820344"><ele>240.68</ele><time>2024-07-28T01:03:21Z</time></trkpt><trkpt lat="-39.2945157085" lon="-72.4067322537"><ele>238.53</ele><time>2024-07-28T01:03:30Z</time></trkpt><trkpt lat="-39.2945317179" lon="-72.4066822138"><ele>238.75</ele><time>2024-07-28T01:03:31Z</time></trkpt><trkpt lat="-39.2945799138" lon="-72.4065632746"><ele>239.16</ele><time>2024-07-28T01:03:33Z</time></trkpt><trkpt lat="-39.2946054786" lon="-72.4065011647"><ele>239.52</ele><time>2024-07-28T01:03:34Z</time></trkpt><trkpt lat="-39.2946824245" lon="-72.4063360412"><ele>240.49</ele><time>2024-07-28T01:03:37Z</time></trkpt><trkpt lat="-39.2947398406" lon="-72.4062210415"><ele>241.39</ele><time>2024-07-28T01:03:39Z</time></trkpt><trkpt lat="-39.2947650701" lon="-72.4061502144"><ele>241.72</ele><time>2024-07-28T01:03:40Z</time></trkpt><trkpt lat="-39.2950287648" lon="-72.4053433724"><ele>243.50</ele><time>2024-07-28T01:03:52Z</time></trkpt><trkpt lat="-39.2950300220" lon="-72.4052886385"><ele>243.56</ele><time>2024-07-28T01:03:53Z</time></trkpt><trkpt lat="-39.2950264178" lon="-72.4052340724"><ele>243.57</ele><time>2024-07-28T01:03:54Z</time></trkpt><trkpt lat="-39.2950159404" lon="-72.4051731359"><ele>243.68</ele><time>2024-07-28T01:03:55Z</time></trkpt><trkpt lat="-39.2950021941" lon="-72.4051083438"><ele>243.81</ele><time>2024-07-28T01:03:56Z</time></trkpt><trkpt lat="-39.2949694209" lon="-72.4047566392"><ele>244.10</ele><time>2024-07-28T01:04:05Z</time></trkpt><trkpt lat="-39.2950190417" lon="-72.4046781845"><ele>244.51</ele><time>2024-07-28T01:04:10Z</time></trkpt><trkpt lat="-39.2950467020" lon="-72.4046646059"><ele>244.73</ele><time>2024-07-28T01:04:11Z</time></trkpt><trkpt lat="-39.2956105527" lon="-72.4044833053"><ele>246.47</ele><time>2024-07-28T01:04:22Z</time></trkpt><trkpt lat="-39.2959132232" lon="-72.4043847341"><ele>246.84</ele><time>2024-07-28T01:04:31Z</time></trkpt><trkpt lat="-39.2959624249" lon="-72.4044123944"><ele>247.02</ele><time>2024-07-28T01:04:34Z</time></trkpt><trkpt lat="-39.2959734891" lon="-72.4044457544"><ele>247.13</ele><time>2024-07-28T01:04:35Z</time></trkpt><trkpt lat="-39.2959812004" lon="-72.4044881668"><ele>247.11</ele><time>2024-07-28T01:04:36Z</time></trkpt><trkpt lat="-39.2960977927" lon="-72.4052370060"><ele>246.96</ele><time>2024-07-28T01:04:48Z</time></trkpt><trkpt lat="-39.2961586453" lon="-72.4056835938"><ele>246.93</ele><time>2024-07-28T01:04:57Z</time></trkpt><trkpt lat="-39.2961432226" lon="-72.4057083204"><ele>246.91</ele><time>2024-07-28T01:04:58Z</time></trkpt><trkpt lat="-39.2961200885" lon="-72.4057309516"><ele>246.90</ele><time>2024-07-28T01:04:59Z</time></trkpt><trkpt lat="-39.2960859742" lon="-72.4057508167"><ele>247.07</ele><time>2024-07-28T01:05:00Z</time></trkpt><trkpt lat="-39.2960392870" lon="-72.4057636410"><ele>247.05</ele><time>2024-07-28T01:05:01Z</time></trkpt><trkpt lat="-39.2959875707" lon="-72.4057752918"><ele>247.13</ele><time>2024-07-28T01:05:02Z</time></trkpt><trkpt lat="-39.2952351272" lon="-72.4060030282"><ele>245.31</ele><time>2024-07-28T01:05:16Z</time></trkpt><trkpt lat="-39.2951861769" lon="-72.4060550798"><ele>245.12</ele><time>2024-07-28T01:05:18Z</time></trkpt><trkpt lat="-39.2951715924" lon="-72.4060956482"><ele>245.10</ele><time>2024-07-28T01:05:19Z</time></trkpt><trkpt lat="-39.2951628752" lon="-72.4061474483"><ele>245.25</ele><time>2024-07-28T01:05:20Z</time></trkpt><trkpt lat="-39.2951617856" lon="-72.4062099773"><ele>245.27</ele><time>2024-07-28T01:05:21Z</time></trkpt><trkpt lat="-39.2951671500" lon="-72.4062803015"><ele>245.34</ele><time>2024-07-28T01:05:22Z</time></trkpt><trkpt lat="-39.2951767892" lon="-72.4063566606"><ele>245.46</ele><time>2024-07-28T01:05:23Z</time></trkpt><trkpt lat="-39.2953247298" lon="-72.4072572123"><ele>246.05</ele><time>2024-07-28T01:05:35Z</time></trkpt><trkpt lat="-39.2954909429" lon="-72.4074019678"><ele>246.11</ele><time>2024-07-28T01:05:41Z</time></trkpt><trkpt lat="-39.2955365404" lon="-72.4073926639"><ele>246.28</ele><time>2024-07-28T01:05:42Z</time></trkpt><trkpt lat="-39.2963950988" lon="-72.4071256164"><ele>246.65</ele><time>2024-07-28T01:05:57Z</time></trkpt><trkpt lat="-39.2966514174" lon="-72.4070359301"><ele>246.14</ele><time>2024-07-28T01:06:02Z</time></trkpt><trkpt lat="-39.2966840230" lon="-72.4070176575"><ele>246.07</ele><time>2024-07-28T01:06:03Z</time></trkpt><trkpt lat="-39.2967140302" lon="-72.4070051685"><ele>245.91</ele><time>2024-07-28T01:06:04Z</time></trkpt><trkpt lat="-39.2967390921" lon="-72.4069891591"><ele>245.86</ele><time>2024-07-28T01:06:05Z</time></trkpt><trkpt lat="-39.2967576999" lon="-72.4069723114"><ele>245.89</ele><time>2024-07-28T01:06:06Z</time></trkpt><trkpt lat="-39.2967730388" lon="-72.4069524463"><ele>245.72</ele><time>2024-07-28T01:06:07Z</time></trkpt><trkpt lat="-39.2967854440" lon="-72.4069304019"><ele>245.65</ele><time>2024-07-28T01:06:08Z</time></trkpt><trkpt lat="-39.2967941612" lon="-72.4069063459"><ele>245.62</ele><time>2024-07-28T01:06:09Z</time></trkpt><trkpt lat="-39.2968020402" lon="-72.4068811163"><ele>245.79</ele><time>2024-07-28T01:06:10Z</time></trkpt><trkpt lat="-39.2969780602" lon="-72.4066261388"><ele>247.02</ele><time>2024-07-28T01:06:21Z</time></trkpt><trkpt lat="-39.2969720252" lon="-72.4061922915"><ele>248.06</ele><time>2024-07-28T01:06:32Z</time></trkpt><trkpt lat="-39.2969711870" lon="-72.4057023693"><ele>248.25</ele><time>2024-07-28T01:06:46Z</time></trkpt><trkpt lat="-39.2972037848" lon="-72.4054882955"><ele>248.11</ele><time>2024-07-28T01:06:58Z</time></trkpt><trkpt lat="-39.2971623782" lon="-72.4049696233"><ele>248.96</ele><time>2024-07-28T01:07:11Z</time></trkpt><trkpt lat="-39.2972513102" lon="-72.4047850538"><ele>249.79</ele><time>2024-07-28T01:07:21Z</time></trkpt><trkpt lat="-39.2972590216" lon="-72.4047499336"><ele>249.91</ele><time>2024-07-28T01:07:23Z</time></trkpt><trkpt lat="-39.2971957382" lon="-72.4043081235"><ele>250.64</ele><time>2024-07-28T01:07:31Z</time></trkpt><trkpt lat="-39.2970988434" lon="-72.4037746992"><ele>250.93</ele><time>2024-07-28T01:07:41Z</time></trkpt><trkpt lat="-39.2971011903" lon="-72.4037446920"><ele>251.20</ele><time>2024-07-28T01:07:42Z</time></trkpt><trkpt lat="-39.2971120030" lon="-72.4037185404"><ele>251.12</ele><time>2024-07-28T01:07:43Z</time></trkpt><trkpt lat="-39.2971297726" lon="-72.4036985915"><ele>251.12</ele><time>2024-07-28T01:07:44Z</time></trkpt><trkpt lat="-39.2971596122" lon="-72.4036833365"><ele>251.25</ele><time>2024-07-28T01:07:45Z</time></trkpt><trkpt lat="-39.2971990909" lon="-72.4036734458"><ele>251.42</ele><time>2024-07-28T01:07:46Z</time></trkpt><trkpt lat="-39.2972439341" lon="-72.4036653154"><ele>251.47</ele><time>2024-07-28T01:07:47Z</time></trkpt><trkpt lat="-39.2978626862" lon="-72.4035633076"><ele>252.74</ele><time>2024-07-28T01:08:02Z</time></trkpt><trkpt lat="-39.2979245447" lon="-72.4036237411"><ele>252.46</ele><time>2024-07-28T01:08:04Z</time></trkpt><trkpt lat="-39.2979557253" lon="-72.4036681652"><ele>252.49</ele><time>2024-07-28T01:08:05Z</time></trkpt><trkpt lat="-39.2984015588" lon="-72.4044430722"><ele>250.48</ele><time>2024-07-28T01:08:20Z</time></trkpt><trkpt lat="-39.2985241860" lon="-72.4046277255"><ele>249.97</ele><time>2024-07-28T01:08:24Z</time></trkpt><trkpt lat="-39.2985576298" lon="-72.4046588223"><ele>250.00</ele><time>2024-07-28T01:08:25Z</time></trkpt><trkpt lat="-39.2985950131" lon="-72.4046765082"><ele>249.86</ele><time>2024-07-28T01:08:26Z</time></trkpt><trkpt lat="-39.2986359168" lon="-72.4046852253"><ele>249.80</ele><time>2024-07-28T01:08:27Z</time></trkpt><trkpt lat="-39.2986797541" lon="-72.4046856444"><ele>249.72</ele><time>2024-07-28T01:08:28Z</time></trkpt><trkpt lat="-39.2987266928" lon="-72.4046786036"><ele>249.65</ele><time>2024-07-28T01:08:29Z</time></trkpt><trkpt lat="-39.2987767328" lon="-72.4046685454"><ele>249.69</ele><time>2024-07-28T01:08:30Z</time></trkpt><trkpt lat="-39.2993767094" lon="-72.4045031704"><ele>248.83</ele><time>2024-07-28T01:08:43Z</time></trkpt><trkpt lat="-39.2994215526" lon="-72.4044890888"><ele>249.09</ele><time>2024-07-28T01:08:44Z</time></trkpt><trkpt lat="-39.3000853993" lon="-72.4043185171"><ele>249.03</ele><time>2024-07-28T01:08:56Z</time></trkpt><trkpt lat="-39.3003319111" lon="-72.4042543117"><ele>249.68</ele><time>2024-07-28T01:09:01Z</time></trkpt><trkpt lat="-39.3003712222" lon="-72.4042269029"><ele>249.81</ele><time>2024-07-28T01:09:02Z</time></trkpt><trkpt lat="-39.3003985472" lon="-72.4041897710"><ele>250.11</ele><time>2024-07-28T01:09:03Z</time></trkpt><trkpt lat="-39.3004158139" lon="-72.4041397311"><ele>250.40</ele><time>2024-07-28T01:09:04Z</time></trkpt><trkpt lat="-39.3004205078" lon="-72.4040860031"><ele>250.64</ele><time>2024-07-28T01:09:05Z</time></trkpt><trkpt lat="-39.3004205916" lon="-72.4040290061"><ele>250.87</ele><time>2024-07-28T01:09:06Z</time></trkpt><trkpt lat="-39.3004166521" lon="-72.4039707519"><ele>251.08</ele><time>2024-07-28T01:09:07Z</time></trkpt><trkpt lat="-39.3004095275" lon="-72.4039109051"><ele>251.38</ele><time>2024-07-28T01:09:08Z</time></trkpt><trkpt lat="-39.3003318273" lon="-72.4034014530"><ele>254.56</ele><time>2024-07-28T01:09:16Z</time></trkpt><trkpt lat="-39.3002930190" lon="-72.4031805899"><ele>256.21</ele><time>2024-07-28T01:09:20Z</time></trkpt><trkpt lat="-39.3001814559" lon="-72.4028419610"><ele>259.25</ele><time>2024-07-28T01:09:28Z</time></trkpt><trkpt lat="-39.3001588248" lon="-72.4028305616"><ele>259.18</ele><time>2024-07-28T01:09:29Z</time></trkpt><trkpt lat="-39.3001304101" lon="-72.4028236046"><ele>258.83</ele><time>2024-07-28T01:09:30Z</time></trkpt><trkpt lat="-39.3000971340" lon="-72.4028197490"><ele>258.66</ele><time>2024-07-28T01:09:31Z</time></trkpt><trkpt lat="-39.3000600021" lon="-72.4028233532"><ele>258.23</ele><time>2024-07-28T01:09:32Z</time></trkpt><trkpt lat="-39.3000170030" lon="-72.4028318189"><ele>257.58</ele><time>2024-07-28T01:09:33Z</time></trkpt><trkpt lat="-39.2997425795" lon="-72.4029014725"><ele>254.43</ele><time>2024-07-28T01:09:39Z</time></trkpt><trkpt lat="-39.2989908066" lon="-72.4031451344"><ele>252.18</ele><time>2024-07-28T01:09:54Z</time></trkpt><trkpt lat="-39.2982390337" lon="-72.4033416063"><ele>252.57</ele><time>2024-07-28T01:10:07Z</time></trkpt><trkpt lat="-39.2980739102" lon="-72.4033379182"><ele>252.81</ele><time>2024-07-28T01:10:14Z</time></trkpt><trkpt lat="-39.2980609182" lon="-72.4033078272"><ele>253.02</ele><time>2024-07-28T01:10:15Z</time></trkpt><trkpt lat="-39.2980522010" lon="-72.4032683484"><ele>253.09</ele><time>2024-07-28T01:10:16Z</time></trkpt><trkpt lat="-39.2980439030" lon="-72.4032199010"><ele>253.34</ele><time>2024-07-28T01:10:17Z</time></trkpt><trkpt lat="-39.2980358563" lon="-72.4031587131"><ele>253.42</ele><time>2024-07-28T01:10:18Z</time></trkpt><trkpt lat="-39.2979079485" lon="-72.4021875858"><ele>254.88</ele><time>2024-07-28T01:10:32Z</time></trkpt><trkpt lat="-39.2979096249" lon="-72.4020958040"><ele>255.01</ele><time>2024-07-28T01:10:34Z</time></trkpt><trkpt lat="-39.2979258019" lon="-72.4020612705"><ele>255.01</ele><time>2024-07-28T01:10:35Z</time></trkpt><trkpt lat="-39.2979492713" lon="-72.4020342808"><ele>255.00</ele><time>2024-07-28T01:10:36Z</time></trkpt><trkpt lat="-39.2979818769" lon="-72.4020162597"><ele>255.22</ele><time>2024-07-28T01:10:37Z</time></trkpt><trkpt lat="-39.2980271392" lon="-72.4020041898"><ele>255.23</ele><time>2024-07-28T01:10:38Z</time></trkpt><trkpt lat="-39.2980781849" lon="-72.4019908626"><ele>255.33</ele><time>2024-07-28T01:10:39Z</time></trkpt><trkpt lat="-39.2988131940" lon="-72.4017853383"><ele>256.86</ele><time>2024-07-28T01:10:51Z</time></trkpt><trkpt lat="-39.2993303575" lon="-72.4016330391"><ele>259.87</ele><time>2024-07-28T01:11:01Z</time></trkpt><trkpt lat="-39.2999121454" lon="-72.4014686700"><ele>261.87</ele><time>2024-07-28T01:11:13Z</time></trkpt><trkpt lat="-39.2999290768" lon="-72.4014478829"><ele>261.88</ele><time>2024-07-28T01:11:14Z</time></trkpt><trkpt lat="-39.2999455892" lon="-72.4014110863"><ele>261.91</ele><time>2024-07-28T01:11:15Z</time></trkpt><trkpt lat="-39.2999578267" lon="-72.4013604596"><ele>261.83</ele><time>2024-07-28T01:11:16Z</time></trkpt><trkpt lat="-39.2999618500" lon="-72.4013018701"><ele>261.78</ele><time>2024-07-28T01:11:17Z</time></trkpt><trkpt lat="-39.2999585811" lon="-72.4012331385"><ele>261.55</ele><time>2024-07-28T01:11:18Z</time></trkpt><trkpt lat="-39.2999506183" lon="-72.4011565279"><ele>261.42</ele><time>2024-07-28T01:11:19Z</time></trkpt><trkpt lat="-39.2999396380" lon="-72.4010809232"><ele>261.12</ele><time>2024-07-28T01:11:20Z</time></trkpt><trkpt lat="-39.2998036835" lon="-72.4002385419"><ele>259.28</ele><time>2024-07-28T01:11:33Z</time></trkpt><trkpt lat="-39.2996289209" lon="-72.4001105502"><ele>259.05</ele><time>2024-07-28T01:11:39Z</time></trkpt><trkpt lat="-39.2995814793" lon="-72.4001166690"><ele>258.80</ele><time>2024-07-28T01:11:40Z</time></trkpt><trkpt lat="-39.2995331157" lon="-72.4001279008"><ele>258.77</ele><time>2024-07-28T01:11:41Z</time></trkpt><trkpt lat="-39.2987586278" lon="-72.4003493506"><ele>256.06</ele><time>2024-07-28T01:11:57Z</time></trkpt><trkpt lat="-39.2983507644" lon="-72.4004686251"><ele>255.76</ele><time>2024-07-28T01:12:06Z</time></trkpt><trkpt lat="-39.2982963659" lon="-72.4004811142"><ele>255.68</ele><time>2024-07-28T01:12:07Z</time></trkpt><trkpt lat="-39.2981281411" lon="-72.4005216826"><ele>255.48</ele><time>2024-07-28T01:12:10Z</time></trkpt><trkpt lat="-39.2980747484" lon="-72.4005356804"><ele>255.39</ele><time>2024-07-28T01:12:11Z</time></trkpt><trkpt lat="-39.2975221295" lon="-72.4006481655"><ele>253.96</ele><time>2024-07-28T01:12:25Z</time></trkpt><trkpt lat="-39.2972185370" lon="-72.4006819446"><ele>250.32</ele><time>2024-07-28T01:12:31Z</time></trkpt><trkpt lat="-39.2965500802" lon="-72.4007093534"><ele>247.54</ele><time>2024-07-28T01:12:44Z</time></trkpt><trkpt lat="-39.2964292970" lon="-72.4005961139"><ele>247.39</ele><time>2024-07-28T01:12:49Z</time></trkpt><trkpt lat="-39.2961544544" lon="-72.4000129849"><ele>247.08</ele><time>2024-07-28T01:12:59Z</time></trkpt><trkpt lat="-39.2961070966" lon="-72.3999693152"><ele>247.10</ele><time>2024-07-28T01:13:00Z</time></trkpt><trkpt lat="-39.2960578110" lon="-72.3999329377"><ele>247.18</ele><time>2024-07-28T01:13:01Z</time></trkpt><trkpt lat="-39.2960098665" lon="-72.3999040201"><ele>247.26</ele><time>2024-07-28T01:13:02Z</time></trkpt><trkpt lat="-39.2959589884" lon="-72.3998781200"><ele>247.56</ele><time>2024-07-28T01:13:03Z</time></trkpt><trkpt lat="-39.2957129795" lon="-72.3998119868"><ele>248.81</ele><time>2024-07-28T01:13:12Z</time></trkpt><trkpt lat="-39.2956063617" lon="-72.3995756172"><ele>248.70</ele><time>2024-07-28T01:13:22Z</time></trkpt><trkpt lat="-39.2954723351" lon="-72.3988256883"><ele>249.81</ele><time>2024-07-28T01:13:33Z</time></trkpt><trkpt lat="-39.2951843329" lon="-72.3975519743"><ele>252.44</ele><time>2024-07-28T01:13:50Z</time></trkpt><trkpt lat="-39.2950337939" lon="-72.3968338128"><ele>255.66</ele><time>2024-07-28T01:14:00Z</time></trkpt><trkpt lat="-39.2948580254" lon="-72.3964765761"><ele>257.13</ele><time>2024-07-28T01:14:09Z</time></trkpt><trkpt lat="-39.2941253632" lon="-72.3962077685"><ele>258.20</ele><time>2024-07-28T01:14:24Z</time></trkpt><trkpt lat="-39.2933073733" lon="-72.3958775215"><ele>261.43</ele><time>2024-07-28T01:14:39Z</time></trkpt><trkpt lat="-39.2925276048" lon="-72.3955517169"><ele>263.77</ele><time>2024-07-28T01:14:55Z</time></trkpt><trkpt lat="-39.2924212385" lon="-72.3955901060"><ele>263.94</ele><time>2024-07-28T01:15:05Z</time></trkpt><trkpt lat="-39.2924414389" lon="-72.3955522198"><ele>264.03</ele><time>2024-07-28T01:15:13Z</time></trkpt><trkpt lat="-39.2924853601" lon="-72.3955822270"><ele>264.01</ele><time>2024-07-28T01:15:16Z</time></trkpt><trkpt lat="-39.2929664813" lon="-72.3958035093"><ele>262.07</ele><time>2024-07-28T01:15:30Z</time></trkpt><trkpt lat="-39.2937158234" lon="-72.3960998934"><ele>260.10</ele><time>2024-07-28T01:15:50Z</time></trkpt><trkpt lat="-39.2946361564" lon="-72.3964747321"><ele>257.24</ele><time>2024-07-28T01:16:10Z</time></trkpt><trkpt lat="-39.2947200593" lon="-72.3965059966"><ele>257.19</ele><time>2024-07-28T01:16:12Z</time></trkpt><trkpt lat="-39.2947587837" lon="-72.3965219222"><ele>257.17</ele><time>2024-07-28T01:16:13Z</time></trkpt><trkpt lat="-39.2947948258" lon="-72.3965365905"><ele>257.01</ele><time>2024-07-28T01:16:14Z</time></trkpt><trkpt lat="-39.2949730251" lon="-72.3967014626"><ele>256.66</ele><time>2024-07-28T01:16:24Z</time></trkpt><trkpt lat="-39.2949836701" lon="-72.3967989441"><ele>256.43</ele><time>2024-07-28T01:16:26Z</time></trkpt><trkpt lat="-39.2951129191" lon="-72.3975232244"><ele>253.31</ele><time>2024-07-28T01:16:37Z</time></trkpt><trkpt lat="-39.2953926232" lon="-72.3988149595"><ele>250.27</ele><time>2024-07-28T01:16:54Z</time></trkpt><trkpt lat="-39.2955740914" lon="-72.3998686485"><ele>248.43</ele><time>2024-07-28T01:17:10Z</time></trkpt><trkpt lat="-39.2955667991" lon="-72.3999227118"><ele>248.40</ele><time>2024-07-28T01:17:11Z</time></trkpt><trkpt lat="-39.2955548130" lon="-72.3999814689"><ele>248.27</ele><time>2024-07-28T01:17:12Z</time></trkpt><trkpt lat="-39.2953289207" lon="-72.4010378402"><ele>245.16</ele><time>2024-07-28T01:17:27Z</time></trkpt><trkpt lat="-39.2954669707" lon="-72.4020155892"><ele>244.43</ele><time>2024-07-28T01:17:40Z</time></trkpt><trkpt lat="-39.2956320103" lon="-72.4028783385"><ele>247.46</ele><time>2024-07-28T01:17:51Z</time></trkpt><trkpt lat="-39.2958399653" lon="-72.4039514735"><ele>249.22</ele><time>2024-07-28T01:18:08Z</time></trkpt><trkpt lat="-39.2959472537" lon="-72.4045032542"><ele>249.19</ele><time>2024-07-28T01:18:24Z</time></trkpt><trkpt lat="-39.2959454935" lon="-72.4044723250"><ele>249.17</ele><time>2024-07-28T01:18:26Z</time></trkpt><trkpt lat="-39.2959550489" lon="-72.4043522123"><ele>249.53</ele><time>2024-07-28T01:18:37Z</time></trkpt><trkpt lat="-39.2959154863" lon="-72.4043491948"><ele>249.36</ele><time>2024-07-28T01:18:39Z</time></trkpt><trkpt lat="-39.2958945315" lon="-72.4043436628"><ele>249.24</ele><time>2024-07-28T01:18:40Z</time></trkpt><trkpt lat="-39.2958756723" lon="-72.4043394718"><ele>249.19</ele><time>2024-07-28T01:18:41Z</time></trkpt><trkpt lat="-39.2957750056" lon="-72.4043420702"><ele>249.32</ele><time>2024-07-28T01:18:55Z</time></trkpt><trkpt lat="-39.2957769334" lon="-72.4043300003"><ele>249.34</ele><time>2024-07-28T01:19:25Z</time></trkpt></trkseg></trk></gpx>