<?xml version="1.0" encoding="UTF-8" standalone="no" ?><gpx xmlns="http://www.topografix.com/GPX/1/1" xmlns:gpxx="http://www.garmin.com/xmlschemas/GpxExtensions/v3" xmlns:gpxtrkx="http://www.garmin.com/xmlschemas/TrackStatsExtension/v1" xmlns:wptx1="http://www.garmin.com/xmlschemas/WaypointExtension/v1" xmlns:gpxtpx="http://www.garmin.com/xmlschemas/TrackPointExtension/v1" creator="GPSMAP 64sx" version="1.1" xmlns:xsi="http://www.w3.org/2001/XMLSchema-instance" xsi:schemaLocation="http://www.topografix.com/GPX/1/1 http://www.topografix.com/GPX/1/1/gpx.xsd http://www.garmin.com/xmlschemas/GpxExtensions/v3 http://www8.garmin.com/xmlschemas/GpxExtensionsv3.xsd http://www.garmin.com/xmlschemas/TrackStatsExtension/v1 http://www8.garmin.com/xmlschemas/TrackStatsExtension.xsd http://www.garmin.com/xmlschemas/WaypointExtension/v1 http://www8.garmin.com/xmlschemas/WaypointExtensionv1.xsd http://www.garmin.com/xmlschemas/TrackPointExtension/v1 http://www.garmin.com/xmlschemas/TrackPointExtensionv1.xsd"><metadata><link href="http://www.garmin.com"><text>Garmin International</text></link><time>2024-08-29T04:38:59Z</time></metadata><trk><name>GPS LAPAZ 240828</name><extensions><gpxx:TrackExtension><gpxx:DisplayColor>Cyan</gpxx:DisplayColor></gpxx:TrackExtension><gpxtrkx:TrackStatsExtension><gpxtrkx:Distance>3651.000</gpxtrkx:Distance><gpxtrkx:TotalElapsedTime>676</gpxtrkx:TotalElapsedTime><gpxtrkx:MovingTime>594</gpxtrkx:MovingTime><gpxtrkx:StoppedTime>82</gpxtrkx:StoppedTime><gpxtrkx:MovingSpeed>6.147</gpxtrkx:MovingSpeed><gpxtrkx:MaxSpeed>10.522</gpxtrkx:MaxSpeed><gpxtrkx:MaxElevation>94.191</gpxtrkx:MaxElevation><gpxtrkx:MinElevation>86.529</gpxtrkx:MinElevation><gpxtrkx:Ascent>10.000</gpxtrkx:Ascent><gpxtrkx:Descent>8.618</gpxtrkx:Descent><gpxtrkx:AvgAscentRate>0.084</gpxtrkx:AvgAscentRate><gpxtrkx:MaxAscentRate>0.264</gpxtrkx:MaxAscentRate><gpxtrkx:AvgDescentRate>0.048</gpxtrkx:AvgDescentRate><gpxtrkx:MaxDescentRate>-0.029</gpxtrkx:MaxDescentRate></gpxtrkx:TrackStatsExtension></extensions><trkseg><trkpt lat="-39.4062962662" lon="-72.7035263926"><ele>91.24</ele><time>2024-08-29T04:27:43Z</time></trkpt><trkpt lat="-39.4062969368" lon="-72.7035265602"><ele>91.24</ele><time>2024-08-29T04:27:44Z</time></trkpt><trkpt lat="-39.4063391816" lon="-72.7035604231"><ele>90.04</ele><time>2024-08-29T04:27:59Z</time></trkpt><trkpt lat="-39.4064246770" lon="-72.7036553062"><ele>90.47</ele><time>2024-08-29T04:28:02Z</time></trkpt><trkpt lat="-39.4064597972" lon="-72.7037011553"><ele>90.51</ele><time>2024-08-29T04:28:03Z</time></trkpt><trkpt lat="-39.4069084805" lon="-72.7044086717"><ele>93.13</ele><time>2024-08-29T04:28:12Z</time></trkpt><trkpt lat="-39.4072513003" lon="-72.7055944595"><ele>91.60</ele><time>2024-08-29T04:28:23Z</time></trkpt><trkpt lat="-39.4073635340" lon="-72.7059239522"><ele>90.97</ele><time>2024-08-29T04:28:26Z</time></trkpt><trkpt lat="-39.4074103888" lon="-72.7060178295"><ele>90.89</ele><time>2024-08-29T04:28:27Z</time></trkpt><trkpt lat="-39.4076102972" lon="-72.7063508425"><ele>90.54</ele><time>2024-08-29T04:28:32Z</time></trkpt><trkpt lat="-39.4076286536" lon="-72.7064064145"><ele>90.43</ele><time>2024-08-29T04:28:33Z</time></trkpt><trkpt lat="-39.4076403044" lon="-72.7064675186"><ele>90.43</ele><time>2024-08-29T04:28:34Z</time></trkpt><trkpt lat="-39.4076705631" lon="-72.7066898905"><ele>90.50</ele><time>2024-08-29T04:28:37Z</time></trkpt><trkpt lat="-39.4076894224" lon="-72.7067680098"><ele>90.66</ele><time>2024-08-29T04:28:38Z</time></trkpt><trkpt lat="-39.4077159930" lon="-72.7068440337"><ele>90.96</ele><time>2024-08-29T04:28:39Z</time></trkpt><trkpt lat="-39.4077470899" lon="-72.7069177106"><ele>90.98</ele><time>2024-08-29T04:28:40Z</time></trkpt><trkpt lat="-39.4077816233" lon="-72.7069857717"><ele>90.84</ele><time>2024-08-29T04:28:41Z</time></trkpt><trkpt lat="-39.4078151509" lon="-72.7070510667"><ele>91.00</ele><time>2024-08-29T04:28:42Z</time></trkpt><trkpt lat="-39.4078418054" lon="-72.7071198821"><ele>91.07</ele><time>2024-08-29T04:28:43Z</time></trkpt><trkpt lat="-39.4078602456" lon="-72.7071945649"><ele>91.09</ele><time>2024-08-29T04:28:44Z</time></trkpt><trkpt lat="-39.4078711420" lon="-72.7072729357"><ele>91.00</ele><time>2024-08-29T04:28:45Z</time></trkpt><trkpt lat="-39.4078937732" lon="-72.7074352093"><ele>90.91</ele><time>2024-08-29T04:28:47Z</time></trkpt><trkpt lat="-39.4079184998" lon="-72.7075162623"><ele>90.81</ele><time>2024-08-29T04:28:48Z</time></trkpt><trkpt lat="-39.4079524465" lon="-72.7075936273"><ele>90.82</ele><time>2024-08-29T04:28:49Z</time></trkpt><trkpt lat="-39.4079977926" lon="-72.7076655440"><ele>90.78</ele><time>2024-08-29T04:28:50Z</time></trkpt><trkpt lat="-39.4080542028" lon="-72.7077268995"><ele>90.70</ele><time>2024-08-29T04:28:51Z</time></trkpt><trkpt lat="-39.4081179053" lon="-72.7077743411"><ele>90.59</ele><time>2024-08-29T04:28:52Z</time></trkpt><trkpt lat="-39.4081883132" lon="-72.7078028396"><ele>90.60</ele><time>2024-08-29T04:28:53Z</time></trkpt><trkpt lat="-39.4082624093" lon="-72.7078190167"><ele>90.50</ele><time>2024-08-29T04:28:54Z</time></trkpt><trkpt lat="-39.4083408639" lon="-72.7078263089"><ele>90.43</ele><time>2024-08-29T04:28:55Z</time></trkpt><trkpt lat="-39.4084204081" lon="-72.7078298293"><ele>90.28</ele><time>2024-08-29T04:28:56Z</time></trkpt><trkpt lat="-39.4087391719" lon="-72.7078768518"><ele>90.68</ele><time>2024-08-29T04:29:00Z</time></trkpt><trkpt lat="-39.4088160340" lon="-72.7079144865"><ele>90.74</ele><time>2024-08-29T04:29:01Z</time></trkpt><trkpt lat="-39.4088908844" lon="-72.7079616766"><ele>90.93</ele><time>2024-08-29T04:29:02Z</time></trkpt><trkpt lat="-39.4089633040" lon="-72.7080167457"><ele>90.76</ele><time>2024-08-29T04:29:03Z</time></trkpt><trkpt lat="-39.4090329576" lon="-72.7080781851"><ele>90.86</ele><time>2024-08-29T04:29:04Z</time></trkpt><trkpt lat="-39.4095673878" lon="-72.7086435445"><ele>89.27</ele><time>2024-08-29T04:29:15Z</time></trkpt><trkpt lat="-39.4095667172" lon="-72.7086810116"><ele>89.23</ele><time>2024-08-29T04:29:16Z</time></trkpt><trkpt lat="-39.4095517974" lon="-72.7087212447"><ele>89.09</ele><time>2024-08-29T04:29:17Z</time></trkpt><trkpt lat="-39.4095277414" lon="-72.7087610587"><ele>88.98</ele><time>2024-08-29T04:29:18Z</time></trkpt><trkpt lat="-39.4094979856" lon="-72.7088012919"><ele>88.66</ele><time>2024-08-29T04:29:19Z</time></trkpt><trkpt lat="-39.4089510664" lon="-72.7096128277"><ele>88.42</ele><time>2024-08-29T04:29:33Z</time></trkpt><trkpt lat="-39.4087873679" lon="-72.7097376343"><ele>88.50</ele><time>2024-08-29T04:29:38Z</time></trkpt><trkpt lat="-39.4087494817" lon="-72.7097210381"><ele>88.52</ele><time>2024-08-29T04:29:39Z</time></trkpt><trkpt lat="-39.4087089133" lon="-72.7096886840"><ele>88.54</ele><time>2024-08-29T04:29:40Z</time></trkpt><trkpt lat="-39.4086633995" lon="-72.7096414939"><ele>88.57</ele><time>2024-08-29T04:29:41Z</time></trkpt><trkpt lat="-39.4086152036" lon="-72.7095895261"><ele>88.65</ele><time>2024-08-29T04:29:42Z</time></trkpt><trkpt lat="-39.4078500196" lon="-72.7087211609"><ele>88.77</ele><time>2024-08-29T04:29:59Z</time></trkpt><trkpt lat="-39.4073808845" lon="-72.7081654407"><ele>88.10</ele><time>2024-08-29T04:30:14Z</time></trkpt><trkpt lat="-39.4072444271" lon="-72.7080208529"><ele>88.15</ele><time>2024-08-29T04:30:19Z</time></trkpt><trkpt lat="-39.4070686586" lon="-72.7083031554"><ele>88.21</ele><time>2024-08-29T04:30:28Z</time></trkpt><trkpt lat="-39.4071736839" lon="-72.7092789765"><ele>88.73</ele><time>2024-08-29T04:30:44Z</time></trkpt><trkpt lat="-39.4073643722" lon="-72.7099781949"><ele>88.79</ele><time>2024-08-29T04:30:56Z</time></trkpt><trkpt lat="-39.4077462517" lon="-72.7104048338"><ele>89.12</ele><time>2024-08-29T04:31:08Z</time></trkpt><trkpt lat="-39.4082418736" lon="-72.7109629009"><ele>89.72</ele><time>2024-08-29T04:31:24Z</time></trkpt><trkpt lat="-39.4088688400" lon="-72.7116678189"><ele>89.75</ele><time>2024-08-29T04:31:38Z</time></trkpt><trkpt lat="-39.4089618791" lon="-72.7117636241"><ele>89.57</ele><time>2024-08-29T04:31:41Z</time></trkpt><trkpt lat="-39.4089933950" lon="-72.7117668930"><ele>89.49</ele><time>2024-08-29T04:31:42Z</time></trkpt><trkpt lat="-39.4090272579" lon="-72.7117534820"><ele>89.54</ele><time>2024-08-29T04:31:43Z</time></trkpt><trkpt lat="-39.4090588577" lon="-72.7117252350"><ele>89.33</ele><time>2024-08-29T04:31:44Z</time></trkpt><trkpt lat="-39.4090897031" lon="-72.7116867620"><ele>89.37</ele><time>2024-08-29T04:31:45Z</time></trkpt><trkpt lat="-39.4091204647" lon="-72.7116411645"><ele>89.41</ele><time>2024-08-29T04:31:46Z</time></trkpt><trkpt lat="-39.4091514777" lon="-72.7115902025"><ele>89.59</ele><time>2024-08-29T04:31:47Z</time></trkpt><trkpt lat="-39.4096963014" lon="-72.7107178140"><ele>89.84</ele><time>2024-08-29T04:32:03Z</time></trkpt><trkpt lat="-39.4102396164" lon="-72.7098964714"><ele>88.91</ele><time>2024-08-29T04:32:16Z</time></trkpt><trkpt lat="-39.4104497507" lon="-72.7096114028"><ele>89.02</ele><time>2024-08-29T04:32:24Z</time></trkpt><trkpt lat="-39.4104773272" lon="-72.7096145879"><ele>89.01</ele><time>2024-08-29T04:32:25Z</time></trkpt><trkpt lat="-39.4105096813" lon="-72.7096342854"><ele>89.02</ele><time>2024-08-29T04:32:26Z</time></trkpt><trkpt lat="-39.4105497468" lon="-72.7096729260"><ele>88.95</ele><time>2024-08-29T04:32:27Z</time></trkpt><trkpt lat="-39.4111537468" lon="-72.7103552129"><ele>88.67</ele><time>2024-08-29T04:32:39Z</time></trkpt><trkpt lat="-39.4111886993" lon="-72.7103984635"><ele>88.76</ele><time>2024-08-29T04:32:40Z</time></trkpt><trkpt lat="-39.4112128392" lon="-72.7104401216"><ele>88.63</ele><time>2024-08-29T04:32:41Z</time></trkpt><trkpt lat="-39.4112233166" lon="-72.7104807738"><ele>88.67</ele><time>2024-08-29T04:32:42Z</time></trkpt><trkpt lat="-39.4112193771" lon="-72.7105246112"><ele>88.41</ele><time>2024-08-29T04:32:43Z</time></trkpt><trkpt lat="-39.4112013560" lon="-72.7105698735"><ele>88.31</ele><time>2024-08-29T04:32:44Z</time></trkpt><trkpt lat="-39.4111731928" lon="-72.7106155548"><ele>88.21</ele><time>2024-08-29T04:32:45Z</time></trkpt><trkpt lat="-39.4111391623" lon="-72.7106606495"><ele>87.92</ele><time>2024-08-29T04:32:46Z</time></trkpt><trkpt lat="-39.4111042935" lon="-72.7107070852"><ele>87.82</ele><time>2024-08-29T04:32:47Z</time></trkpt><trkpt lat="-39.4104795065" lon="-72.7116358001"><ele>88.97</ele><time>2024-08-29T04:33:05Z</time></trkpt><trkpt lat="-39.4099235348" lon="-72.7124928497"><ele>89.07</ele><time>2024-08-29T04:33:20Z</time></trkpt><trkpt lat="-39.4098339323" lon="-72.7127806004"><ele>89.18</ele><time>2024-08-29T04:33:27Z</time></trkpt><trkpt lat="-39.4098622631" lon="-72.7128220070"><ele>89.27</ele><time>2024-08-29T04:33:28Z</time></trkpt><trkpt lat="-39.4099046756" lon="-72.7128685266"><ele>89.44</ele><time>2024-08-29T04:33:29Z</time></trkpt><trkpt lat="-39.4105392694" lon="-72.7135471255"><ele>87.69</ele><time>2024-08-29T04:33:41Z</time></trkpt><trkpt lat="-39.4105870463" lon="-72.7135656495"><ele>87.34</ele><time>2024-08-29T04:33:42Z</time></trkpt><trkpt lat="-39.4106375892" lon="-72.7135569323"><ele>87.18</ele><time>2024-08-29T04:33:43Z</time></trkpt><trkpt lat="-39.4106869586" lon="-72.7135197166"><ele>87.07</ele><time>2024-08-29T04:33:44Z</time></trkpt><trkpt lat="-39.4107336458" lon="-72.7134619653"><ele>87.16</ele><time>2024-08-29T04:33:45Z</time></trkpt><trkpt lat="-39.4107818417" lon="-72.7133918088"><ele>87.06</ele><time>2024-08-29T04:33:46Z</time></trkpt><trkpt lat="-39.4114850834" lon="-72.7123523690"><ele>87.64</ele><time>2024-08-29T04:33:59Z</time></trkpt><trkpt lat="-39.4120794442" lon="-72.7115046233"><ele>87.18</ele><time>2024-08-29T04:34:12Z</time></trkpt><trkpt lat="-39.4121490978" lon="-72.7114747837"><ele>87.49</ele><time>2024-08-29T04:34:16Z</time></trkpt><trkpt lat="-39.4121801108" lon="-72.7114897873"><ele>87.48</ele><time>2024-08-29T04:34:17Z</time></trkpt><trkpt lat="-39.4122174941" lon="-72.7115218900"><ele>87.55</ele><time>2024-08-29T04:34:18Z</time></trkpt><trkpt lat="-39.4126904011" lon="-72.7120602597"><ele>87.59</ele><time>2024-08-29T04:34:26Z</time></trkpt><trkpt lat="-39.4128910638" lon="-72.7123614214"><ele>86.85</ele><time>2024-08-29T04:34:32Z</time></trkpt><trkpt lat="-39.4128772337" lon="-72.7124061808"><ele>86.95</ele><time>2024-08-29T04:34:33Z</time></trkpt><trkpt lat="-39.4128548540" lon="-72.7124515269"><ele>86.96</ele><time>2024-08-29T04:34:34Z</time></trkpt><trkpt lat="-39.4128256012" lon="-72.7124948613"><ele>86.78</ele><time>2024-08-29T04:34:35Z</time></trkpt><trkpt lat="-39.4127909839" lon="-72.7125413809"><ele>86.64</ele><time>2024-08-29T04:34:36Z</time></trkpt><trkpt lat="-39.4122852199" lon="-72.7132592909"><ele>86.97</ele><time>2024-08-29T04:34:47Z</time></trkpt><trkpt lat="-39.4122154824" lon="-72.7133504022"><ele>87.09</ele><time>2024-08-29T04:34:49Z</time></trkpt><trkpt lat="-39.4121797755" lon="-72.7133766375"><ele>87.10</ele><time>2024-08-29T04:34:50Z</time></trkpt><trkpt lat="-39.4121428952" lon="-72.7133880369"><ele>87.10</ele><time>2024-08-29T04:34:51Z</time></trkpt><trkpt lat="-39.4121051766" lon="-72.7133797389"><ele>87.16</ele><time>2024-08-29T04:34:52Z</time></trkpt><trkpt lat="-39.4120662846" lon="-72.7133540064"><ele>87.13</ele><time>2024-08-29T04:34:53Z</time></trkpt><trkpt lat="-39.4120261353" lon="-72.7133169584"><ele>87.15</ele><time>2024-08-29T04:34:54Z</time></trkpt><trkpt lat="-39.4119817950" lon="-72.7132727858"><ele>87.21</ele><time>2024-08-29T04:34:55Z</time></trkpt><trkpt lat="-39.4113829918" lon="-72.7125733998"><ele>86.98</ele><time>2024-08-29T04:35:09Z</time></trkpt><trkpt lat="-39.4109049719" lon="-72.7120264806"><ele>87.54</ele><time>2024-08-29T04:35:19Z</time></trkpt><trkpt lat="-39.4105506688" lon="-72.7116252389"><ele>88.59</ele><time>2024-08-29T04:35:29Z</time></trkpt><trkpt lat="-39.4101946056" lon="-72.7112550940"><ele>89.66</ele><time>2024-08-29T04:35:41Z</time></trkpt><trkpt lat="-39.4097702298" lon="-72.7107790858"><ele>90.13</ele><time>2024-08-29T04:35:51Z</time></trkpt><trkpt lat="-39.4093350414" lon="-72.7103029098"><ele>89.59</ele><time>2024-08-29T04:36:03Z</time></trkpt><trkpt lat="-39.4088829216" lon="-72.7097740956"><ele>88.87</ele><time>2024-08-29T04:36:14Z</time></trkpt><trkpt lat="-39.4088873640" lon="-72.7097274922"><ele>88.94</ele><time>2024-08-29T04:36:15Z</time></trkpt><trkpt lat="-39.4089070614" lon="-72.7096780390"><ele>89.04</ele><time>2024-08-29T04:36:16Z</time></trkpt><trkpt lat="-39.4089411758" lon="-72.7096227184"><ele>88.99</ele><time>2024-08-29T04:36:17Z</time></trkpt><trkpt lat="-39.4089835044" lon="-72.7095636260"><ele>89.08</ele><time>2024-08-29T04:36:18Z</time></trkpt><trkpt lat="-39.4095781166" lon="-72.7086962666"><ele>89.69</ele><time>2024-08-29T04:36:32Z</time></trkpt><trkpt lat="-39.4095760211" lon="-72.7085395250"><ele>89.70</ele><time>2024-08-29T04:36:37Z</time></trkpt><trkpt lat="-39.4095441699" lon="-72.7084936760"><ele>89.72</ele><time>2024-08-29T04:36:38Z</time></trkpt><trkpt lat="-39.4095021766" lon="-72.7084456477"><ele>89.85</ele><time>2024-08-29T04:36:39Z</time></trkpt><trkpt lat="-39.4087509066" lon="-72.7077745926"><ele>91.60</ele><time>2024-08-29T04:36:52Z</time></trkpt><trkpt lat="-39.4086777326" lon="-72.7077461779"><ele>91.57</ele><time>2024-08-29T04:36:53Z</time></trkpt><trkpt lat="-39.4086015411" lon="-72.7077286597"><ele>91.68</ele><time>2024-08-29T04:36:54Z</time></trkpt><trkpt lat="-39.4085218292" lon="-72.7077202778"><ele>91.69</ele><time>2024-08-29T04:36:55Z</time></trkpt><trkpt lat="-39.4082226790" lon="-72.7076988202"><ele>91.49</ele><time>2024-08-29T04:36:59Z</time></trkpt><trkpt lat="-39.4081535283" lon="-72.7076789550"><ele>91.06</ele><time>2024-08-29T04:37:00Z</time></trkpt><trkpt lat="-39.4080903288" lon="-72.7076416556"><ele>91.10</ele><time>2024-08-29T04:37:01Z</time></trkpt><trkpt lat="-39.4080316555" lon="-72.7075944655"><ele>91.14</ele><time>2024-08-29T04:37:02Z</time></trkpt><trkpt lat="-39.4079820346" lon="-72.7075337805"><ele>91.18</ele><time>2024-08-29T04:37:03Z</time></trkpt><trkpt lat="-39.4079432264" lon="-72.7074639592"><ele>91.21</ele><time>2024-08-29T04:37:04Z</time></trkpt><trkpt lat="-39.4079198409" lon="-72.7073919587"><ele>91.30</ele><time>2024-08-29T04:37:05Z</time></trkpt><trkpt lat="-39.4079123810" lon="-72.7073211316"><ele>91.34</ele><time>2024-08-29T04:37:06Z</time></trkpt><trkpt lat="-39.4079215173" lon="-72.7072606143"><ele>91.37</ele><time>2024-08-29T04:37:07Z</time></trkpt><trkpt lat="-39.4079355989" lon="-72.7072187047"><ele>91.33</ele><time>2024-08-29T04:37:08Z</time></trkpt><trkpt lat="-39.4079517759" lon="-72.7071969118"><ele>91.35</ele><time>2024-08-29T04:37:09Z</time></trkpt><trkpt lat="-39.4079646841" lon="-72.7071846742"><ele>91.31</ele><time>2024-08-29T04:37:10Z</time></trkpt><trkpt lat="-39.4079823699" lon="-72.7071712632"><ele>91.27</ele><time>2024-08-29T04:37:11Z</time></trkpt><trkpt lat="-39.4080932625" lon="-72.7071389928"><ele>91.42</ele><time>2024-08-29T04:37:14Z</time></trkpt><trkpt lat="-39.4082801789" lon="-72.7071251627"><ele>91.53</ele><time>2024-08-29T04:37:17Z</time></trkpt><trkpt lat="-39.4083479047" lon="-72.7071011066"><ele>91.60</ele><time>2024-08-29T04:37:18Z</time></trkpt><trkpt lat="-39.4084126130" lon="-72.7070653997"><ele>91.72</ele><time>2024-08-29T04:37:19Z</time></trkpt><trkpt lat="-39.4084719568" lon="-72.7070216462"><ele>91.71</ele><time>2024-08-29T04:37:20Z</time></trkpt><trkpt lat="-39.4085306302" lon="-72.7069708519"><ele>91.81</ele><time>2024-08-29T04:37:21Z</time></trkpt><trkpt lat="-39.4085840229" lon="-72.7069003601"><ele>91.87</ele><time>2024-08-29T04:37:22Z</time></trkpt><trkpt lat="-39.4086251780" lon="-72.7068141941"><ele>92.04</ele><time>2024-08-29T04:37:23Z</time></trkpt><trkpt lat="-39.4086571131" lon="-72.7067152038"><ele>91.79</ele><time>2024-08-29T04:37:24Z</time></trkpt><trkpt lat="-39.4086719491" lon="-72.7066091727"><ele>91.71</ele><time>2024-08-29T04:37:25Z</time></trkpt><trkpt lat="-39.4086697698" lon="-72.7064995375"><ele>91.68</ele><time>2024-08-29T04:37:26Z</time></trkpt><trkpt lat="-39.4086587057" lon="-72.7063967753"><ele>91.75</ele><time>2024-08-29T04:37:27Z</time></trkpt><trkpt lat="-39.4086346496" lon="-72.7062966954"><ele>91.85</ele><time>2024-08-29T04:37:28Z</time></trkpt><trkpt lat="-39.4086051453" lon="-72.7062052488"><ele>91.88</ele><time>2024-08-29T04:37:29Z</time></trkpt><trkpt lat="-39.4085729588" lon="-72.7061224356"><ele>91.73</ele><time>2024-08-29T04:37:30Z</time></trkpt><trkpt lat="-39.4084888045" lon="-72.7059152350"><ele>91.72</ele><time>2024-08-29T04:37:33Z</time></trkpt><trkpt lat="-39.4084640779" lon="-72.7058701403"><ele>91.74</ele><time>2024-08-29T04:37:34Z</time></trkpt><trkpt lat="-39.4084399380" lon="-72.7058348525"><ele>91.81</ele><time>2024-08-29T04:37:35Z</time></trkpt><trkpt lat="-39.4084204920" lon="-72.7058113832"><ele>91.69</ele><time>2024-08-29T04:37:36Z</time></trkpt><trkpt lat="-39.4084079191" lon="-72.7057982236"><ele>91.71</ele><time>2024-08-29T04:37:37Z</time></trkpt><trkpt lat="-39.4084019680" lon="-72.7058024984"><ele>91.50</ele><time>2024-08-29T04:37:53Z</time></trkpt><trkpt lat="-39.4083905686" lon="-72.7057931945"><ele>91.69</ele><time>2024-08-29T04:38:36Z</time></trkpt></trkseg></trk></gpx>