<?xml version="1.0" encoding="UTF-8" standalone="no" ?><gpx xmlns="http://www.topografix.com/GPX/1/1" xmlns:gpxx="http://www.garmin.com/xmlschemas/GpxExtensions/v3" xmlns:gpxtrkx="http://www.garmin.com/xmlschemas/TrackStatsExtension/v1" xmlns:wptx1="http://www.garmin.com/xmlschemas/WaypointExtension/v1" xmlns:gpxtpx="http://www.garmin.com/xmlschemas/TrackPointExtension/v1" creator="GPSMAP 64sx" version="1.1" xmlns:xsi="http://www.w3.org/2001/XMLSchema-instance" xsi:schemaLocation="http://www.topografix.com/GPX/1/1 http://www.topografix.com/GPX/1/1/gpx.xsd http://www.garmin.com/xmlschemas/GpxExtensions/v3 http://www8.garmin.com/xmlschemas/GpxExtensionsv3.xsd http://www.garmin.com/xmlschemas/TrackStatsExtension/v1 http://www8.garmin.com/xmlschemas/TrackStatsExtension.xsd http://www.garmin.com/xmlschemas/WaypointExtension/v1 http://www8.garmin.com/xmlschemas/WaypointExtensionv1.xsd http://www.garmin.com/xmlschemas/TrackPointExtension/v1 http://www.garmin.com/xmlschemas/TrackPointExtensionv1.xsd"><metadata><link href="http://www.garmin.com"><text>Garmin International</text></link><time>2024-09-12T03:31:06Z</time></metadata><trk><name>GPS LAPAZ 240911</name><extensions><gpxx:TrackExtension><gpxx:DisplayColor>Cyan</gpxx:DisplayColor></gpxx:TrackExtension><gpxtrkx:TrackStatsExtension><gpxtrkx:Distance>3658.000</gpxtrkx:Distance><gpxtrkx:TotalElapsedTime>698</gpxtrkx:TotalElapsedTime><gpxtrkx:MovingTime>597</gpxtrkx:MovingTime><gpxtrkx:StoppedTime>101</gpxtrkx:StoppedTime><gpxtrkx:MovingSpeed>6.128</gpxtrkx:MovingSpeed><gpxtrkx:MaxSpeed>10.124</gpxtrkx:MaxSpeed><gpxtrkx:MaxElevation>97.001</gpxtrkx:MaxElevation><gpxtrkx:MinElevation>88.434</gpxtrkx:MinElevation><gpxtrkx:Ascent>9.000</gpxtrkx:Ascent><gpxtrkx:Descent>9.192</gpxtrkx:Descent><gpxtrkx:AvgAscentRate>0.036</gpxtrkx:AvgAscentRate><gpxtrkx:MaxAscentRate>0.134</gpxtrkx:MaxAscentRate><gpxtrkx:AvgDescentRate>0.031</gpxtrkx:AvgDescentRate><gpxtrkx:MaxDescentRate>-0.187</gpxtrkx:MaxDescentRate></gpxtrkx:TrackStatsExtension></extensions><trkseg><trkpt lat="-39.4063268602" lon="-72.7035682183"><ele>94.07</ele><time>2024-09-12T03:19:28Z</time></trkpt><trkpt lat="-39.4063293748" lon="-72.7035638597"><ele>94.07</ele><time>2024-09-12T03:19:29Z</time></trkpt><trkpt lat="-39.4063163828" lon="-72.7035392169"><ele>92.71</ele><time>2024-09-12T03:20:00Z</time></trkpt><trkpt lat="-39.4063339010" lon="-72.7035706490"><ele>92.84</ele><time>2024-09-12T03:20:17Z</time></trkpt><trkpt lat="-39.4063840248" lon="-72.7036199346"><ele>93.16</ele><time>2024-09-12T03:20:19Z</time></trkpt><trkpt lat="-39.4067320414" lon="-72.7040847950"><ele>94.99</ele><time>2024-09-12T03:20:26Z</time></trkpt><trkpt lat="-39.4071919564" lon="-72.7052876819"><ele>95.70</ele><time>2024-09-12T03:20:38Z</time></trkpt><trkpt lat="-39.4075997360" lon="-72.7062666882"><ele>93.13</ele><time>2024-09-12T03:20:49Z</time></trkpt><trkpt lat="-39.4076254684" lon="-72.7063143812"><ele>93.02</ele><time>2024-09-12T03:20:50Z</time></trkpt><trkpt lat="-39.4076460041" lon="-72.7063622419"><ele>92.89</ele><time>2024-09-12T03:20:51Z</time></trkpt><trkpt lat="-39.4076620135" lon="-72.7064176463"><ele>92.87</ele><time>2024-09-12T03:20:52Z</time></trkpt><trkpt lat="-39.4076723233" lon="-72.7064829413"><ele>93.02</ele><time>2024-09-12T03:20:53Z</time></trkpt><trkpt lat="-39.4076807052" lon="-72.7065582946"><ele>93.21</ele><time>2024-09-12T03:20:54Z</time></trkpt><trkpt lat="-39.4077115506" lon="-72.7067263518"><ele>93.38</ele><time>2024-09-12T03:20:56Z</time></trkpt><trkpt lat="-39.4077719841" lon="-72.7068992704"><ele>93.73</ele><time>2024-09-12T03:20:58Z</time></trkpt><trkpt lat="-39.4078133069" lon="-72.7069806587"><ele>93.78</ele><time>2024-09-12T03:20:59Z</time></trkpt><trkpt lat="-39.4078536239" lon="-72.7070648968"><ele>93.71</ele><time>2024-09-12T03:21:00Z</time></trkpt><trkpt lat="-39.4078848045" lon="-72.7071537450"><ele>93.69</ele><time>2024-09-12T03:21:01Z</time></trkpt><trkpt lat="-39.4079024065" lon="-72.7072483767"><ele>93.59</ele><time>2024-09-12T03:21:02Z</time></trkpt><trkpt lat="-39.4079154823" lon="-72.7073459420"><ele>93.71</ele><time>2024-09-12T03:21:03Z</time></trkpt><trkpt lat="-39.4079334196" lon="-72.7074420825"><ele>93.77</ele><time>2024-09-12T03:21:04Z</time></trkpt><trkpt lat="-39.4079613313" lon="-72.7075315174"><ele>93.71</ele><time>2024-09-12T03:21:05Z</time></trkpt><trkpt lat="-39.4080029055" lon="-72.7076117322"><ele>93.77</ele><time>2024-09-12T03:21:06Z</time></trkpt><trkpt lat="-39.4080561306" lon="-72.7076815534"><ele>93.66</ele><time>2024-09-12T03:21:07Z</time></trkpt><trkpt lat="-39.4081209227" lon="-72.7077387180"><ele>93.58</ele><time>2024-09-12T03:21:08Z</time></trkpt><trkpt lat="-39.4081938453" lon="-72.7077802923"><ele>93.55</ele><time>2024-09-12T03:21:09Z</time></trkpt><trkpt lat="-39.4082738925" lon="-72.7078053541"><ele>93.55</ele><time>2024-09-12T03:21:10Z</time></trkpt><trkpt lat="-39.4083563704" lon="-72.7078162506"><ele>93.52</ele><time>2024-09-12T03:21:11Z</time></trkpt><trkpt lat="-39.4084396027" lon="-72.7078188490"><ele>93.49</ele><time>2024-09-12T03:21:12Z</time></trkpt><trkpt lat="-39.4085245114" lon="-72.7078223694"><ele>93.44</ele><time>2024-09-12T03:21:13Z</time></trkpt><trkpt lat="-39.4086102583" lon="-72.7078281529"><ele>93.46</ele><time>2024-09-12T03:21:14Z</time></trkpt><trkpt lat="-39.4087742921" lon="-72.7078596689"><ele>93.51</ele><time>2024-09-12T03:21:16Z</time></trkpt><trkpt lat="-39.4088487234" lon="-72.7078926936"><ele>93.49</ele><time>2024-09-12T03:21:17Z</time></trkpt><trkpt lat="-39.4089219812" lon="-72.7079364471"><ele>93.50</ele><time>2024-09-12T03:21:18Z</time></trkpt><trkpt lat="-39.4089919701" lon="-72.7079884987"><ele>93.56</ele><time>2024-09-12T03:21:19Z</time></trkpt><trkpt lat="-39.4090607017" lon="-72.7080451604"><ele>93.45</ele><time>2024-09-12T03:21:20Z</time></trkpt><trkpt lat="-39.4095771946" lon="-72.7085663471"><ele>91.94</ele><time>2024-09-12T03:21:30Z</time></trkpt><trkpt lat="-39.4095996581" lon="-72.7086057421"><ele>91.84</ele><time>2024-09-12T03:21:31Z</time></trkpt><trkpt lat="-39.4096093811" lon="-72.7086448018"><ele>91.47</ele><time>2024-09-12T03:21:32Z</time></trkpt><trkpt lat="-39.4096073695" lon="-72.7086826880"><ele>91.54</ele><time>2024-09-12T03:21:33Z</time></trkpt><trkpt lat="-39.4095932040" lon="-72.7087214962"><ele>91.46</ele><time>2024-09-12T03:21:34Z</time></trkpt><trkpt lat="-39.4095710758" lon="-72.7087642439"><ele>91.32</ele><time>2024-09-12T03:21:35Z</time></trkpt><trkpt lat="-39.4095427450" lon="-72.7088099252"><ele>91.10</ele><time>2024-09-12T03:21:36Z</time></trkpt><trkpt lat="-39.4089985080" lon="-72.7096406557"><ele>90.91</ele><time>2024-09-12T03:21:53Z</time></trkpt><trkpt lat="-39.4087967556" lon="-72.7097372152"><ele>90.52</ele><time>2024-09-12T03:21:59Z</time></trkpt><trkpt lat="-39.4087587018" lon="-72.7097046934"><ele>90.83</ele><time>2024-09-12T03:22:00Z</time></trkpt><trkpt lat="-39.4087177981" lon="-72.7096638735"><ele>90.88</ele><time>2024-09-12T03:22:01Z</time></trkpt><trkpt lat="-39.4079999719" lon="-72.7088671736"><ele>91.53</ele><time>2024-09-12T03:22:16Z</time></trkpt><trkpt lat="-39.4073892664" lon="-72.7081740741"><ele>90.33</ele><time>2024-09-12T03:22:31Z</time></trkpt><trkpt lat="-39.4072531443" lon="-72.7080312464"><ele>90.23</ele><time>2024-09-12T03:22:36Z</time></trkpt><trkpt lat="-39.4071053714" lon="-72.7083366830"><ele>90.44</ele><time>2024-09-12T03:22:43Z</time></trkpt><trkpt lat="-39.4072578382" lon="-72.7096910309"><ele>91.01</ele><time>2024-09-12T03:23:01Z</time></trkpt><trkpt lat="-39.4072812237" lon="-72.7097626962"><ele>91.04</ele><time>2024-09-12T03:23:02Z</time></trkpt><trkpt lat="-39.4075097144" lon="-72.7101361938"><ele>91.07</ele><time>2024-09-12T03:23:08Z</time></trkpt><trkpt lat="-39.4081149716" lon="-72.7107854560"><ele>91.18</ele><time>2024-09-12T03:23:22Z</time></trkpt><trkpt lat="-39.4085667562" lon="-72.7112852689"><ele>91.95</ele><time>2024-09-12T03:23:32Z</time></trkpt><trkpt lat="-39.4090314489" lon="-72.7117452677"><ele>91.28</ele><time>2024-09-12T03:23:43Z</time></trkpt><trkpt lat="-39.4090697542" lon="-72.7117250673"><ele>91.21</ele><time>2024-09-12T03:23:44Z</time></trkpt><trkpt lat="-39.4091062155" lon="-72.7116896957"><ele>91.29</ele><time>2024-09-12T03:23:45Z</time></trkpt><trkpt lat="-39.4091424253" lon="-72.7116400748"><ele>91.40</ele><time>2024-09-12T03:23:46Z</time></trkpt><trkpt lat="-39.4091788027" lon="-72.7115787193"><ele>91.43</ele><time>2024-09-12T03:23:47Z</time></trkpt><trkpt lat="-39.4092176948" lon="-72.7115109097"><ele>91.46</ele><time>2024-09-12T03:23:48Z</time></trkpt><trkpt lat="-39.4097393844" lon="-72.7106546145"><ele>91.43</ele><time>2024-09-12T03:24:02Z</time></trkpt><trkpt lat="-39.4098954555" lon="-72.7104292251"><ele>91.28</ele><time>2024-09-12T03:24:06Z</time></trkpt><trkpt lat="-39.4099416398" lon="-72.7103608288"><ele>91.27</ele><time>2024-09-12T03:24:07Z</time></trkpt><trkpt lat="-39.4099859800" lon="-72.7102815360"><ele>91.36</ele><time>2024-09-12T03:24:08Z</time></trkpt><trkpt lat="-39.4104209170" lon="-72.7096114866"><ele>90.19</ele><time>2024-09-12T03:24:20Z</time></trkpt><trkpt lat="-39.4105127826" lon="-72.7095903642"><ele>90.16</ele><time>2024-09-12T03:24:23Z</time></trkpt><trkpt lat="-39.4105557818" lon="-72.7096207067"><ele>90.27</ele><time>2024-09-12T03:24:24Z</time></trkpt><trkpt lat="-39.4106005412" lon="-72.7096713334"><ele>90.46</ele><time>2024-09-12T03:24:25Z</time></trkpt><trkpt lat="-39.4111590274" lon="-72.7103181649"><ele>90.27</ele><time>2024-09-12T03:24:35Z</time></trkpt><trkpt lat="-39.4112387393" lon="-72.7105386928"><ele>89.72</ele><time>2024-09-12T03:24:40Z</time></trkpt><trkpt lat="-39.4112161919" lon="-72.7105853800"><ele>89.52</ele><time>2024-09-12T03:24:41Z</time></trkpt><trkpt lat="-39.4111845084" lon="-72.7106342465"><ele>89.30</ele><time>2024-09-12T03:24:42Z</time></trkpt><trkpt lat="-39.4106801692" lon="-72.7114026994"><ele>90.14</ele><time>2024-09-12T03:24:56Z</time></trkpt><trkpt lat="-39.4101151451" lon="-72.7122794464"><ele>90.75</ele><time>2024-09-12T03:25:12Z</time></trkpt><trkpt lat="-39.4098636881" lon="-72.7127653453"><ele>90.44</ele><time>2024-09-12T03:25:24Z</time></trkpt><trkpt lat="-39.4098802842" lon="-72.7127973642"><ele>90.54</ele><time>2024-09-12T03:25:25Z</time></trkpt><trkpt lat="-39.4099058490" lon="-72.7128305566"><ele>90.44</ele><time>2024-09-12T03:25:26Z</time></trkpt><trkpt lat="-39.4103612378" lon="-72.7133255918"><ele>90.08</ele><time>2024-09-12T03:25:38Z</time></trkpt><trkpt lat="-39.4105515908" lon="-72.7135344688"><ele>89.75</ele><time>2024-09-12T03:25:43Z</time></trkpt><trkpt lat="-39.4105862919" lon="-72.7135581058"><ele>89.75</ele><time>2024-09-12T03:25:44Z</time></trkpt><trkpt lat="-39.4106240943" lon="-72.7135681640"><ele>89.73</ele><time>2024-09-12T03:25:45Z</time></trkpt><trkpt lat="-39.4106649980" lon="-72.7135597821"><ele>89.80</ele><time>2024-09-12T03:25:46Z</time></trkpt><trkpt lat="-39.4107059855" lon="-72.7135310322"><ele>89.86</ele><time>2024-09-12T03:25:47Z</time></trkpt><trkpt lat="-39.4107448775" lon="-72.7134877816"><ele>89.82</ele><time>2024-09-12T03:25:48Z</time></trkpt><trkpt lat="-39.4107856974" lon="-72.7134321257"><ele>89.79</ele><time>2024-09-12T03:25:49Z</time></trkpt><trkpt lat="-39.4108287804" lon="-72.7133673336"><ele>89.73</ele><time>2024-09-12T03:25:50Z</time></trkpt><trkpt lat="-39.4115699083" lon="-72.7122275624"><ele>89.42</ele><time>2024-09-12T03:26:08Z</time></trkpt><trkpt lat="-39.4120965432" lon="-72.7114545833"><ele>89.02</ele><time>2024-09-12T03:26:22Z</time></trkpt><trkpt lat="-39.4121290650" lon="-72.7114420105"><ele>89.02</ele><time>2024-09-12T03:26:23Z</time></trkpt><trkpt lat="-39.4121693820" lon="-72.7114511468"><ele>89.00</ele><time>2024-09-12T03:26:24Z</time></trkpt><trkpt lat="-39.4122125488" lon="-72.7114815731"><ele>89.05</ele><time>2024-09-12T03:26:25Z</time></trkpt><trkpt lat="-39.4122594036" lon="-72.7115312777"><ele>89.24</ele><time>2024-09-12T03:26:26Z</time></trkpt><trkpt lat="-39.4123116229" lon="-72.7115928847"><ele>89.36</ele><time>2024-09-12T03:26:27Z</time></trkpt><trkpt lat="-39.4128779043" lon="-72.7122465055"><ele>88.74</ele><time>2024-09-12T03:26:38Z</time></trkpt><trkpt lat="-39.4128992781" lon="-72.7122902591"><ele>88.77</ele><time>2024-09-12T03:26:39Z</time></trkpt><trkpt lat="-39.4129059836" lon="-72.7123333421"><ele>88.64</ele><time>2024-09-12T03:26:40Z</time></trkpt><trkpt lat="-39.4128991943" lon="-72.7123761736"><ele>88.53</ele><time>2024-09-12T03:26:41Z</time></trkpt><trkpt lat="-39.4128808379" lon="-72.7124236152"><ele>88.51</ele><time>2024-09-12T03:26:42Z</time></trkpt><trkpt lat="-39.4128521718" lon="-72.7124744933"><ele>88.47</ele><time>2024-09-12T03:26:43Z</time></trkpt><trkpt lat="-39.4128155429" lon="-72.7125303168"><ele>88.45</ele><time>2024-09-12T03:26:44Z</time></trkpt><trkpt lat="-39.4127712864" lon="-72.7125934325"><ele>88.49</ele><time>2024-09-12T03:26:45Z</time></trkpt><trkpt lat="-39.4122561347" lon="-72.7133546770"><ele>88.75</ele><time>2024-09-12T03:26:57Z</time></trkpt><trkpt lat="-39.4122136384" lon="-72.7133842651"><ele>88.65</ele><time>2024-09-12T03:26:58Z</time></trkpt><trkpt lat="-39.4121672865" lon="-72.7133957483"><ele>88.85</ele><time>2024-09-12T03:26:59Z</time></trkpt><trkpt lat="-39.4121212699" lon="-72.7133848518"><ele>88.88</ele><time>2024-09-12T03:27:00Z</time></trkpt><trkpt lat="-39.4120769296" lon="-72.7133557666"><ele>88.93</ele><time>2024-09-12T03:27:01Z</time></trkpt><trkpt lat="-39.4120309129" lon="-72.7133151982"><ele>89.20</ele><time>2024-09-12T03:27:02Z</time></trkpt><trkpt lat="-39.4119817950" lon="-72.7132679243"><ele>89.27</ele><time>2024-09-12T03:27:03Z</time></trkpt><trkpt lat="-39.4114212971" lon="-72.7125976235"><ele>89.14</ele><time>2024-09-12T03:27:15Z</time></trkpt><trkpt lat="-39.4109821692" lon="-72.7121056896"><ele>89.90</ele><time>2024-09-12T03:27:24Z</time></trkpt><trkpt lat="-39.4105473999" lon="-72.7116293460"><ele>90.09</ele><time>2024-09-12T03:27:35Z</time></trkpt><trkpt lat="-39.4101010635" lon="-72.7111544274"><ele>92.06</ele><time>2024-09-12T03:27:46Z</time></trkpt><trkpt lat="-39.4096620195" lon="-72.7106735576"><ele>91.52</ele><time>2024-09-12T03:27:58Z</time></trkpt><trkpt lat="-39.4091585185" lon="-72.7101335116"><ele>91.23</ele><time>2024-09-12T03:28:11Z</time></trkpt><trkpt lat="-39.4088831730" lon="-72.7097435016"><ele>90.34</ele><time>2024-09-12T03:28:21Z</time></trkpt><trkpt lat="-39.4088987634" lon="-72.7096932102"><ele>90.47</ele><time>2024-09-12T03:28:22Z</time></trkpt><trkpt lat="-39.4089317881" lon="-72.7096349560"><ele>90.49</ele><time>2024-09-12T03:28:23Z</time></trkpt><trkpt lat="-39.4094471075" lon="-72.7088719513"><ele>91.41</ele><time>2024-09-12T03:28:35Z</time></trkpt><trkpt lat="-39.4095933717" lon="-72.7086349111"><ele>91.47</ele><time>2024-09-12T03:28:42Z</time></trkpt><trkpt lat="-39.4095925335" lon="-72.7085993718"><ele>91.62</ele><time>2024-09-12T03:28:43Z</time></trkpt><trkpt lat="-39.4095790386" lon="-72.7085562050"><ele>91.71</ele><time>2024-09-12T03:28:44Z</time></trkpt><trkpt lat="-39.4095502887" lon="-72.7085064165"><ele>91.79</ele><time>2024-09-12T03:28:45Z</time></trkpt><trkpt lat="-39.4095104747" lon="-72.7084521856"><ele>91.93</ele><time>2024-09-12T03:28:46Z</time></trkpt><trkpt lat="-39.4094609376" lon="-72.7083952725"><ele>92.21</ele><time>2024-09-12T03:28:47Z</time></trkpt><trkpt lat="-39.4094079640" lon="-72.7083381079"><ele>92.26</ele><time>2024-09-12T03:28:48Z</time></trkpt><trkpt lat="-39.4087698497" lon="-72.7077863272"><ele>93.77</ele><time>2024-09-12T03:28:58Z</time></trkpt><trkpt lat="-39.4086931553" lon="-72.7077582479"><ele>93.78</ele><time>2024-09-12T03:28:59Z</time></trkpt><trkpt lat="-39.4086146168" lon="-72.7077410650"><ele>93.64</ele><time>2024-09-12T03:29:00Z</time></trkpt><trkpt lat="-39.4085341506" lon="-72.7077334374"><ele>93.57</ele><time>2024-09-12T03:29:01Z</time></trkpt><trkpt lat="-39.4084540196" lon="-72.7077304199"><ele>93.45</ele><time>2024-09-12T03:29:02Z</time></trkpt><trkpt lat="-39.4081595633" lon="-72.7076803800"><ele>92.98</ele><time>2024-09-12T03:29:06Z</time></trkpt><trkpt lat="-39.4080930948" lon="-72.7076438349"><ele>92.96</ele><time>2024-09-12T03:29:07Z</time></trkpt><trkpt lat="-39.4080342539" lon="-72.7075954713"><ele>92.89</ele><time>2024-09-12T03:29:08Z</time></trkpt><trkpt lat="-39.4079858065" lon="-72.7075368818"><ele>92.91</ele><time>2024-09-12T03:29:09Z</time></trkpt><trkpt lat="-39.4079485908" lon="-72.7074672282"><ele>92.86</ele><time>2024-09-12T03:29:10Z</time></trkpt><trkpt lat="-39.4079278037" lon="-72.7073922940"><ele>92.91</ele><time>2024-09-12T03:29:11Z</time></trkpt><trkpt lat="-39.4079216011" lon="-72.7073189523"><ele>92.97</ele><time>2024-09-12T03:29:12Z</time></trkpt><trkpt lat="-39.4079278875" lon="-72.7072580159"><ele>92.87</ele><time>2024-09-12T03:29:13Z</time></trkpt><trkpt lat="-39.4079416338" lon="-72.7072141785"><ele>92.86</ele><time>2024-09-12T03:29:14Z</time></trkpt><trkpt lat="-39.4079542905" lon="-72.7071900386"><ele>92.87</ele><time>2024-09-12T03:29:15Z</time></trkpt><trkpt lat="-39.4079668634" lon="-72.7071736939"><ele>92.84</ele><time>2024-09-12T03:29:16Z</time></trkpt><trkpt lat="-39.4079871476" lon="-72.7071539965"><ele>92.79</ele><time>2024-09-12T03:29:17Z</time></trkpt><trkpt lat="-39.4080167357" lon="-72.7071336284"><ele>92.87</ele><time>2024-09-12T03:29:18Z</time></trkpt><trkpt lat="-39.4080559630" lon="-72.7071206365"><ele>92.87</ele><time>2024-09-12T03:29:19Z</time></trkpt><trkpt lat="-39.4081053324" lon="-72.7071151882"><ele>92.94</ele><time>2024-09-12T03:29:20Z</time></trkpt><trkpt lat="-39.4081642572" lon="-72.7071139310"><ele>93.04</ele><time>2024-09-12T03:29:21Z</time></trkpt><trkpt lat="-39.4082912430" lon="-72.7070980053"><ele>93.36</ele><time>2024-09-12T03:29:23Z</time></trkpt><trkpt lat="-39.4083533529" lon="-72.7070787270"><ele>93.21</ele><time>2024-09-12T03:29:24Z</time></trkpt><trkpt lat="-39.4084679335" lon="-72.7070214786"><ele>93.30</ele><time>2024-09-12T03:29:26Z</time></trkpt><trkpt lat="-39.4085136987" lon="-72.7069675829"><ele>93.33</ele><time>2024-09-12T03:29:27Z</time></trkpt><trkpt lat="-39.4085924886" lon="-72.7068445366"><ele>93.28</ele><time>2024-09-12T03:29:29Z</time></trkpt><trkpt lat="-39.4086137787" lon="-72.7067763079"><ele>93.32</ele><time>2024-09-12T03:29:30Z</time></trkpt><trkpt lat="-39.4086297881" lon="-72.7067030501"><ele>93.42</ele><time>2024-09-12T03:29:31Z</time></trkpt><trkpt lat="-39.4086412713" lon="-72.7066135313"><ele>93.47</ele><time>2024-09-12T03:29:32Z</time></trkpt><trkpt lat="-39.4086489826" lon="-72.7065262757"><ele>93.66</ele><time>2024-09-12T03:29:33Z</time></trkpt><trkpt lat="-39.4086480606" lon="-72.7064403612"><ele>93.62</ele><time>2024-09-12T03:29:34Z</time></trkpt><trkpt lat="-39.4086401816" lon="-72.7063602302"><ele>93.73</ele><time>2024-09-12T03:29:35Z</time></trkpt><trkpt lat="-39.4086261839" lon="-72.7062813565"><ele>93.80</ele><time>2024-09-12T03:29:36Z</time></trkpt><trkpt lat="-39.4086061511" lon="-72.7062065061"><ele>93.67</ele><time>2024-09-12T03:29:37Z</time></trkpt><trkpt lat="-39.4085797481" lon="-72.7061363496"><ele>93.85</ele><time>2024-09-12T03:29:38Z</time></trkpt><trkpt lat="-39.4085516687" lon="-72.7060730662"><ele>93.76</ele><time>2024-09-12T03:29:39Z</time></trkpt><trkpt lat="-39.4085246790" lon="-72.7060152311"><ele>93.73</ele><time>2024-09-12T03:29:40Z</time></trkpt><trkpt lat="-39.4083852880" lon="-72.7057653666"><ele>93.22</ele><time>2024-09-12T03:29:50Z</time></trkpt><trkpt lat="-39.4083858747" lon="-72.7057852317"><ele>92.27</ele><time>2024-09-12T03:30:35Z</time></trkpt></trkseg></trk></gpx>