<?xml version="1.0" encoding="UTF-8" standalone="no" ?><gpx xmlns="http://www.topografix.com/GPX/1/1" xmlns:gpxx="http://www.garmin.com/xmlschemas/GpxExtensions/v3" xmlns:gpxtrkx="http://www.garmin.com/xmlschemas/TrackStatsExtension/v1" xmlns:wptx1="http://www.garmin.com/xmlschemas/WaypointExtension/v1" xmlns:gpxtpx="http://www.garmin.com/xmlschemas/TrackPointExtension/v1" creator="GPSMAP 64sx" version="1.1" xmlns:xsi="http://www.w3.org/2001/XMLSchema-instance" xsi:schemaLocation="http://www.topografix.com/GPX/1/1 http://www.topografix.com/GPX/1/1/gpx.xsd http://www.garmin.com/xmlschemas/GpxExtensions/v3 http://www8.garmin.com/xmlschemas/GpxExtensionsv3.xsd http://www.garmin.com/xmlschemas/TrackStatsExtension/v1 http://www8.garmin.com/xmlschemas/TrackStatsExtension.xsd http://www.garmin.com/xmlschemas/WaypointExtension/v1 http://www8.garmin.com/xmlschemas/WaypointExtensionv1.xsd http://www.garmin.com/xmlschemas/TrackPointExtension/v1 http://www.garmin.com/xmlschemas/TrackPointExtensionv1.xsd"><metadata><link href="http://www.garmin.com"><text>Garmin International</text></link><time>2024-09-27T01:03:17Z</time></metadata><trk><name>GPS HUIS 240926</name><extensions><gpxx:TrackExtension><gpxx:DisplayColor>Cyan</gpxx:DisplayColor></gpxx:TrackExtension><gpxtrkx:TrackStatsExtension><gpxtrkx:Distance>12963.000</gpxtrkx:Distance><gpxtrkx:TotalElapsedTime>1828</gpxtrkx:TotalElapsedTime><gpxtrkx:MovingTime>1814</gpxtrkx:MovingTime><gpxtrkx:StoppedTime>13</gpxtrkx:StoppedTime><gpxtrkx:MovingSpeed>7.147</gpxtrkx:MovingSpeed><gpxtrkx:MaxSpeed>19.114</gpxtrkx:MaxSpeed><gpxtrkx:MaxElevation>287.348</gpxtrkx:MaxElevation><gpxtrkx:MinElevation>232.163</gpxtrkx:MinElevation><gpxtrkx:Ascent>137.000</gpxtrkx:Ascent><gpxtrkx:Descent>144.896</gpxtrkx:Descent><gpxtrkx:AvgAscentRate>0.100</gpxtrkx:AvgAscentRate><gpxtrkx:MaxAscentRate>0.558</gpxtrkx:MaxAscentRate><gpxtrkx:AvgDescentRate>0.119</gpxtrkx:AvgDescentRate><gpxtrkx:MaxDescentRate>-1.505</gpxtrkx:MaxDescentRate></gpxtrkx:TrackStatsExtension></extensions><trkseg><trkpt lat="-39.2732105870" lon="-72.4093212560"><ele>267.18</ele><time>2024-09-27T00:32:49Z</time></trkpt><trkpt lat="-39.2732084915" lon="-72.4093202502"><ele>267.18</ele><time>2024-09-27T00:32:50Z</time></trkpt><trkpt lat="-39.2732011992" lon="-72.4093261175"><ele>266.00</ele><time>2024-09-27T00:32:56Z</time></trkpt><trkpt lat="-39.2734389100" lon="-72.4094121996"><ele>265.26</ele><time>2024-09-27T00:33:06Z</time></trkpt><trkpt lat="-39.2734989244" lon="-72.4094241019"><ele>265.41</ele><time>2024-09-27T00:33:07Z</time></trkpt><trkpt lat="-39.2735757865" lon="-72.4094437994"><ele>265.35</ele><time>2024-09-27T00:33:08Z</time></trkpt><trkpt lat="-39.2736612819" lon="-72.4094688613"><ele>265.39</ele><time>2024-09-27T00:33:09Z</time></trkpt><trkpt lat="-39.2737537343" lon="-72.4094987847"><ele>265.32</ele><time>2024-09-27T00:33:10Z</time></trkpt><trkpt lat="-39.2748334073" lon="-72.4098483939"><ele>265.89</ele><time>2024-09-27T00:33:20Z</time></trkpt><trkpt lat="-39.2763882503" lon="-72.4102348834"><ele>267.30</ele><time>2024-09-27T00:33:31Z</time></trkpt><trkpt lat="-39.2773764767" lon="-72.4098468851"><ele>267.33</ele><time>2024-09-27T00:33:38Z</time></trkpt><trkpt lat="-39.2782815546" lon="-72.4096243456"><ele>264.88</ele><time>2024-09-27T00:33:44Z</time></trkpt><trkpt lat="-39.2784393020" lon="-72.4096572865"><ele>264.86</ele><time>2024-09-27T00:33:45Z</time></trkpt><trkpt lat="-39.2785908468" lon="-72.4097084999"><ele>263.18</ele><time>2024-09-27T00:33:46Z</time></trkpt><trkpt lat="-39.2787358537" lon="-72.4097706936"><ele>262.21</ele><time>2024-09-27T00:33:47Z</time></trkpt><trkpt lat="-39.2788787652" lon="-72.4098659959"><ele>261.10</ele><time>2024-09-27T00:33:48Z</time></trkpt><trkpt lat="-39.2790181562" lon="-72.4099729490"><ele>259.71</ele><time>2024-09-27T00:33:49Z</time></trkpt><trkpt lat="-39.2791513447" lon="-72.4100997671"><ele>258.32</ele><time>2024-09-27T00:33:50Z</time></trkpt><trkpt lat="-39.2792758159" lon="-72.4102356378"><ele>256.93</ele><time>2024-09-27T00:33:51Z</time></trkpt><trkpt lat="-39.2793957610" lon="-72.4103788007"><ele>255.58</ele><time>2024-09-27T00:33:52Z</time></trkpt><trkpt lat="-39.2796340585" lon="-72.4106725864"><ele>252.48</ele><time>2024-09-27T00:33:54Z</time></trkpt><trkpt lat="-39.2799406685" lon="-72.4111009855"><ele>248.24</ele><time>2024-09-27T00:33:57Z</time></trkpt><trkpt lat="-39.2802871764" lon="-72.4115051609"><ele>244.39</ele><time>2024-09-27T00:34:00Z</time></trkpt><trkpt lat="-39.2804342788" lon="-72.4116164725"><ele>242.97</ele><time>2024-09-27T00:34:01Z</time></trkpt><trkpt lat="-39.2805852368" lon="-72.4117056560"><ele>241.46</ele><time>2024-09-27T00:34:02Z</time></trkpt><trkpt lat="-39.2807480972" lon="-72.4117788300"><ele>240.37</ele><time>2024-09-27T00:34:03Z</time></trkpt><trkpt lat="-39.2812256142" lon="-72.4119605497"><ele>236.83</ele><time>2024-09-27T00:34:06Z</time></trkpt><trkpt lat="-39.2818660755" lon="-72.4121901300"><ele>234.41</ele><time>2024-09-27T00:34:10Z</time></trkpt><trkpt lat="-39.2835849524" lon="-72.4127952196"><ele>233.22</ele><time>2024-09-27T00:34:22Z</time></trkpt><trkpt lat="-39.2850484326" lon="-72.4132891651"><ele>236.39</ele><time>2024-09-27T00:34:33Z</time></trkpt><trkpt lat="-39.2868098058" lon="-72.4138829391"><ele>238.80</ele><time>2024-09-27T00:34:47Z</time></trkpt><trkpt lat="-39.2880388442" lon="-72.4143089075"><ele>237.11</ele><time>2024-09-27T00:34:58Z</time></trkpt><trkpt lat="-39.2882267665" lon="-72.4143185467"><ele>236.43</ele><time>2024-09-27T00:35:05Z</time></trkpt><trkpt lat="-39.2887934670" lon="-72.4143307004"><ele>235.39</ele><time>2024-09-27T00:35:14Z</time></trkpt><trkpt lat="-39.2889558244" lon="-72.4143203069"><ele>235.06</ele><time>2024-09-27T00:35:16Z</time></trkpt><trkpt lat="-39.2890424095" lon="-72.4143147748"><ele>234.91</ele><time>2024-09-27T00:35:17Z</time></trkpt><trkpt lat="-39.2891253904" lon="-72.4142965022"><ele>234.64</ele><time>2024-09-27T00:35:18Z</time></trkpt><trkpt lat="-39.2892084550" lon="-72.4142761342"><ele>234.46</ele><time>2024-09-27T00:35:19Z</time></trkpt><trkpt lat="-39.2892946210" lon="-72.4142549280"><ele>234.25</ele><time>2024-09-27T00:35:20Z</time></trkpt><trkpt lat="-39.2893813737" lon="-72.4142280221"><ele>234.08</ele><time>2024-09-27T00:35:21Z</time></trkpt><trkpt lat="-39.2903772276" lon="-72.4136104435"><ele>232.39</ele><time>2024-09-27T00:35:33Z</time></trkpt><trkpt lat="-39.2910655495" lon="-72.4127321877"><ele>233.65</ele><time>2024-09-27T00:35:45Z</time></trkpt><trkpt lat="-39.2912890110" lon="-72.4122742005"><ele>235.07</ele><time>2024-09-27T00:35:51Z</time></trkpt><trkpt lat="-39.2913796194" lon="-72.4120176304"><ele>236.00</ele><time>2024-09-27T00:35:54Z</time></trkpt><trkpt lat="-39.2917327490" lon="-72.4110766780"><ele>239.01</ele><time>2024-09-27T00:36:05Z</time></trkpt><trkpt lat="-39.2920546141" lon="-72.4100974202"><ele>242.27</ele><time>2024-09-27T00:36:16Z</time></trkpt><trkpt lat="-39.2923664209" lon="-72.4092982057"><ele>244.06</ele><time>2024-09-27T00:36:29Z</time></trkpt><trkpt lat="-39.2921582982" lon="-72.4091089424"><ele>243.22</ele><time>2024-09-27T00:36:38Z</time></trkpt><trkpt lat="-39.2915885802" lon="-72.4087979738"><ele>240.18</ele><time>2024-09-27T00:36:49Z</time></trkpt><trkpt lat="-39.2914864887" lon="-72.4087210279"><ele>239.90</ele><time>2024-09-27T00:36:51Z</time></trkpt><trkpt lat="-39.2911047768" lon="-72.4084889330"><ele>239.94</ele><time>2024-09-27T00:36:59Z</time></trkpt><trkpt lat="-39.2910320219" lon="-72.4081684928"><ele>239.84</ele><time>2024-09-27T00:37:06Z</time></trkpt><trkpt lat="-39.2912557349" lon="-72.4075800832"><ele>240.36</ele><time>2024-09-27T00:37:15Z</time></trkpt><trkpt lat="-39.2913969699" lon="-72.4075652473"><ele>240.80</ele><time>2024-09-27T00:37:20Z</time></trkpt><trkpt lat="-39.2919713818" lon="-72.4080063868"><ele>242.22</ele><time>2024-09-27T00:37:34Z</time></trkpt><trkpt lat="-39.2925720289" lon="-72.4084657151"><ele>244.54</ele><time>2024-09-27T00:37:52Z</time></trkpt><trkpt lat="-39.2926815804" lon="-72.4085659627"><ele>245.01</ele><time>2024-09-27T00:37:59Z</time></trkpt><trkpt lat="-39.2926752940" lon="-72.4086440820"><ele>245.07</ele><time>2024-09-27T00:38:02Z</time></trkpt><trkpt lat="-39.2926632240" lon="-72.4086775258"><ele>244.94</ele><time>2024-09-27T00:38:03Z</time></trkpt><trkpt lat="-39.2926495615" lon="-72.4087144062"><ele>244.89</ele><time>2024-09-27T00:38:04Z</time></trkpt><trkpt lat="-39.2924575321" lon="-72.4092945177"><ele>243.27</ele><time>2024-09-27T00:38:19Z</time></trkpt><trkpt lat="-39.2926755454" lon="-72.4094613176"><ele>243.64</ele><time>2024-09-27T00:38:29Z</time></trkpt><trkpt lat="-39.2932017613" lon="-72.4097807519"><ele>245.83</ele><time>2024-09-27T00:38:41Z</time></trkpt><trkpt lat="-39.2936251312" lon="-72.4100374058"><ele>248.90</ele><time>2024-09-27T00:38:52Z</time></trkpt><trkpt lat="-39.2936651967" lon="-72.4100666586"><ele>249.35</ele><time>2024-09-27T00:38:53Z</time></trkpt><trkpt lat="-39.2937059328" lon="-72.4100953247"><ele>249.84</ele><time>2024-09-27T00:38:54Z</time></trkpt><trkpt lat="-39.2939181626" lon="-72.4102262501"><ele>252.89</ele><time>2024-09-27T00:39:00Z</time></trkpt><trkpt lat="-39.2939925101" lon="-72.4102572631"><ele>253.67</ele><time>2024-09-27T00:39:02Z</time></trkpt><trkpt lat="-39.2940329108" lon="-72.4102534913"><ele>254.14</ele><time>2024-09-27T00:39:03Z</time></trkpt><trkpt lat="-39.2940783408" lon="-72.4102441035"><ele>254.38</ele><time>2024-09-27T00:39:04Z</time></trkpt><trkpt lat="-39.2941206694" lon="-72.4102145154"><ele>254.71</ele><time>2024-09-27T00:39:05Z</time></trkpt><trkpt lat="-39.2941568792" lon="-72.4101675767"><ele>255.02</ele><time>2024-09-27T00:39:06Z</time></trkpt><trkpt lat="-39.2941953521" lon="-72.4101270083"><ele>255.60</ele><time>2024-09-27T00:39:07Z</time></trkpt><trkpt lat="-39.2943027243" lon="-72.4099998549"><ele>256.28</ele><time>2024-09-27T00:39:10Z</time></trkpt><trkpt lat="-39.2944458034" lon="-72.4098005332"><ele>257.20</ele><time>2024-09-27T00:39:16Z</time></trkpt><trkpt lat="-39.2944413610" lon="-72.4097546004"><ele>257.35</ele><time>2024-09-27T00:39:17Z</time></trkpt><trkpt lat="-39.2944391817" lon="-72.4097042251"><ele>257.47</ele><time>2024-09-27T00:39:18Z</time></trkpt><trkpt lat="-39.2944203224" lon="-72.4096484017"><ele>257.44</ele><time>2024-09-27T00:39:19Z</time></trkpt><trkpt lat="-39.2943924107" lon="-72.4095871300"><ele>257.25</ele><time>2024-09-27T00:39:20Z</time></trkpt><trkpt lat="-39.2941196635" lon="-72.4091011472"><ele>253.88</ele><time>2024-09-27T00:39:27Z</time></trkpt><trkpt lat="-39.2939610779" lon="-72.4087637756"><ele>250.74</ele><time>2024-09-27T00:39:32Z</time></trkpt><trkpt lat="-39.2939206772" lon="-72.4086766038"><ele>250.03</ele><time>2024-09-27T00:39:34Z</time></trkpt><trkpt lat="-39.2935086228" lon="-72.4083752744"><ele>250.15</ele><time>2024-09-27T00:39:44Z</time></trkpt><trkpt lat="-39.2930202093" lon="-72.4080195464"><ele>247.01</ele><time>2024-09-27T00:39:55Z</time></trkpt><trkpt lat="-39.2930390686" lon="-72.4076587893"><ele>247.56</ele><time>2024-09-27T00:40:05Z</time></trkpt><trkpt lat="-39.2931207083" lon="-72.4074636586"><ele>248.42</ele><time>2024-09-27T00:40:09Z</time></trkpt><trkpt lat="-39.2934445851" lon="-72.4066640250"><ele>251.47</ele><time>2024-09-27T00:40:20Z</time></trkpt><trkpt lat="-39.2936576530" lon="-72.4061488733"><ele>254.24</ele><time>2024-09-27T00:40:30Z</time></trkpt><trkpt lat="-39.2936722375" lon="-72.4061471969"><ele>254.52</ele><time>2024-09-27T00:40:31Z</time></trkpt><trkpt lat="-39.2936667893" lon="-72.4061654694"><ele>254.87</ele><time>2024-09-27T00:40:32Z</time></trkpt><trkpt lat="-39.2936868221" lon="-72.4061984103"><ele>255.21</ele><time>2024-09-27T00:40:33Z</time></trkpt><trkpt lat="-39.2937220261" lon="-72.4062330276"><ele>255.68</ele><time>2024-09-27T00:40:34Z</time></trkpt><trkpt lat="-39.2937597446" lon="-72.4062658008"><ele>255.99</ele><time>2024-09-27T00:40:35Z</time></trkpt><trkpt lat="-39.2943738867" lon="-72.4066922721"><ele>257.72</ele><time>2024-09-27T00:40:48Z</time></trkpt><trkpt lat="-39.2945369147" lon="-72.4068687111"><ele>256.97</ele><time>2024-09-27T00:40:54Z</time></trkpt><trkpt lat="-39.2945318855" lon="-72.4069113750"><ele>256.92</ele><time>2024-09-27T00:40:55Z</time></trkpt><trkpt lat="-39.2945151217" lon="-72.4069614150"><ele>256.90</ele><time>2024-09-27T00:40:56Z</time></trkpt><trkpt lat="-39.2942288797" lon="-72.4077587016"><ele>253.59</ele><time>2024-09-27T00:41:06Z</time></trkpt><trkpt lat="-39.2939670291" lon="-72.4084429163"><ele>250.46</ele><time>2024-09-27T00:41:15Z</time></trkpt><trkpt lat="-39.2939336691" lon="-72.4086383823"><ele>249.33</ele><time>2024-09-27T00:41:19Z</time></trkpt><trkpt lat="-39.2939634249" lon="-72.4086566549"><ele>249.29</ele><time>2024-09-27T00:41:20Z</time></trkpt><trkpt lat="-39.2940033227" lon="-72.4086543918"><ele>249.70</ele><time>2024-09-27T00:41:21Z</time></trkpt><trkpt lat="-39.2940453999" lon="-72.4086403940"><ele>249.89</ele><time>2024-09-27T00:41:22Z</time></trkpt><trkpt lat="-39.2940893210" lon="-72.4086154159"><ele>250.24</ele><time>2024-09-27T00:41:23Z</time></trkpt><trkpt lat="-39.2941317335" lon="-72.4085839000"><ele>251.39</ele><time>2024-09-27T00:41:24Z</time></trkpt><trkpt lat="-39.2941768281" lon="-72.4085486121"><ele>252.02</ele><time>2024-09-27T00:41:25Z</time></trkpt><trkpt lat="-39.2944430374" lon="-72.4083098955"><ele>255.70</ele><time>2024-09-27T00:41:31Z</time></trkpt><trkpt lat="-39.2947959993" lon="-72.4079969153"><ele>258.99</ele><time>2024-09-27T00:41:39Z</time></trkpt><trkpt lat="-39.2952840775" lon="-72.4075253494"><ele>261.72</ele><time>2024-09-27T00:41:51Z</time></trkpt><trkpt lat="-39.2953479476" lon="-72.4074444640"><ele>262.15</ele><time>2024-09-27T00:41:54Z</time></trkpt><trkpt lat="-39.2953593470" lon="-72.4074167199"><ele>262.30</ele><time>2024-09-27T00:41:55Z</time></trkpt><trkpt lat="-39.2953553237" lon="-72.4073857907"><ele>262.40</ele><time>2024-09-27T00:41:56Z</time></trkpt><trkpt lat="-39.2953396495" lon="-72.4073548615"><ele>262.30</ele><time>2024-09-27T00:41:57Z</time></trkpt><trkpt lat="-39.2953071278" lon="-72.4073242676"><ele>262.04</ele><time>2024-09-27T00:41:58Z</time></trkpt><trkpt lat="-39.2952653021" lon="-72.4072922487"><ele>261.77</ele><time>2024-09-27T00:41:59Z</time></trkpt><trkpt lat="-39.2947302014" lon="-72.4069349281"><ele>258.19</ele><time>2024-09-27T00:42:09Z</time></trkpt><trkpt lat="-39.2946224939" lon="-72.4068237841"><ele>256.44</ele><time>2024-09-27T00:42:13Z</time></trkpt><trkpt lat="-39.2946188059" lon="-72.4067928549"><ele>256.20</ele><time>2024-09-27T00:42:14Z</time></trkpt><trkpt lat="-39.2946199793" lon="-72.4067609198"><ele>256.25</ele><time>2024-09-27T00:42:15Z</time></trkpt><trkpt lat="-39.2946264334" lon="-72.4067221116"><ele>256.25</ele><time>2024-09-27T00:42:16Z</time></trkpt><trkpt lat="-39.2946400959" lon="-72.4066752568"><ele>256.92</ele><time>2024-09-27T00:42:17Z</time></trkpt><trkpt lat="-39.2946614698" lon="-72.4066176731"><ele>257.17</ele><time>2024-09-27T00:42:18Z</time></trkpt><trkpt lat="-39.2949098255" lon="-72.4059928861"><ele>260.20</ele><time>2024-09-27T00:42:27Z</time></trkpt><trkpt lat="-39.2950973287" lon="-72.4054348189"><ele>261.35</ele><time>2024-09-27T00:42:35Z</time></trkpt><trkpt lat="-39.2951047048" lon="-72.4053653330"><ele>261.37</ele><time>2024-09-27T00:42:36Z</time></trkpt><trkpt lat="-39.2951094825" lon="-72.4052974395"><ele>261.35</ele><time>2024-09-27T00:42:37Z</time></trkpt><trkpt lat="-39.2951078899" lon="-72.4052281212"><ele>261.38</ele><time>2024-09-27T00:42:38Z</time></trkpt><trkpt lat="-39.2951019388" lon="-72.4051621556"><ele>261.54</ele><time>2024-09-27T00:42:39Z</time></trkpt><trkpt lat="-39.2950900365" lon="-72.4050992914"><ele>261.50</ele><time>2024-09-27T00:42:40Z</time></trkpt><trkpt lat="-39.2950757034" lon="-72.4050382711"><ele>261.64</ele><time>2024-09-27T00:42:41Z</time></trkpt><trkpt lat="-39.2950573470" lon="-72.4049257021"><ele>261.90</ele><time>2024-09-27T00:42:43Z</time></trkpt><trkpt lat="-39.2950458638" lon="-72.4047284760"><ele>261.63</ele><time>2024-09-27T00:42:52Z</time></trkpt><trkpt lat="-39.2950467858" lon="-72.4046621751"><ele>261.96</ele><time>2024-09-27T00:42:58Z</time></trkpt><trkpt lat="-39.2950550839" lon="-72.4046421424"><ele>261.99</ele><time>2024-09-27T00:42:59Z</time></trkpt><trkpt lat="-39.2950965744" lon="-72.4046197627"><ele>262.11</ele><time>2024-09-27T00:43:00Z</time></trkpt><trkpt lat="-39.2951207142" lon="-72.4046093691"><ele>262.23</ele><time>2024-09-27T00:43:01Z</time></trkpt><trkpt lat="-39.2951487098" lon="-72.4046003167"><ele>262.41</ele><time>2024-09-27T00:43:02Z</time></trkpt><trkpt lat="-39.2951811478" lon="-72.4045910966"><ele>262.53</ele><time>2024-09-27T00:43:03Z</time></trkpt><trkpt lat="-39.2957933620" lon="-72.4043879192"><ele>264.17</ele><time>2024-09-27T00:43:14Z</time></trkpt><trkpt lat="-39.2960021552" lon="-72.4043505359"><ele>264.31</ele><time>2024-09-27T00:43:21Z</time></trkpt><trkpt lat="-39.2960223556" lon="-72.4043680541"><ele>264.34</ele><time>2024-09-27T00:43:22Z</time></trkpt><trkpt lat="-39.2960384488" lon="-72.4043958820"><ele>264.49</ele><time>2024-09-27T00:43:23Z</time></trkpt><trkpt lat="-39.2960515246" lon="-72.4044359475"><ele>264.41</ele><time>2024-09-27T00:43:24Z</time></trkpt><trkpt lat="-39.2960641813" lon="-72.4044925254"><ele>264.39</ele><time>2024-09-27T00:43:25Z</time></trkpt><trkpt lat="-39.2960775085" lon="-72.4045590777"><ele>264.37</ele><time>2024-09-27T00:43:26Z</time></trkpt><trkpt lat="-39.2962830327" lon="-72.4055779818"><ele>263.92</ele><time>2024-09-27T00:43:41Z</time></trkpt><trkpt lat="-39.2962604016" lon="-72.4056867789"><ele>263.88</ele><time>2024-09-27T00:43:44Z</time></trkpt><trkpt lat="-39.2962309811" lon="-72.4057057220"><ele>263.94</ele><time>2024-09-27T00:43:45Z</time></trkpt><trkpt lat="-39.2961942684" lon="-72.4057227373"><ele>263.92</ele><time>2024-09-27T00:43:46Z</time></trkpt><trkpt lat="-39.2961561307" lon="-72.4057378247"><ele>263.89</ele><time>2024-09-27T00:43:47Z</time></trkpt><trkpt lat="-39.2961140536" lon="-72.4057451170"><ele>263.85</ele><time>2024-09-27T00:43:48Z</time></trkpt><trkpt lat="-39.2960726470" lon="-72.4057550915"><ele>263.88</ele><time>2024-09-27T00:43:49Z</time></trkpt><trkpt lat="-39.2960295640" lon="-72.4057692569"><ele>263.96</ele><time>2024-09-27T00:43:50Z</time></trkpt><trkpt lat="-39.2958079465" lon="-72.4058630504"><ele>263.69</ele><time>2024-09-27T00:43:55Z</time></trkpt><trkpt lat="-39.2952990811" lon="-72.4060030282"><ele>261.46</ele><time>2024-09-27T00:44:06Z</time></trkpt><trkpt lat="-39.2952820659" lon="-72.4060393218"><ele>261.49</ele><time>2024-09-27T00:44:07Z</time></trkpt><trkpt lat="-39.2952712532" lon="-72.4060848355"><ele>261.57</ele><time>2024-09-27T00:44:08Z</time></trkpt><trkpt lat="-39.2952713370" lon="-72.4061385635"><ele>261.66</ele><time>2024-09-27T00:44:09Z</time></trkpt><trkpt lat="-39.2952787969" lon="-72.4062018469"><ele>261.71</ele><time>2024-09-27T00:44:10Z</time></trkpt><trkpt lat="-39.2952897772" lon="-72.4062663876"><ele>261.84</ele><time>2024-09-27T00:44:11Z</time></trkpt><trkpt lat="-39.2952974048" lon="-72.4063344486"><ele>261.92</ele><time>2024-09-27T00:44:12Z</time></trkpt><trkpt lat="-39.2954880930" lon="-72.4073124491"><ele>262.06</ele><time>2024-09-27T00:44:28Z</time></trkpt><trkpt lat="-39.2955142446" lon="-72.4073477369"><ele>262.03</ele><time>2024-09-27T00:44:29Z</time></trkpt><trkpt lat="-39.2955513764" lon="-72.4073714577"><ele>262.00</ele><time>2024-09-27T00:44:30Z</time></trkpt><trkpt lat="-39.2955952138" lon="-72.4073811807"><ele>262.31</ele><time>2024-09-27T00:44:31Z</time></trkpt><trkpt lat="-39.2956451699" lon="-72.4073811807"><ele>262.36</ele><time>2024-09-27T00:44:32Z</time></trkpt><trkpt lat="-39.2956952099" lon="-72.4073691946"><ele>262.55</ele><time>2024-09-27T00:44:33Z</time></trkpt><trkpt lat="-39.2957475130" lon="-72.4073507544"><ele>262.72</ele><time>2024-09-27T00:44:34Z</time></trkpt><trkpt lat="-39.2964982800" lon="-72.4070865568"><ele>262.78</ele><time>2024-09-27T00:44:46Z</time></trkpt><trkpt lat="-39.2968775611" lon="-72.4069096148"><ele>261.20</ele><time>2024-09-27T00:44:55Z</time></trkpt><trkpt lat="-39.2969678342" lon="-72.4067146517"><ele>262.00</ele><time>2024-09-27T00:45:00Z</time></trkpt><trkpt lat="-39.2969981767" lon="-72.4066789448"><ele>261.94</ele><time>2024-09-27T00:45:01Z</time></trkpt><trkpt lat="-39.2970247474" lon="-72.4066400528"><ele>262.10</ele><time>2024-09-27T00:45:02Z</time></trkpt><trkpt lat="-39.2970742844" lon="-72.4062104803"><ele>263.56</ele><time>2024-09-27T00:45:11Z</time></trkpt><trkpt lat="-39.2970381584" lon="-72.4056805763"><ele>263.71</ele><time>2024-09-27T00:45:21Z</time></trkpt><trkpt lat="-39.2971320357" lon="-72.4056354817"><ele>263.16</ele><time>2024-09-27T00:45:24Z</time></trkpt><trkpt lat="-39.2972538248" lon="-72.4055985175"><ele>262.94</ele><time>2024-09-27T00:45:29Z</time></trkpt><trkpt lat="-39.2972971592" lon="-72.4053907301"><ele>263.42</ele><time>2024-09-27T00:45:34Z</time></trkpt><trkpt lat="-39.2972824071" lon="-72.4048244487"><ele>264.24</ele><time>2024-09-27T00:45:48Z</time></trkpt><trkpt lat="-39.2973381467" lon="-72.4046798609"><ele>264.83</ele><time>2024-09-27T00:45:56Z</time></trkpt><trkpt lat="-39.2973375600" lon="-72.4046423100"><ele>264.95</ele><time>2024-09-27T00:45:57Z</time></trkpt><trkpt lat="-39.2972027790" lon="-72.4039265793"><ele>265.60</ele><time>2024-09-27T00:46:10Z</time></trkpt><trkpt lat="-39.2971818242" lon="-72.4036719371"><ele>265.97</ele><time>2024-09-27T00:46:17Z</time></trkpt><trkpt lat="-39.2972071376" lon="-72.4036581069"><ele>266.02</ele><time>2024-09-27T00:46:18Z</time></trkpt><trkpt lat="-39.2972390726" lon="-72.4036512338"><ele>266.12</ele><time>2024-09-27T00:46:19Z</time></trkpt><trkpt lat="-39.2977883387" lon="-72.4035186321"><ele>267.17</ele><time>2024-09-27T00:46:31Z</time></trkpt><trkpt lat="-39.2978870776" lon="-72.4035309535"><ele>267.16</ele><time>2024-09-27T00:46:34Z</time></trkpt><trkpt lat="-39.2979166657" lon="-72.4035649002"><ele>267.21</ele><time>2024-09-27T00:46:35Z</time></trkpt><trkpt lat="-39.2979407217" lon="-72.4036089890"><ele>267.10</ele><time>2024-09-27T00:46:36Z</time></trkpt><trkpt lat="-39.2984621599" lon="-72.4043284077"><ele>265.50</ele><time>2024-09-27T00:46:48Z</time></trkpt><trkpt lat="-39.2986399401" lon="-72.4045843072"><ele>264.66</ele><time>2024-09-27T00:46:52Z</time></trkpt><trkpt lat="-39.2986950930" lon="-72.4046197627"><ele>264.47</ele><time>2024-09-27T00:46:53Z</time></trkpt><trkpt lat="-39.2987561133" lon="-72.4046360236"><ele>264.21</ele><time>2024-09-27T00:46:54Z</time></trkpt><trkpt lat="-39.2988155410" lon="-72.4046337605"><ele>264.32</ele><time>2024-09-27T00:46:55Z</time></trkpt><trkpt lat="-39.2988739628" lon="-72.4046235345"><ele>264.40</ele><time>2024-09-27T00:46:56Z</time></trkpt><trkpt lat="-39.2989350669" lon="-72.4046090338"><ele>264.22</ele><time>2024-09-27T00:46:57Z</time></trkpt><trkpt lat="-39.2989961710" lon="-72.4045952037"><ele>264.31</ele><time>2024-09-27T00:46:58Z</time></trkpt><trkpt lat="-39.2995052878" lon="-72.4044561479"><ele>263.32</ele><time>2024-09-27T00:47:09Z</time></trkpt><trkpt lat="-39.3002038356" lon="-72.4042409007"><ele>263.85</ele><time>2024-09-27T00:47:20Z</time></trkpt><trkpt lat="-39.3004292250" lon="-72.4041727558"><ele>264.07</ele><time>2024-09-27T00:47:24Z</time></trkpt><trkpt lat="-39.3004598189" lon="-72.4041357078"><ele>264.37</ele><time>2024-09-27T00:47:25Z</time></trkpt><trkpt lat="-39.3004817795" lon="-72.4040919542"><ele>264.64</ele><time>2024-09-27T00:47:26Z</time></trkpt><trkpt lat="-39.3004844617" lon="-72.4040389806"><ele>264.90</ele><time>2024-09-27T00:47:27Z</time></trkpt><trkpt lat="-39.3004740681" lon="-72.4039781280"><ele>265.10</ele><time>2024-09-27T00:47:28Z</time></trkpt><trkpt lat="-39.3004645128" lon="-72.4039202929"><ele>265.38</ele><time>2024-09-27T00:47:29Z</time></trkpt><trkpt lat="-39.3004560471" lon="-72.4038597755"><ele>265.56</ele><time>2024-09-27T00:47:30Z</time></trkpt><trkpt lat="-39.3004165683" lon="-72.4033233337"><ele>269.23</ele><time>2024-09-27T00:47:39Z</time></trkpt><trkpt lat="-39.3003492616" lon="-72.4029103573"><ele>272.26</ele><time>2024-09-27T00:47:46Z</time></trkpt><trkpt lat="-39.3001660332" lon="-72.4028448109"><ele>271.69</ele><time>2024-09-27T00:47:52Z</time></trkpt><trkpt lat="-39.3001159094" lon="-72.4028604012"><ele>271.24</ele><time>2024-09-27T00:47:53Z</time></trkpt><trkpt lat="-39.3000631873" lon="-72.4028810207"><ele>270.64</ele><time>2024-09-27T00:47:54Z</time></trkpt><trkpt lat="-39.2996987421" lon="-72.4029897340"><ele>267.42</ele><time>2024-09-27T00:48:00Z</time></trkpt><trkpt lat="-39.2992073111" lon="-72.4031121098"><ele>266.00</ele><time>2024-09-27T00:48:10Z</time></trkpt><trkpt lat="-39.2985622399" lon="-72.4033199809"><ele>266.69</ele><time>2024-09-27T00:48:22Z</time></trkpt><trkpt lat="-39.2982200906" lon="-72.4033698533"><ele>266.77</ele><time>2024-09-27T00:48:31Z</time></trkpt><trkpt lat="-39.2982035782" lon="-72.4033444561"><ele>266.78</ele><time>2024-09-27T00:48:32Z</time></trkpt><trkpt lat="-39.2981910892" lon="-72.4033121020"><ele>267.11</ele><time>2024-09-27T00:48:33Z</time></trkpt><trkpt lat="-39.2981781811" lon="-72.4032668397"><ele>267.06</ele><time>2024-09-27T00:48:34Z</time></trkpt><trkpt lat="-39.2981693801" lon="-72.4032170512"><ele>267.13</ele><time>2024-09-27T00:48:35Z</time></trkpt><trkpt lat="-39.2981621716" lon="-72.4031618144"><ele>267.25</ele><time>2024-09-27T00:48:36Z</time></trkpt><trkpt lat="-39.2981547117" lon="-72.4031053204"><ele>267.23</ele><time>2024-09-27T00:48:37Z</time></trkpt><trkpt lat="-39.2979997303" lon="-72.4022213649"><ele>268.68</ele><time>2024-09-27T00:48:50Z</time></trkpt><trkpt lat="-39.2980020773" lon="-72.4020383041"><ele>268.92</ele><time>2024-09-27T00:48:54Z</time></trkpt><trkpt lat="-39.2980221100" lon="-72.4020085484"><ele>269.02</ele><time>2024-09-27T00:48:55Z</time></trkpt><trkpt lat="-39.2980524525" lon="-72.4019828998"><ele>268.90</ele><time>2024-09-27T00:48:56Z</time></trkpt><trkpt lat="-39.2980915122" lon="-72.4019624479"><ele>268.93</ele><time>2024-09-27T00:48:57Z</time></trkpt><trkpt lat="-39.2981336731" lon="-72.4019426666"><ele>268.97</ele><time>2024-09-27T00:48:58Z</time></trkpt><trkpt lat="-39.2981807794" lon="-72.4019257352"><ele>268.93</ele><time>2024-09-27T00:48:59Z</time></trkpt><trkpt lat="-39.2982325796" lon="-72.4019110668"><ele>269.03</ele><time>2024-09-27T00:49:00Z</time></trkpt><trkpt lat="-39.2989379168" lon="-72.4017059617"><ele>270.85</ele><time>2024-09-27T00:49:14Z</time></trkpt><trkpt lat="-39.2995501310" lon="-72.4015238229"><ele>274.07</ele><time>2024-09-27T00:49:25Z</time></trkpt><trkpt lat="-39.3000373710" lon="-72.4013502337"><ele>275.29</ele><time>2024-09-27T00:49:36Z</time></trkpt><trkpt lat="-39.3000740837" lon="-72.4011601321"><ele>275.28</ele><time>2024-09-27T00:49:40Z</time></trkpt><trkpt lat="-39.3000642769" lon="-72.4010900594"><ele>275.24</ele><time>2024-09-27T00:49:41Z</time></trkpt><trkpt lat="-39.2998964712" lon="-72.4001531303"><ele>272.78</ele><time>2024-09-27T00:49:51Z</time></trkpt><trkpt lat="-39.2998678889" lon="-72.4000905175"><ele>272.71</ele><time>2024-09-27T00:49:52Z</time></trkpt><trkpt lat="-39.2998351995" lon="-72.4000450876"><ele>272.70</ele><time>2024-09-27T00:49:53Z</time></trkpt><trkpt lat="-39.2997795437" lon="-72.4000552297"><ele>272.79</ele><time>2024-09-27T00:49:54Z</time></trkpt><trkpt lat="-39.2997178528" lon="-72.4000656232"><ele>272.82</ele><time>2024-09-27T00:49:55Z</time></trkpt><trkpt lat="-39.2996474449" lon="-72.4000827223"><ele>272.66</ele><time>2024-09-27T00:49:56Z</time></trkpt><trkpt lat="-39.2995684035" lon="-72.4001091253"><ele>272.40</ele><time>2024-09-27T00:49:57Z</time></trkpt><trkpt lat="-39.2988505773" lon="-72.4002963770"><ele>269.88</ele><time>2024-09-27T00:50:07Z</time></trkpt><trkpt lat="-39.2984588910" lon="-72.4004788511"><ele>269.91</ele><time>2024-09-27T00:50:15Z</time></trkpt><trkpt lat="-39.2975245602" lon="-72.4006676115"><ele>266.83</ele><time>2024-09-27T00:50:27Z</time></trkpt><trkpt lat="-39.2971700057" lon="-72.4006819446"><ele>263.00</ele><time>2024-09-27T00:50:31Z</time></trkpt><trkpt lat="-39.2966252659" lon="-72.4006739818"><ele>261.26</ele><time>2024-09-27T00:50:41Z</time></trkpt><trkpt lat="-39.2966003716" lon="-72.4006442260"><ele>261.30</ele><time>2024-09-27T00:50:42Z</time></trkpt><trkpt lat="-39.2965760641" lon="-72.4005968682"><ele>261.32</ele><time>2024-09-27T00:50:43Z</time></trkpt><trkpt lat="-39.2965507507" lon="-72.4005376920"><ele>261.49</ele><time>2024-09-27T00:50:44Z</time></trkpt><trkpt lat="-39.2965269461" lon="-72.4004708882"><ele>261.55</ele><time>2024-09-27T00:50:45Z</time></trkpt><trkpt lat="-39.2965030577" lon="-72.4003931880"><ele>261.38</ele><time>2024-09-27T00:50:46Z</time></trkpt><trkpt lat="-39.2964696977" lon="-72.4003183376"><ele>261.53</ele><time>2024-09-27T00:50:47Z</time></trkpt><trkpt lat="-39.2964326497" lon="-72.4002413079"><ele>261.51</ele><time>2024-09-27T00:50:48Z</time></trkpt><trkpt lat="-39.2963914946" lon="-72.4001746718"><ele>261.50</ele><time>2024-09-27T00:50:49Z</time></trkpt><trkpt lat="-39.2963408679" lon="-72.4001095444"><ele>261.54</ele><time>2024-09-27T00:50:50Z</time></trkpt><trkpt lat="-39.2962787580" lon="-72.4000525475"><ele>261.54</ele><time>2024-09-27T00:50:51Z</time></trkpt><trkpt lat="-39.2962097749" lon="-72.3999993224"><ele>261.59</ele><time>2024-09-27T00:50:52Z</time></trkpt><trkpt lat="-39.2961328290" lon="-72.3999409843"><ele>261.60</ele><time>2024-09-27T00:50:53Z</time></trkpt><trkpt lat="-39.2960563861" lon="-72.3999054451"><ele>261.76</ele><time>2024-09-27T00:50:54Z</time></trkpt><trkpt lat="-39.2959890794" lon="-72.3998802155"><ele>261.98</ele><time>2024-09-27T00:50:55Z</time></trkpt><trkpt lat="-39.2959283944" lon="-72.3998643737"><ele>262.14</ele><time>2024-09-27T00:50:56Z</time></trkpt><trkpt lat="-39.2958778515" lon="-72.3998585064"><ele>262.44</ele><time>2024-09-27T00:50:57Z</time></trkpt><trkpt lat="-39.2958427314" lon="-72.3998498730"><ele>262.66</ele><time>2024-09-27T00:50:58Z</time></trkpt><trkpt lat="-39.2957688030" lon="-72.3998278286"><ele>262.44</ele><time>2024-09-27T00:51:01Z</time></trkpt><trkpt lat="-39.2957514524" lon="-72.3998155072"><ele>262.51</ele><time>2024-09-27T00:51:02Z</time></trkpt><trkpt lat="-39.2957391310" lon="-72.3997975700"><ele>262.65</ele><time>2024-09-27T00:51:03Z</time></trkpt><trkpt lat="-39.2957298271" lon="-72.3997716699"><ele>262.57</ele><time>2024-09-27T00:51:04Z</time></trkpt><trkpt lat="-39.2957181763" lon="-72.3997407407"><ele>262.62</ele><time>2024-09-27T00:51:05Z</time></trkpt><trkpt lat="-39.2957081180" lon="-72.3997027706"><ele>262.57</ele><time>2024-09-27T00:51:06Z</time></trkpt><trkpt lat="-39.2956973054" lon="-72.3996477015"><ele>262.82</ele><time>2024-09-27T00:51:07Z</time></trkpt><trkpt lat="-39.2955371272" lon="-72.3987983633"><ele>264.45</ele><time>2024-09-27T00:51:17Z</time></trkpt><trkpt lat="-39.2952264939" lon="-72.3972976673"><ele>267.53</ele><time>2024-09-27T00:51:31Z</time></trkpt><trkpt lat="-39.2951021064" lon="-72.3965292983"><ele>270.76</ele><time>2024-09-27T00:51:38Z</time></trkpt><trkpt lat="-39.2951112427" lon="-72.3953455221"><ele>273.84</ele><time>2024-09-27T00:51:48Z</time></trkpt><trkpt lat="-39.2951176967" lon="-72.3935750127"><ele>276.55</ele><time>2024-09-27T00:52:02Z</time></trkpt><trkpt lat="-39.2948872782" lon="-72.3919994663"><ele>276.47</ele><time>2024-09-27T00:52:14Z</time></trkpt><trkpt lat="-39.2942402791" lon="-72.3904738761"><ele>276.16</ele><time>2024-09-27T00:52:28Z</time></trkpt><trkpt lat="-39.2935544718" lon="-72.3891270719"><ele>277.02</ele><time>2024-09-27T00:52:41Z</time></trkpt><trkpt lat="-39.2935413960" lon="-72.3890034389"><ele>277.14</ele><time>2024-09-27T00:52:42Z</time></trkpt><trkpt lat="-39.2935475148" lon="-72.3888747767"><ele>277.23</ele><time>2024-09-27T00:52:43Z</time></trkpt><trkpt lat="-39.2935554776" lon="-72.3887593579"><ele>277.23</ele><time>2024-09-27T00:52:44Z</time></trkpt><trkpt lat="-39.2935730796" lon="-72.3886435200"><ele>277.27</ele><time>2024-09-27T00:52:45Z</time></trkpt><trkpt lat="-39.2935946211" lon="-72.3885227367"><ele>277.32</ele><time>2024-09-27T00:52:46Z</time></trkpt><trkpt lat="-39.2939581443" lon="-72.3866928834"><ele>278.25</ele><time>2024-09-27T00:53:01Z</time></trkpt><trkpt lat="-39.2942686100" lon="-72.3850553110"><ele>281.56</ele><time>2024-09-27T00:53:15Z</time></trkpt><trkpt lat="-39.2944747210" lon="-72.3838743009"><ele>284.89</ele><time>2024-09-27T00:53:25Z</time></trkpt><trkpt lat="-39.2947299499" lon="-72.3823472019"><ele>287.23</ele><time>2024-09-27T00:53:38Z</time></trkpt><trkpt lat="-39.2949791439" lon="-72.3808603361"><ele>285.65</ele><time>2024-09-27T00:53:50Z</time></trkpt><trkpt lat="-39.2952495441" lon="-72.3794944212"><ele>282.34</ele><time>2024-09-27T00:54:01Z</time></trkpt><trkpt lat="-39.2954414058" lon="-72.3787149042"><ele>279.95</ele><time>2024-09-27T00:54:07Z</time></trkpt><trkpt lat="-39.2958873231" lon="-72.3765991442"><ele>277.75</ele><time>2024-09-27T00:54:24Z</time></trkpt><trkpt lat="-39.2963609844" lon="-72.3745009862"><ele>275.28</ele><time>2024-09-27T00:54:41Z</time></trkpt><trkpt lat="-39.2965862062" lon="-72.3735157773"><ele>273.15</ele><time>2024-09-27T00:54:51Z</time></trkpt><trkpt lat="-39.2965789139" lon="-72.3734816629"><ele>273.23</ele><time>2024-09-27T00:54:52Z</time></trkpt><trkpt lat="-39.2965607252" lon="-72.3734589480"><ele>273.23</ele><time>2024-09-27T00:54:53Z</time></trkpt><trkpt lat="-39.2965420336" lon="-72.3734498117"><ele>273.35</ele><time>2024-09-27T00:54:54Z</time></trkpt><trkpt lat="-39.2965318915" lon="-72.3734483030"><ele>273.49</ele><time>2024-09-27T00:54:55Z</time></trkpt><trkpt lat="-39.2965956777" lon="-72.3735089041"><ele>273.51</ele><time>2024-09-27T00:55:05Z</time></trkpt><trkpt lat="-39.2965864576" lon="-72.3735725228"><ele>273.56</ele><time>2024-09-27T00:55:06Z</time></trkpt><trkpt lat="-39.2964231782" lon="-72.3744434025"><ele>275.01</ele><time>2024-09-27T00:55:15Z</time></trkpt><trkpt lat="-39.2961135507" lon="-72.3759456910"><ele>276.74</ele><time>2024-09-27T00:55:28Z</time></trkpt><trkpt lat="-39.2957680486" lon="-72.3775928188"><ele>277.72</ele><time>2024-09-27T00:55:43Z</time></trkpt><trkpt lat="-39.2954397295" lon="-72.3791319877"><ele>280.94</ele><time>2024-09-27T00:55:57Z</time></trkpt><trkpt lat="-39.2951957323" lon="-72.3803918716"><ele>284.31</ele><time>2024-09-27T00:56:09Z</time></trkpt><trkpt lat="-39.2949031200" lon="-72.3820705153"><ele>286.19</ele><time>2024-09-27T00:56:24Z</time></trkpt><trkpt lat="-39.2945841886" lon="-72.3838307988"><ele>284.11</ele><time>2024-09-27T00:56:39Z</time></trkpt><trkpt lat="-39.2943400238" lon="-72.3850621842"><ele>280.98</ele><time>2024-09-27T00:56:50Z</time></trkpt><trkpt lat="-39.2941199150" lon="-72.3861715291"><ele>277.87</ele><time>2024-09-27T00:56:59Z</time></trkpt><trkpt lat="-39.2937158234" lon="-72.3880573735"><ele>276.49</ele><time>2024-09-27T00:57:16Z</time></trkpt><trkpt lat="-39.2935366184" lon="-72.3890562449"><ele>275.87</ele><time>2024-09-27T00:57:25Z</time></trkpt><trkpt lat="-39.2935481016" lon="-72.3891676404"><ele>275.80</ele><time>2024-09-27T00:57:26Z</time></trkpt><trkpt lat="-39.2935703974" lon="-72.3892758507"><ele>275.98</ele><time>2024-09-27T00:57:27Z</time></trkpt><trkpt lat="-39.2936056852" lon="-72.3893821333"><ele>275.87</ele><time>2024-09-27T00:57:28Z</time></trkpt><trkpt lat="-39.2936494388" lon="-72.3894832190"><ele>275.70</ele><time>2024-09-27T00:57:29Z</time></trkpt><trkpt lat="-39.2936961260" lon="-72.3895826284"><ele>275.82</ele><time>2024-09-27T00:57:30Z</time></trkpt><trkpt lat="-39.2944368348" lon="-72.3909531534"><ele>275.47</ele><time>2024-09-27T00:57:44Z</time></trkpt><trkpt lat="-39.2949897051" lon="-72.3926844355"><ele>275.66</ele><time>2024-09-27T00:58:02Z</time></trkpt><trkpt lat="-39.2950977478" lon="-72.3939694650"><ele>275.40</ele><time>2024-09-27T00:58:15Z</time></trkpt><trkpt lat="-39.2950623762" lon="-72.3955250625"><ele>272.33</ele><time>2024-09-27T00:58:31Z</time></trkpt><trkpt lat="-39.2950131744" lon="-72.3964954354"><ele>269.48</ele><time>2024-09-27T00:58:43Z</time></trkpt><trkpt lat="-39.2949826643" lon="-72.3964958545"><ele>269.42</ele><time>2024-09-27T00:58:44Z</time></trkpt><trkpt lat="-39.2949411739" lon="-72.3964857962"><ele>269.44</ele><time>2024-09-27T00:58:45Z</time></trkpt><trkpt lat="-39.2948933970" lon="-72.3964695353"><ele>269.37</ele><time>2024-09-27T00:58:46Z</time></trkpt><trkpt lat="-39.2948463745" lon="-72.3964531906"><ele>269.37</ele><time>2024-09-27T00:58:47Z</time></trkpt><trkpt lat="-39.2947930656" lon="-72.3964356724"><ele>269.66</ele><time>2024-09-27T00:58:48Z</time></trkpt><trkpt lat="-39.2947385833" lon="-72.3964108620"><ele>269.57</ele><time>2024-09-27T00:58:49Z</time></trkpt><trkpt lat="-39.2941130418" lon="-72.3961490951"><ele>271.37</ele><time>2024-09-27T00:59:00Z</time></trkpt><trkpt lat="-39.2936210241" lon="-72.3959542159"><ele>273.62</ele><time>2024-09-27T00:59:09Z</time></trkpt><trkpt lat="-39.2927982565" lon="-72.3956049420"><ele>275.99</ele><time>2024-09-27T00:59:23Z</time></trkpt><trkpt lat="-39.2922820151" lon="-72.3954051174"><ele>278.29</ele><time>2024-09-27T00:59:35Z</time></trkpt><trkpt lat="-39.2922386806" lon="-72.3954255693"><ele>279.02</ele><time>2024-09-27T00:59:37Z</time></trkpt><trkpt lat="-39.2922259402" lon="-72.3954521399"><ele>279.30</ele><time>2024-09-27T00:59:38Z</time></trkpt><trkpt lat="-39.2922173068" lon="-72.3954682332"><ele>279.46</ele><time>2024-09-27T00:59:39Z</time></trkpt><trkpt lat="-39.2921999563" lon="-72.3954468593"><ele>279.19</ele><time>2024-09-27T00:59:43Z</time></trkpt><trkpt lat="-39.2921950109" lon="-72.3953832407"><ele>279.08</ele><time>2024-09-27T00:59:47Z</time></trkpt><trkpt lat="-39.2922100984" lon="-72.3953856714"><ele>279.33</ele><time>2024-09-27T00:59:49Z</time></trkpt><trkpt lat="-39.2922177259" lon="-72.3954032734"><ele>279.20</ele><time>2024-09-27T00:59:50Z</time></trkpt><trkpt lat="-39.2922286224" lon="-72.3954216298"><ele>278.94</ele><time>2024-09-27T00:59:51Z</time></trkpt><trkpt lat="-39.2922544386" lon="-72.3954347055"><ele>278.50</ele><time>2024-09-27T00:59:52Z</time></trkpt><trkpt lat="-39.2922833562" lon="-72.3954393994"><ele>278.06</ele><time>2024-09-27T00:59:53Z</time></trkpt><trkpt lat="-39.2923251819" lon="-72.3954483680"><ele>277.58</ele><time>2024-09-27T00:59:54Z</time></trkpt><trkpt lat="-39.2928296886" lon="-72.3956708238"><ele>275.57</ele><time>2024-09-27T01:00:06Z</time></trkpt><trkpt lat="-39.2937600799" lon="-72.3960794415"><ele>272.63</ele><time>2024-09-27T01:00:21Z</time></trkpt><trkpt lat="-39.2947226577" lon="-72.3964612372"><ele>269.55</ele><time>2024-09-27T01:00:35Z</time></trkpt><trkpt lat="-39.2949704267" lon="-72.3966142908"><ele>268.86</ele><time>2024-09-27T01:00:43Z</time></trkpt><trkpt lat="-39.2951460276" lon="-72.3972553387"><ele>266.84</ele><time>2024-09-27T01:00:51Z</time></trkpt><trkpt lat="-39.2953590117" lon="-72.3981525376"><ele>263.80</ele><time>2024-09-27T01:00:59Z</time></trkpt><trkpt lat="-39.2956803739" lon="-72.3996218853"><ele>261.45</ele><time>2024-09-27T01:01:13Z</time></trkpt><trkpt lat="-39.2956955452" lon="-72.3997155949"><ele>261.17</ele><time>2024-09-27T01:01:14Z</time></trkpt><trkpt lat="-39.2957002390" lon="-72.3998075444"><ele>260.84</ele><time>2024-09-27T01:01:15Z</time></trkpt><trkpt lat="-39.2956935335" lon="-72.3998994101"><ele>260.71</ele><time>2024-09-27T01:01:16Z</time></trkpt><trkpt lat="-39.2956776079" lon="-72.3999937903"><ele>260.44</ele><time>2024-09-27T01:01:17Z</time></trkpt><trkpt lat="-39.2956531327" lon="-72.4000894278"><ele>260.08</ele><time>2024-09-27T01:01:18Z</time></trkpt><trkpt lat="-39.2956209462" lon="-72.4001931958"><ele>259.71</ele><time>2024-09-27T01:01:19Z</time></trkpt><trkpt lat="-39.2955351155" lon="-72.4013938196"><ele>256.74</ele><time>2024-09-27T01:01:30Z</time></trkpt><trkpt lat="-39.2957874946" lon="-72.4027189147"><ele>259.29</ele><time>2024-09-27T01:01:42Z</time></trkpt><trkpt lat="-39.2960623372" lon="-72.4041250627"><ele>260.81</ele><time>2024-09-27T01:01:57Z</time></trkpt><trkpt lat="-39.2960415501" lon="-72.4042202812"><ele>260.83</ele><time>2024-09-27T01:01:59Z</time></trkpt><trkpt lat="-39.2960359342" lon="-72.4042441696"><ele>260.66</ele><time>2024-09-27T01:02:00Z</time></trkpt><trkpt lat="-39.2960024904" lon="-72.4042682257"><ele>260.61</ele><time>2024-09-27T01:02:01Z</time></trkpt><trkpt lat="-39.2959721480" lon="-72.4042745121"><ele>260.49</ele><time>2024-09-27T01:02:02Z</time></trkpt><trkpt lat="-39.2959468346" lon="-72.4042792898"><ele>260.36</ele><time>2024-09-27T01:02:03Z</time></trkpt><trkpt lat="-39.2958589084" lon="-72.4042951316"><ele>260.04</ele><time>2024-09-27T01:02:11Z</time></trkpt><trkpt lat="-39.2958300747" lon="-72.4042925332"><ele>260.14</ele><time>2024-09-27T01:02:33Z</time></trkpt><trkpt lat="-39.2957676295" lon="-72.4042803794"><ele>260.18</ele><time>2024-09-27T01:02:59Z</time></trkpt></trkseg></trk></gpx>