<?xml version="1.0" encoding="UTF-8" standalone="no" ?><gpx xmlns="http://www.topografix.com/GPX/1/1" xmlns:gpxx="http://www.garmin.com/xmlschemas/GpxExtensions/v3" xmlns:gpxtrkx="http://www.garmin.com/xmlschemas/TrackStatsExtension/v1" xmlns:wptx1="http://www.garmin.com/xmlschemas/WaypointExtension/v1" xmlns:gpxtpx="http://www.garmin.com/xmlschemas/TrackPointExtension/v1" creator="GPSMAP 64sx" version="1.1" xmlns:xsi="http://www.w3.org/2001/XMLSchema-instance" xsi:schemaLocation="http://www.topografix.com/GPX/1/1 http://www.topografix.com/GPX/1/1/gpx.xsd http://www.garmin.com/xmlschemas/GpxExtensions/v3 http://www8.garmin.com/xmlschemas/GpxExtensionsv3.xsd http://www.garmin.com/xmlschemas/TrackStatsExtension/v1 http://www8.garmin.com/xmlschemas/TrackStatsExtension.xsd http://www.garmin.com/xmlschemas/WaypointExtension/v1 http://www8.garmin.com/xmlschemas/WaypointExtensionv1.xsd http://www.garmin.com/xmlschemas/TrackPointExtension/v1 http://www.garmin.com/xmlschemas/TrackPointExtensionv1.xsd"><metadata><link href="http://www.garmin.com"><text>Garmin International</text></link><time>2024-09-16T03:01:09Z</time></metadata><trk><name>GPS LAPAZ 240915</name><extensions><gpxx:TrackExtension><gpxx:DisplayColor>Cyan</gpxx:DisplayColor></gpxx:TrackExtension><gpxtrkx:TrackStatsExtension><gpxtrkx:Distance>3717.000</gpxtrkx:Distance><gpxtrkx:TotalElapsedTime>687</gpxtrkx:TotalElapsedTime><gpxtrkx:MovingTime>545</gpxtrkx:MovingTime><gpxtrkx:StoppedTime>142</gpxtrkx:StoppedTime><gpxtrkx:MovingSpeed>6.821</gpxtrkx:MovingSpeed><gpxtrkx:MaxSpeed>12.779</gpxtrkx:MaxSpeed><gpxtrkx:MaxElevation>101.452</gpxtrkx:MaxElevation><gpxtrkx:MinElevation>92.045</gpxtrkx:MinElevation><gpxtrkx:Ascent>12.000</gpxtrkx:Ascent><gpxtrkx:Descent>11.994</gpxtrkx:Descent><gpxtrkx:AvgAscentRate>0.067</gpxtrkx:AvgAscentRate><gpxtrkx:MaxAscentRate>0.294</gpxtrkx:MaxAscentRate><gpxtrkx:AvgDescentRate>0.053</gpxtrkx:AvgDescentRate><gpxtrkx:MaxDescentRate>-0.293</gpxtrkx:MaxDescentRate></gpxtrkx:TrackStatsExtension></extensions><trkseg><trkpt lat="-39.4059150573" lon="-72.7030021884"><ele>96.90</ele><time>2024-09-16T02:49:42Z</time></trkpt><trkpt lat="-39.4059149735" lon="-72.7030020207"><ele>96.90</ele><time>2024-09-16T02:49:43Z</time></trkpt><trkpt lat="-39.4059344195" lon="-72.7030212991"><ele>96.71</ele><time>2024-09-16T02:49:50Z</time></trkpt><trkpt lat="-39.4059757423" lon="-72.7030776255"><ele>96.07</ele><time>2024-09-16T02:49:52Z</time></trkpt><trkpt lat="-39.4060051627" lon="-72.7031155117"><ele>96.16</ele><time>2024-09-16T02:49:53Z</time></trkpt><trkpt lat="-39.4064356573" lon="-72.7036915161"><ele>97.48</ele><time>2024-09-16T02:50:02Z</time></trkpt><trkpt lat="-39.4070095662" lon="-72.7046284452"><ele>100.64</ele><time>2024-09-16T02:50:11Z</time></trkpt><trkpt lat="-39.4070549123" lon="-72.7047643997"><ele>101.30</ele><time>2024-09-16T02:50:12Z</time></trkpt><trkpt lat="-39.4070915412" lon="-72.7049049642"><ele>101.43</ele><time>2024-09-16T02:50:13Z</time></trkpt><trkpt lat="-39.4072933774" lon="-72.7056693099"><ele>98.39</ele><time>2024-09-16T02:50:19Z</time></trkpt><trkpt lat="-39.4076393824" lon="-72.7063685283"><ele>97.27</ele><time>2024-09-16T02:50:26Z</time></trkpt><trkpt lat="-39.4076641090" lon="-72.7064593043"><ele>97.36</ele><time>2024-09-16T02:50:27Z</time></trkpt><trkpt lat="-39.4076786935" lon="-72.7065608092"><ele>97.40</ele><time>2024-09-16T02:50:28Z</time></trkpt><trkpt lat="-39.4076942839" lon="-72.7066688519"><ele>97.44</ele><time>2024-09-16T02:50:29Z</time></trkpt><trkpt lat="-39.4077198487" lon="-72.7067768946"><ele>97.46</ele><time>2024-09-16T02:50:30Z</time></trkpt><trkpt lat="-39.4077588245" lon="-72.7068799920"><ele>97.60</ele><time>2024-09-16T02:50:31Z</time></trkpt><trkpt lat="-39.4078035839" lon="-72.7069792338"><ele>97.61</ele><time>2024-09-16T02:50:32Z</time></trkpt><trkpt lat="-39.4078432303" lon="-72.7070777211"><ele>97.66</ele><time>2024-09-16T02:50:33Z</time></trkpt><trkpt lat="-39.4078692142" lon="-72.7071813215"><ele>97.81</ele><time>2024-09-16T02:50:34Z</time></trkpt><trkpt lat="-39.4078863133" lon="-72.7072896995"><ele>97.89</ele><time>2024-09-16T02:50:35Z</time></trkpt><trkpt lat="-39.4079033285" lon="-72.7073970716"><ele>97.77</ele><time>2024-09-16T02:50:36Z</time></trkpt><trkpt lat="-39.4079287257" lon="-72.7074990794"><ele>97.53</ele><time>2024-09-16T02:50:37Z</time></trkpt><trkpt lat="-39.4079636782" lon="-72.7075927053"><ele>97.42</ele><time>2024-09-16T02:50:38Z</time></trkpt><trkpt lat="-39.4080093596" lon="-72.7076756023"><ele>97.35</ele><time>2024-09-16T02:50:39Z</time></trkpt><trkpt lat="-39.4080661051" lon="-72.7077432442"><ele>97.17</ele><time>2024-09-16T02:50:40Z</time></trkpt><trkpt lat="-39.4081325736" lon="-72.7077914402"><ele>97.17</ele><time>2024-09-16T02:50:41Z</time></trkpt><trkpt lat="-39.4082020596" lon="-72.7078206092"><ele>96.93</ele><time>2024-09-16T02:50:42Z</time></trkpt><trkpt lat="-39.4082709588" lon="-72.7078351099"><ele>96.76</ele><time>2024-09-16T02:50:43Z</time></trkpt><trkpt lat="-39.4083384331" lon="-72.7078377921"><ele>96.64</ele><time>2024-09-16T02:50:44Z</time></trkpt><trkpt lat="-39.4084054045" lon="-72.7078345232"><ele>96.53</ele><time>2024-09-16T02:50:45Z</time></trkpt><trkpt lat="-39.4087820034" lon="-72.7078694757"><ele>96.45</ele><time>2024-09-16T02:50:51Z</time></trkpt><trkpt lat="-39.4088343065" lon="-72.7078926098"><ele>96.43</ele><time>2024-09-16T02:50:52Z</time></trkpt><trkpt lat="-39.4088855200" lon="-72.7079207730"><ele>96.49</ele><time>2024-09-16T02:50:53Z</time></trkpt><trkpt lat="-39.4089382421" lon="-72.7079584915"><ele>96.60</ele><time>2024-09-16T02:50:54Z</time></trkpt><trkpt lat="-39.4089915510" lon="-72.7080027480"><ele>96.65</ele><time>2024-09-16T02:50:55Z</time></trkpt><trkpt lat="-39.4095996581" lon="-72.7086065803"><ele>95.11</ele><time>2024-09-16T02:51:09Z</time></trkpt><trkpt lat="-39.4096064474" lon="-72.7086415328"><ele>95.16</ele><time>2024-09-16T02:51:10Z</time></trkpt><trkpt lat="-39.4096014183" lon="-72.7086784970"><ele>95.23</ele><time>2024-09-16T02:51:11Z</time></trkpt><trkpt lat="-39.4095849898" lon="-72.7087176405"><ele>95.00</ele><time>2024-09-16T02:51:12Z</time></trkpt><trkpt lat="-39.4095600117" lon="-72.7087571193"><ele>94.89</ele><time>2024-09-16T02:51:13Z</time></trkpt><trkpt lat="-39.4095303398" lon="-72.7087993640"><ele>94.65</ele><time>2024-09-16T02:51:14Z</time></trkpt><trkpt lat="-39.4090268388" lon="-72.7095810603"><ele>94.48</ele><time>2024-09-16T02:51:27Z</time></trkpt><trkpt lat="-39.4089474622" lon="-72.7096888516"><ele>94.24</ele><time>2024-09-16T02:51:29Z</time></trkpt><trkpt lat="-39.4089109171" lon="-72.7097220439"><ele>93.94</ele><time>2024-09-16T02:51:30Z</time></trkpt><trkpt lat="-39.4088681694" lon="-72.7097322699"><ele>93.94</ele><time>2024-09-16T02:51:31Z</time></trkpt><trkpt lat="-39.4088266790" lon="-72.7097215410"><ele>94.16</ele><time>2024-09-16T02:51:32Z</time></trkpt><trkpt lat="-39.4087826740" lon="-72.7096948028"><ele>94.10</ele><time>2024-09-16T02:51:33Z</time></trkpt><trkpt lat="-39.4087397587" lon="-72.7096572518"><ele>94.05</ele><time>2024-09-16T02:51:34Z</time></trkpt><trkpt lat="-39.4086970948" lon="-72.7096131630"><ele>94.32</ele><time>2024-09-16T02:51:35Z</time></trkpt><trkpt lat="-39.4080941007" lon="-72.7089022938"><ele>94.85</ele><time>2024-09-16T02:51:48Z</time></trkpt><trkpt lat="-39.4074080419" lon="-72.7081262972"><ele>93.79</ele><time>2024-09-16T02:52:03Z</time></trkpt><trkpt lat="-39.4072938804" lon="-72.7080081962"><ele>93.63</ele><time>2024-09-16T02:52:06Z</time></trkpt><trkpt lat="-39.4071151782" lon="-72.7082350943"><ele>93.55</ele><time>2024-09-16T02:52:13Z</time></trkpt><trkpt lat="-39.4071287569" lon="-72.7083740663"><ele>93.51</ele><time>2024-09-16T02:52:15Z</time></trkpt><trkpt lat="-39.4072142523" lon="-72.7094221395"><ele>94.12</ele><time>2024-09-16T02:52:30Z</time></trkpt><trkpt lat="-39.4076089561" lon="-72.7102313284"><ele>94.43</ele><time>2024-09-16T02:52:43Z</time></trkpt><trkpt lat="-39.4081623293" lon="-72.7108392678"><ele>94.50</ele><time>2024-09-16T02:52:55Z</time></trkpt><trkpt lat="-39.4087721966" lon="-72.7115153521"><ele>95.39</ele><time>2024-09-16T02:53:07Z</time></trkpt><trkpt lat="-39.4089457858" lon="-72.7117207926"><ele>94.60</ele><time>2024-09-16T02:53:11Z</time></trkpt><trkpt lat="-39.4089858513" lon="-72.7117456868"><ele>94.40</ele><time>2024-09-16T02:53:12Z</time></trkpt><trkpt lat="-39.4090275932" lon="-72.7117509674"><ele>94.30</ele><time>2024-09-16T02:53:13Z</time></trkpt><trkpt lat="-39.4090692513" lon="-72.7117325272"><ele>94.42</ele><time>2024-09-16T02:53:14Z</time></trkpt><trkpt lat="-39.4091036171" lon="-72.7116946410"><ele>94.28</ele><time>2024-09-16T02:53:15Z</time></trkpt><trkpt lat="-39.4091369770" lon="-72.7116442658"><ele>94.49</ele><time>2024-09-16T02:53:16Z</time></trkpt><trkpt lat="-39.4091710914" lon="-72.7115884423"><ele>94.48</ele><time>2024-09-16T02:53:17Z</time></trkpt><trkpt lat="-39.4096988160" lon="-72.7107119467"><ele>94.85</ele><time>2024-09-16T02:53:31Z</time></trkpt><trkpt lat="-39.4102333300" lon="-72.7098916937"><ele>94.16</ele><time>2024-09-16T02:53:43Z</time></trkpt><trkpt lat="-39.4103514310" lon="-72.7096858341"><ele>93.92</ele><time>2024-09-16T02:53:46Z</time></trkpt><trkpt lat="-39.4103845395" lon="-72.7096394822"><ele>93.79</ele><time>2024-09-16T02:53:47Z</time></trkpt><trkpt lat="-39.4104178995" lon="-72.7096165158"><ele>93.92</ele><time>2024-09-16T02:53:48Z</time></trkpt><trkpt lat="-39.4104533549" lon="-72.7096127439"><ele>93.80</ele><time>2024-09-16T02:53:49Z</time></trkpt><trkpt lat="-39.4104895648" lon="-72.7096362971"><ele>93.79</ele><time>2024-09-16T02:53:50Z</time></trkpt><trkpt lat="-39.4105365034" lon="-72.7096782904"><ele>93.74</ele><time>2024-09-16T02:53:51Z</time></trkpt><trkpt lat="-39.4111317862" lon="-72.7103135549"><ele>94.00</ele><time>2024-09-16T02:54:01Z</time></trkpt><trkpt lat="-39.4111814070" lon="-72.7103662770"><ele>93.77</ele><time>2024-09-16T02:54:02Z</time></trkpt><trkpt lat="-39.4112168625" lon="-72.7104233578"><ele>93.73</ele><time>2024-09-16T02:54:03Z</time></trkpt><trkpt lat="-39.4112328719" lon="-72.7104832884"><ele>93.66</ele><time>2024-09-16T02:54:04Z</time></trkpt><trkpt lat="-39.4112234004" lon="-72.7105425484"><ele>93.65</ele><time>2024-09-16T02:54:05Z</time></trkpt><trkpt lat="-39.4111951534" lon="-72.7106005512"><ele>93.29</ele><time>2024-09-16T02:54:06Z</time></trkpt><trkpt lat="-39.4111587759" lon="-72.7106586378"><ele>93.03</ele><time>2024-09-16T02:54:07Z</time></trkpt><trkpt lat="-39.4106105994" lon="-72.7115191240"><ele>94.18</ele><time>2024-09-16T02:54:21Z</time></trkpt><trkpt lat="-39.4099443220" lon="-72.7125354297"><ele>94.32</ele><time>2024-09-16T02:54:37Z</time></trkpt><trkpt lat="-39.4099149015" lon="-72.7125880681"><ele>94.37</ele><time>2024-09-16T02:54:38Z</time></trkpt><trkpt lat="-39.4098948687" lon="-72.7126341686"><ele>94.26</ele><time>2024-09-16T02:54:39Z</time></trkpt><trkpt lat="-39.4098835532" lon="-72.7126756590"><ele>94.02</ele><time>2024-09-16T02:54:40Z</time></trkpt><trkpt lat="-39.4098881632" lon="-72.7127193287"><ele>94.09</ele><time>2024-09-16T02:54:41Z</time></trkpt><trkpt lat="-39.4099072739" lon="-72.7127635852"><ele>93.96</ele><time>2024-09-16T02:54:42Z</time></trkpt><trkpt lat="-39.4099386223" lon="-72.7128107753"><ele>94.08</ele><time>2024-09-16T02:54:43Z</time></trkpt><trkpt lat="-39.4099771790" lon="-72.7128617372"><ele>94.12</ele><time>2024-09-16T02:54:44Z</time></trkpt><trkpt lat="-39.4100203458" lon="-72.7129164711"><ele>94.09</ele><time>2024-09-16T02:54:45Z</time></trkpt><trkpt lat="-39.4105518423" lon="-72.7135022823"><ele>93.62</ele><time>2024-09-16T02:54:55Z</time></trkpt><trkpt lat="-39.4106072467" lon="-72.7135311998"><ele>93.46</ele><time>2024-09-16T02:54:56Z</time></trkpt><trkpt lat="-39.4106619805" lon="-72.7135358099"><ele>93.36</ele><time>2024-09-16T02:54:57Z</time></trkpt><trkpt lat="-39.4107126910" lon="-72.7135122567"><ele>93.28</ele><time>2024-09-16T02:54:58Z</time></trkpt><trkpt lat="-39.4107570313" lon="-72.7134674974"><ele>93.21</ele><time>2024-09-16T02:54:59Z</time></trkpt><trkpt lat="-39.4107975997" lon="-72.7134109195"><ele>93.11</ele><time>2024-09-16T02:55:00Z</time></trkpt><trkpt lat="-39.4108399283" lon="-72.7133453730"><ele>93.32</ele><time>2024-09-16T02:55:01Z</time></trkpt><trkpt lat="-39.4114415813" lon="-72.7124448214"><ele>93.41</ele><time>2024-09-16T02:55:13Z</time></trkpt><trkpt lat="-39.4120922685" lon="-72.7115161065"><ele>92.77</ele><time>2024-09-16T02:55:27Z</time></trkpt><trkpt lat="-39.4121545460" lon="-72.7114656474"><ele>92.87</ele><time>2024-09-16T02:55:29Z</time></trkpt><trkpt lat="-39.4121885765" lon="-72.7114731912"><ele>92.79</ele><time>2024-09-16T02:55:30Z</time></trkpt><trkpt lat="-39.4122243673" lon="-72.7114985045"><ele>92.75</ele><time>2024-09-16T02:55:31Z</time></trkpt><trkpt lat="-39.4122652709" lon="-72.7115392406"><ele>92.81</ele><time>2024-09-16T02:55:32Z</time></trkpt><trkpt lat="-39.4123126287" lon="-72.7115923818"><ele>92.76</ele><time>2024-09-16T02:55:33Z</time></trkpt><trkpt lat="-39.4128872920" lon="-72.7122714836"><ele>92.64</ele><time>2024-09-16T02:55:43Z</time></trkpt><trkpt lat="-39.4129052293" lon="-72.7123326715"><ele>92.69</ele><time>2024-09-16T02:55:44Z</time></trkpt><trkpt lat="-39.4128988590" lon="-72.7123922668"><ele>92.62</ele><time>2024-09-16T02:55:45Z</time></trkpt><trkpt lat="-39.4128728751" lon="-72.7124506049"><ele>92.52</ele><time>2024-09-16T02:55:46Z</time></trkpt><trkpt lat="-39.4128337316" lon="-72.7125139721"><ele>92.22</ele><time>2024-09-16T02:55:47Z</time></trkpt><trkpt lat="-39.4127867091" lon="-72.7125831228"><ele>92.30</ele><time>2024-09-16T02:55:48Z</time></trkpt><trkpt lat="-39.4122347608" lon="-72.7133414336"><ele>92.45</ele><time>2024-09-16T02:56:00Z</time></trkpt><trkpt lat="-39.4121840503" lon="-72.7133596223"><ele>92.55</ele><time>2024-09-16T02:56:01Z</time></trkpt><trkpt lat="-39.4121316634" lon="-72.7133541740"><ele>92.76</ele><time>2024-09-16T02:56:02Z</time></trkpt><trkpt lat="-39.4120798633" lon="-72.7133249212"><ele>92.74</ele><time>2024-09-16T02:56:03Z</time></trkpt><trkpt lat="-39.4120298233" lon="-72.7132821735"><ele>92.76</ele><time>2024-09-16T02:56:04Z</time></trkpt><trkpt lat="-39.4119794481" lon="-72.7132282779"><ele>92.95</ele><time>2024-09-16T02:56:05Z</time></trkpt><trkpt lat="-39.4119283184" lon="-72.7131700236"><ele>93.10</ele><time>2024-09-16T02:56:06Z</time></trkpt><trkpt lat="-39.4112793077" lon="-72.7124112099"><ele>92.95</ele><time>2024-09-16T02:56:19Z</time></trkpt><trkpt lat="-39.4105650857" lon="-72.7115918789"><ele>93.86</ele><time>2024-09-16T02:56:32Z</time></trkpt><trkpt lat="-39.4101266284" lon="-72.7111288626"><ele>95.58</ele><time>2024-09-16T02:56:41Z</time></trkpt><trkpt lat="-39.4096501172" lon="-72.7106080949"><ele>94.82</ele><time>2024-09-16T02:56:52Z</time></trkpt><trkpt lat="-39.4090860151" lon="-72.7100091241"><ele>94.80</ele><time>2024-09-16T02:57:03Z</time></trkpt><trkpt lat="-39.4089237414" lon="-72.7098142449"><ele>94.55</ele><time>2024-09-16T02:57:07Z</time></trkpt><trkpt lat="-39.4089087378" lon="-72.7097719163"><ele>94.32</ele><time>2024-09-16T02:57:08Z</time></trkpt><trkpt lat="-39.4089097437" lon="-72.7097273245"><ele>94.26</ele><time>2024-09-16T02:57:09Z</time></trkpt><trkpt lat="-39.4089213107" lon="-72.7096823137"><ele>94.29</ele><time>2024-09-16T02:57:10Z</time></trkpt><trkpt lat="-39.4089436065" lon="-72.7096372191"><ele>94.30</ele><time>2024-09-16T02:57:11Z</time></trkpt><trkpt lat="-39.4089752063" lon="-72.7095887717"><ele>94.40</ele><time>2024-09-16T02:57:12Z</time></trkpt><trkpt lat="-39.4090092368" lon="-72.7095363010"><ele>94.43</ele><time>2024-09-16T02:57:13Z</time></trkpt><trkpt lat="-39.4094860833" lon="-72.7088231687"><ele>95.06</ele><time>2024-09-16T02:57:24Z</time></trkpt><trkpt lat="-39.4095952157" lon="-72.7085631620"><ele>95.27</ele><time>2024-09-16T02:57:30Z</time></trkpt><trkpt lat="-39.4095724169" lon="-72.7085262816"><ele>95.43</ele><time>2024-09-16T02:57:31Z</time></trkpt><trkpt lat="-39.4095451757" lon="-72.7084987052"><ele>95.50</ele><time>2024-09-16T02:57:32Z</time></trkpt><trkpt lat="-39.4095044397" lon="-72.7084626630"><ele>94.82</ele><time>2024-09-16T02:57:40Z</time></trkpt><trkpt lat="-39.4094620273" lon="-72.7084189095"><ele>95.40</ele><time>2024-09-16T02:57:50Z</time></trkpt><trkpt lat="-39.4093818963" lon="-72.7083355095"><ele>95.68</ele><time>2024-09-16T02:57:53Z</time></trkpt><trkpt lat="-39.4089674111" lon="-72.7078921068"><ele>97.15</ele><time>2024-09-16T02:58:02Z</time></trkpt><trkpt lat="-39.4089001045" lon="-72.7078420669"><ele>97.38</ele><time>2024-09-16T02:58:03Z</time></trkpt><trkpt lat="-39.4088254217" lon="-72.7077992354"><ele>97.53</ele><time>2024-09-16T02:58:04Z</time></trkpt><trkpt lat="-39.4087426085" lon="-72.7077668812"><ele>97.77</ele><time>2024-09-16T02:58:05Z</time></trkpt><trkpt lat="-39.4086528383" lon="-72.7077450044"><ele>97.74</ele><time>2024-09-16T02:58:06Z</time></trkpt><trkpt lat="-39.4085573684" lon="-72.7077294979"><ele>97.78</ele><time>2024-09-16T02:58:07Z</time></trkpt><trkpt lat="-39.4084624853" lon="-72.7077191882"><ele>97.71</ele><time>2024-09-16T02:58:08Z</time></trkpt><trkpt lat="-39.4081982877" lon="-72.7076846547"><ele>97.09</ele><time>2024-09-16T02:58:11Z</time></trkpt><trkpt lat="-39.4081197493" lon="-72.7076519653"><ele>97.15</ele><time>2024-09-16T02:58:12Z</time></trkpt><trkpt lat="-39.4080497604" lon="-72.7075987402"><ele>97.17</ele><time>2024-09-16T02:58:13Z</time></trkpt><trkpt lat="-39.4079926796" lon="-72.7075249795"><ele>97.24</ele><time>2024-09-16T02:58:14Z</time></trkpt><trkpt lat="-39.4079514407" lon="-72.7074364666"><ele>97.28</ele><time>2024-09-16T02:58:15Z</time></trkpt><trkpt lat="-39.4079313241" lon="-72.7073415834"><ele>97.24</ele><time>2024-09-16T02:58:16Z</time></trkpt><trkpt lat="-39.4079358503" lon="-72.7072538249"><ele>97.40</ele><time>2024-09-16T02:58:17Z</time></trkpt><trkpt lat="-39.4079620857" lon="-72.7071824111"><ele>97.36</ele><time>2024-09-16T02:58:18Z</time></trkpt><trkpt lat="-39.4080138020" lon="-72.7071337122"><ele>97.51</ele><time>2024-09-16T02:58:19Z</time></trkpt><trkpt lat="-39.4080784265" lon="-72.7071150206"><ele>97.39</ele><time>2024-09-16T02:58:20Z</time></trkpt><trkpt lat="-39.4081544504" lon="-72.7071112487"><ele>97.50</ele><time>2024-09-16T02:58:21Z</time></trkpt><trkpt lat="-39.4082346652" lon="-72.7071026154"><ele>97.47</ele><time>2024-09-16T02:58:22Z</time></trkpt><trkpt lat="-39.4083159696" lon="-72.7070818283"><ele>97.58</ele><time>2024-09-16T02:58:23Z</time></trkpt><trkpt lat="-39.4083966035" lon="-72.7070438582"><ele>97.75</ele><time>2024-09-16T02:58:24Z</time></trkpt><trkpt lat="-39.4084737170" lon="-72.7069970034"><ele>97.85</ele><time>2024-09-16T02:58:25Z</time></trkpt><trkpt lat="-39.4086911436" lon="-72.7067773137"><ele>98.10</ele><time>2024-09-16T02:58:28Z</time></trkpt><trkpt lat="-39.4087049738" lon="-72.7066313848"><ele>98.26</ele><time>2024-09-16T02:58:29Z</time></trkpt><trkpt lat="-39.4086949155" lon="-72.7064918261"><ele>98.21</ele><time>2024-09-16T02:58:30Z</time></trkpt><trkpt lat="-39.4086753018" lon="-72.7063622419"><ele>98.20</ele><time>2024-09-16T02:58:31Z</time></trkpt><trkpt lat="-39.4086396787" lon="-72.7062426321"><ele>98.24</ele><time>2024-09-16T02:58:32Z</time></trkpt><trkpt lat="-39.4085938297" lon="-72.7061303146"><ele>98.31</ele><time>2024-09-16T02:58:33Z</time></trkpt><trkpt lat="-39.4085448794" lon="-72.7060240321"><ele>98.33</ele><time>2024-09-16T02:58:34Z</time></trkpt><trkpt lat="-39.4084997848" lon="-72.7059281431"><ele>98.51</ele><time>2024-09-16T02:58:35Z</time></trkpt><trkpt lat="-39.4083494972" lon="-72.7056661248"><ele>97.44</ele><time>2024-09-16T02:58:41Z</time></trkpt><trkpt lat="-39.4083367568" lon="-72.7056393027"><ele>97.33</ele><time>2024-09-16T02:59:13Z</time></trkpt><trkpt lat="-39.4083417859" lon="-72.7056273166"><ele>97.35</ele><time>2024-09-16T02:59:46Z</time></trkpt><trkpt lat="-39.4083341584" lon="-72.7056342736"><ele>98.41</ele><time>2024-09-16T03:00:20Z</time></trkpt><trkpt lat="-39.4083182327" lon="-72.7056631073"><ele>98.33</ele><time>2024-09-16T03:00:54Z</time></trkpt></trkseg></trk></gpx>