<?xml version="1.0" encoding="UTF-8" standalone="no" ?><gpx xmlns="http://www.topografix.com/GPX/1/1" xmlns:gpxx="http://www.garmin.com/xmlschemas/GpxExtensions/v3" xmlns:gpxtrkx="http://www.garmin.com/xmlschemas/TrackStatsExtension/v1" xmlns:wptx1="http://www.garmin.com/xmlschemas/WaypointExtension/v1" xmlns:gpxtpx="http://www.garmin.com/xmlschemas/TrackPointExtension/v1" creator="GPSMAP 64sx" version="1.1" xmlns:xsi="http://www.w3.org/2001/XMLSchema-instance" xsi:schemaLocation="http://www.topografix.com/GPX/1/1 http://www.topografix.com/GPX/1/1/gpx.xsd http://www.garmin.com/xmlschemas/GpxExtensions/v3 http://www8.garmin.com/xmlschemas/GpxExtensionsv3.xsd http://www.garmin.com/xmlschemas/TrackStatsExtension/v1 http://www8.garmin.com/xmlschemas/TrackStatsExtension.xsd http://www.garmin.com/xmlschemas/WaypointExtension/v1 http://www8.garmin.com/xmlschemas/WaypointExtensionv1.xsd http://www.garmin.com/xmlschemas/TrackPointExtension/v1 http://www.garmin.com/xmlschemas/TrackPointExtensionv1.xsd"><metadata><link href="http://www.garmin.com"><text>Garmin International</text></link><time>2024-09-13T00:11:28Z</time></metadata><trk><name>GPS HUIS 240912</name><extensions><gpxx:TrackExtension><gpxx:DisplayColor>Cyan</gpxx:DisplayColor></gpxx:TrackExtension><gpxtrkx:TrackStatsExtension><gpxtrkx:Distance>13172.000</gpxtrkx:Distance><gpxtrkx:TotalElapsedTime>1800</gpxtrkx:TotalElapsedTime><gpxtrkx:MovingTime>1625</gpxtrkx:MovingTime><gpxtrkx:StoppedTime>173</gpxtrkx:StoppedTime><gpxtrkx:MovingSpeed>8.106</gpxtrkx:MovingSpeed><gpxtrkx:MaxSpeed>21.629</gpxtrkx:MaxSpeed><gpxtrkx:MaxElevation>284.866</gpxtrkx:MaxElevation><gpxtrkx:MinElevation>224.476</gpxtrkx:MinElevation><gpxtrkx:Ascent>140.000</gpxtrkx:Ascent><gpxtrkx:Descent>137.466</gpxtrkx:Descent><gpxtrkx:AvgAscentRate>0.128</gpxtrkx:AvgAscentRate><gpxtrkx:MaxAscentRate>0.693</gpxtrkx:MaxAscentRate><gpxtrkx:AvgDescentRate>0.119</gpxtrkx:AvgDescentRate><gpxtrkx:MaxDescentRate>-1.578</gpxtrkx:MaxDescentRate></gpxtrkx:TrackStatsExtension></extensions><trkseg><trkpt lat="-39.2731857765" lon="-72.4093614053"><ele>259.00</ele><time>2024-09-12T23:41:28Z</time></trkpt><trkpt lat="-39.2731851898" lon="-72.4093630817"><ele>259.00</ele><time>2024-09-12T23:41:29Z</time></trkpt><trkpt lat="-39.2731827591" lon="-72.4093625788"><ele>257.12</ele><time>2024-09-12T23:41:34Z</time></trkpt><trkpt lat="-39.2731886264" lon="-72.4093382712"><ele>257.31</ele><time>2024-09-12T23:42:07Z</time></trkpt><trkpt lat="-39.2732000258" lon="-72.4093483295"><ele>257.24</ele><time>2024-09-12T23:42:40Z</time></trkpt><trkpt lat="-39.2732085753" lon="-72.4093475752"><ele>257.31</ele><time>2024-09-12T23:43:04Z</time></trkpt><trkpt lat="-39.2732333858" lon="-72.4093486648"><ele>257.25</ele><time>2024-09-12T23:43:08Z</time></trkpt><trkpt lat="-39.2732997704" lon="-72.4093600642"><ele>257.37</ele><time>2024-09-12T23:43:11Z</time></trkpt><trkpt lat="-39.2738126591" lon="-72.4094974436"><ele>257.40</ele><time>2024-09-12T23:43:22Z</time></trkpt><trkpt lat="-39.2746257037" lon="-72.4097733758"><ele>258.34</ele><time>2024-09-12T23:43:30Z</time></trkpt><trkpt lat="-39.2761367094" lon="-72.4102208856"><ele>259.42</ele><time>2024-09-12T23:43:40Z</time></trkpt><trkpt lat="-39.2764769308" lon="-72.4102114979"><ele>259.68</ele><time>2024-09-12T23:43:42Z</time></trkpt><trkpt lat="-39.2766432278" lon="-72.4101710971"><ele>259.69</ele><time>2024-09-12T23:43:43Z</time></trkpt><trkpt lat="-39.2768069264" lon="-72.4101149384"><ele>259.58</ele><time>2024-09-12T23:43:44Z</time></trkpt><trkpt lat="-39.2779089790" lon="-72.4097142834"><ele>258.96</ele><time>2024-09-12T23:43:51Z</time></trkpt><trkpt lat="-39.2780726776" lon="-72.4096971843"><ele>258.54</ele><time>2024-09-12T23:43:52Z</time></trkpt><trkpt lat="-39.2782385554" lon="-72.4096970167"><ele>258.01</ele><time>2024-09-12T23:43:53Z</time></trkpt><trkpt lat="-39.2784063611" lon="-72.4097207375"><ele>257.29</ele><time>2024-09-12T23:43:54Z</time></trkpt><trkpt lat="-39.2785764299" lon="-72.4097615574"><ele>256.35</ele><time>2024-09-12T23:43:55Z</time></trkpt><trkpt lat="-39.2787415534" lon="-72.4098406825"><ele>255.41</ele><time>2024-09-12T23:43:56Z</time></trkpt><trkpt lat="-39.2788999714" lon="-72.4099485576"><ele>254.22</ele><time>2024-09-12T23:43:57Z</time></trkpt><trkpt lat="-39.2790536117" lon="-72.4100814946"><ele>251.52</ele><time>2024-09-12T23:43:58Z</time></trkpt><trkpt lat="-39.2791982833" lon="-72.4102275912"><ele>251.33</ele><time>2024-09-12T23:43:59Z</time></trkpt><trkpt lat="-39.2793315556" lon="-72.4103967380"><ele>248.49</ele><time>2024-09-12T23:44:00Z</time></trkpt><trkpt lat="-39.2794654984" lon="-72.4105742667"><ele>246.57</ele><time>2024-09-12T23:44:01Z</time></trkpt><trkpt lat="-39.2797255050" lon="-72.4109299108"><ele>243.22</ele><time>2024-09-12T23:44:03Z</time></trkpt><trkpt lat="-39.2799917143" lon="-72.4112750776"><ele>240.17</ele><time>2024-09-12T23:44:05Z</time></trkpt><trkpt lat="-39.2802850809" lon="-72.4115748145"><ele>236.86</ele><time>2024-09-12T23:44:07Z</time></trkpt><trkpt lat="-39.2804516293" lon="-72.4116903171"><ele>235.04</ele><time>2024-09-12T23:44:08Z</time></trkpt><trkpt lat="-39.2806328461" lon="-72.4117836077"><ele>233.44</ele><time>2024-09-12T23:44:09Z</time></trkpt><trkpt lat="-39.2811860517" lon="-72.4119886290"><ele>229.22</ele><time>2024-09-12T23:44:12Z</time></trkpt><trkpt lat="-39.2818860244" lon="-72.4122155271"><ele>226.99</ele><time>2024-09-12T23:44:16Z</time></trkpt><trkpt lat="-39.2837950028" lon="-72.4128559884"><ele>226.61</ele><time>2024-09-12T23:44:27Z</time></trkpt><trkpt lat="-39.2852714751" lon="-72.4133790191"><ele>229.81</ele><time>2024-09-12T23:44:36Z</time></trkpt><trkpt lat="-39.2874221876" lon="-72.4141069036"><ele>231.22</ele><time>2024-09-12T23:44:50Z</time></trkpt><trkpt lat="-39.2880053166" lon="-72.4143128470"><ele>229.16</ele><time>2024-09-12T23:44:56Z</time></trkpt><trkpt lat="-39.2884114198" lon="-72.4143825844"><ele>228.25</ele><time>2024-09-12T23:45:04Z</time></trkpt><trkpt lat="-39.2884795647" lon="-72.4143850990"><ele>228.13</ele><time>2024-09-12T23:45:05Z</time></trkpt><trkpt lat="-39.2893975507" lon="-72.4142645672"><ele>226.45</ele><time>2024-09-12T23:45:16Z</time></trkpt><trkpt lat="-39.2904373258" lon="-72.4136357568"><ele>224.56</ele><time>2024-09-12T23:45:29Z</time></trkpt><trkpt lat="-39.2910910305" lon="-72.4127586745"><ele>226.35</ele><time>2024-09-12T23:45:41Z</time></trkpt><trkpt lat="-39.2914728262" lon="-72.4117680173"><ele>229.63</ele><time>2024-09-12T23:45:52Z</time></trkpt><trkpt lat="-39.2917893268" lon="-72.4108546413"><ele>232.80</ele><time>2024-09-12T23:46:02Z</time></trkpt><trkpt lat="-39.2920975294" lon="-72.4099601246"><ele>236.05</ele><time>2024-09-12T23:46:12Z</time></trkpt><trkpt lat="-39.2922630720" lon="-72.4094348308"><ele>237.07</ele><time>2024-09-12T23:46:19Z</time></trkpt><trkpt lat="-39.2922725435" lon="-72.4093857128"><ele>237.06</ele><time>2024-09-12T23:46:20Z</time></trkpt><trkpt lat="-39.2922720406" lon="-72.4093442224"><ele>237.10</ele><time>2024-09-12T23:46:21Z</time></trkpt><trkpt lat="-39.2922660895" lon="-72.4093070906"><ele>237.15</ele><time>2024-09-12T23:46:22Z</time></trkpt><trkpt lat="-39.2922545224" lon="-72.4092729762"><ele>237.12</ele><time>2024-09-12T23:46:23Z</time></trkpt><trkpt lat="-39.2922390997" lon="-72.4092470761"><ele>237.14</ele><time>2024-09-12T23:46:24Z</time></trkpt><trkpt lat="-39.2921543587" lon="-72.4091511872"><ele>236.84</ele><time>2024-09-12T23:46:27Z</time></trkpt><trkpt lat="-39.2913833074" lon="-72.4087550584"><ele>233.44</ele><time>2024-09-12T23:46:39Z</time></trkpt><trkpt lat="-39.2910400685" lon="-72.4085626099"><ele>233.20</ele><time>2024-09-12T23:46:46Z</time></trkpt><trkpt lat="-39.2909581773" lon="-72.4082653876"><ele>233.34</ele><time>2024-09-12T23:46:52Z</time></trkpt><trkpt lat="-39.2911444232" lon="-72.4077216536"><ele>233.82</ele><time>2024-09-12T23:47:00Z</time></trkpt><trkpt lat="-39.2913805414" lon="-72.4076570291"><ele>234.42</ele><time>2024-09-12T23:47:06Z</time></trkpt><trkpt lat="-39.2916433141" lon="-72.4078474659"><ele>235.96</ele><time>2024-09-12T23:47:11Z</time></trkpt><trkpt lat="-39.2924141139" lon="-72.4084538128"><ele>237.43</ele><time>2024-09-12T23:47:25Z</time></trkpt><trkpt lat="-39.2925751302" lon="-72.4086235464"><ele>238.92</ele><time>2024-09-12T23:47:33Z</time></trkpt><trkpt lat="-39.2925776448" lon="-72.4086544756"><ele>238.75</ele><time>2024-09-12T23:47:34Z</time></trkpt><trkpt lat="-39.2925714422" lon="-72.4086879194"><ele>238.55</ele><time>2024-09-12T23:47:35Z</time></trkpt><trkpt lat="-39.2924195621" lon="-72.4091872294"><ele>237.29</ele><time>2024-09-12T23:47:42Z</time></trkpt><trkpt lat="-39.2924111802" lon="-72.4092475791"><ele>237.02</ele><time>2024-09-12T23:47:43Z</time></trkpt><trkpt lat="-39.2924116831" lon="-72.4092920031"><ele>237.22</ele><time>2024-09-12T23:47:44Z</time></trkpt><trkpt lat="-39.2924240045" lon="-72.4093370140"><ele>236.80</ele><time>2024-09-12T23:47:46Z</time></trkpt><trkpt lat="-39.2924504075" lon="-72.4093414564"><ele>236.35</ele><time>2024-09-12T23:47:47Z</time></trkpt><trkpt lat="-39.2924778163" lon="-72.4093444739"><ele>236.94</ele><time>2024-09-12T23:47:48Z</time></trkpt><trkpt lat="-39.2925048899" lon="-72.4093620759"><ele>237.57</ele><time>2024-09-12T23:47:49Z</time></trkpt><trkpt lat="-39.2925453745" lon="-72.4093914125"><ele>237.13</ele><time>2024-09-12T23:47:50Z</time></trkpt><trkpt lat="-39.2925978452" lon="-72.4094265327"><ele>237.04</ele><time>2024-09-12T23:47:51Z</time></trkpt><trkpt lat="-39.2926833406" lon="-72.4094611499"><ele>237.06</ele><time>2024-09-12T23:47:52Z</time></trkpt><trkpt lat="-39.2933613528" lon="-72.4098683428"><ele>240.33</ele><time>2024-09-12T23:48:03Z</time></trkpt><trkpt lat="-39.2937431484" lon="-72.4101016950"><ele>243.91</ele><time>2024-09-12T23:48:11Z</time></trkpt><trkpt lat="-39.2939941864" lon="-72.4102331232"><ele>247.05</ele><time>2024-09-12T23:48:16Z</time></trkpt><trkpt lat="-39.2940448970" lon="-72.4102389067"><ele>247.46</ele><time>2024-09-12T23:48:17Z</time></trkpt><trkpt lat="-39.2940928414" lon="-72.4102228973"><ele>247.91</ele><time>2024-09-12T23:48:18Z</time></trkpt><trkpt lat="-39.2941381875" lon="-72.4101869389"><ele>248.34</ele><time>2024-09-12T23:48:19Z</time></trkpt><trkpt lat="-39.2941821087" lon="-72.4101415090"><ele>248.74</ele><time>2024-09-12T23:48:20Z</time></trkpt><trkpt lat="-39.2942256108" lon="-72.4100958277"><ele>249.02</ele><time>2024-09-12T23:48:21Z</time></trkpt><trkpt lat="-39.2944546882" lon="-72.4098457117"><ele>250.68</ele><time>2024-09-12T23:48:28Z</time></trkpt><trkpt lat="-39.2944530118" lon="-72.4097976834"><ele>250.94</ele><time>2024-09-12T23:48:29Z</time></trkpt><trkpt lat="-39.2944341525" lon="-72.4097416084"><ele>251.09</ele><time>2024-09-12T23:48:30Z</time></trkpt><trkpt lat="-39.2944042291" lon="-72.4096785765"><ele>251.14</ele><time>2024-09-12T23:48:31Z</time></trkpt><trkpt lat="-39.2943668459" lon="-72.4096100964"><ele>250.97</ele><time>2024-09-12T23:48:32Z</time></trkpt><trkpt lat="-39.2941034865" lon="-72.4091169052"><ele>247.30</ele><time>2024-09-12T23:48:38Z</time></trkpt><trkpt lat="-39.2938913405" lon="-72.4087316729"><ele>244.14</ele><time>2024-09-12T23:48:44Z</time></trkpt><trkpt lat="-39.2938162386" lon="-72.4086288270"><ele>243.77</ele><time>2024-09-12T23:48:47Z</time></trkpt><trkpt lat="-39.2937710602" lon="-72.4085937068"><ele>243.97</ele><time>2024-09-12T23:48:48Z</time></trkpt><trkpt lat="-39.2937132251" lon="-72.4085543957"><ele>243.96</ele><time>2024-09-12T23:48:49Z</time></trkpt><trkpt lat="-39.2930210475" lon="-72.4080992583"><ele>241.89</ele><time>2024-09-12T23:48:59Z</time></trkpt><trkpt lat="-39.2929579318" lon="-72.4079234060"><ele>241.24</ele><time>2024-09-12T23:49:06Z</time></trkpt><trkpt lat="-39.2931842431" lon="-72.4072559550"><ele>243.56</ele><time>2024-09-12T23:49:14Z</time></trkpt><trkpt lat="-39.2934387177" lon="-72.4065243825"><ele>246.97</ele><time>2024-09-12T23:49:21Z</time></trkpt><trkpt lat="-39.2935032584" lon="-72.4063753523"><ele>247.89</ele><time>2024-09-12T23:49:23Z</time></trkpt><trkpt lat="-39.2935295776" lon="-72.4063375499"><ele>248.03</ele><time>2024-09-12T23:49:24Z</time></trkpt><trkpt lat="-39.2935500294" lon="-72.4063180201"><ele>248.26</ele><time>2024-09-12T23:49:25Z</time></trkpt><trkpt lat="-39.2935667094" lon="-72.4063064530"><ele>248.49</ele><time>2024-09-12T23:49:26Z</time></trkpt><trkpt lat="-39.2935805395" lon="-72.4062994123"><ele>248.54</ele><time>2024-09-12T23:49:27Z</time></trkpt><trkpt lat="-39.2936012428" lon="-72.4062976521"><ele>248.85</ele><time>2024-09-12T23:49:28Z</time></trkpt><trkpt lat="-39.2936267238" lon="-72.4063012563"><ele>249.20</ele><time>2024-09-12T23:49:29Z</time></trkpt><trkpt lat="-39.2936560605" lon="-72.4063122366"><ele>249.54</ele><time>2024-09-12T23:49:30Z</time></trkpt><trkpt lat="-39.2936861515" lon="-72.4063266534"><ele>250.16</ele><time>2024-09-12T23:49:31Z</time></trkpt><trkpt lat="-39.2937198468" lon="-72.4063454289"><ele>250.44</ele><time>2024-09-12T23:49:32Z</time></trkpt><trkpt lat="-39.2938691285" lon="-72.4064253084"><ele>252.34</ele><time>2024-09-12T23:49:36Z</time></trkpt><trkpt lat="-39.2939238623" lon="-72.4064540584"><ele>252.66</ele><time>2024-09-12T23:49:37Z</time></trkpt><trkpt lat="-39.2944694404" lon="-72.4068097863"><ele>252.27</ele><time>2024-09-12T23:49:46Z</time></trkpt><trkpt lat="-39.2945114337" lon="-72.4068642687"><ele>251.95</ele><time>2024-09-12T23:49:48Z</time></trkpt><trkpt lat="-39.2945235036" lon="-72.4069003109"><ele>251.88</ele><time>2024-09-12T23:49:49Z</time></trkpt><trkpt lat="-39.2945223302" lon="-72.4069471657"><ele>251.99</ele><time>2024-09-12T23:49:50Z</time></trkpt><trkpt lat="-39.2945074104" lon="-72.4070038274"><ele>251.91</ele><time>2024-09-12T23:49:51Z</time></trkpt><trkpt lat="-39.2944828514" lon="-72.4070703797"><ele>251.73</ele><time>2024-09-12T23:49:52Z</time></trkpt><trkpt lat="-39.2941735592" lon="-72.4078794010"><ele>248.69</ele><time>2024-09-12T23:50:01Z</time></trkpt><trkpt lat="-39.2939801887" lon="-72.4083245639"><ele>246.57</ele><time>2024-09-12T23:50:06Z</time></trkpt><trkpt lat="-39.2939018179" lon="-72.4085275736"><ele>245.53</ele><time>2024-09-12T23:50:09Z</time></trkpt><trkpt lat="-39.2938923463" lon="-72.4085800443"><ele>245.38</ele><time>2024-09-12T23:50:10Z</time></trkpt><trkpt lat="-39.2939020693" lon="-72.4086194392"><ele>245.36</ele><time>2024-09-12T23:50:11Z</time></trkpt><trkpt lat="-39.2939232755" lon="-72.4086465128"><ele>245.21</ele><time>2024-09-12T23:50:12Z</time></trkpt><trkpt lat="-39.2939588148" lon="-72.4086512905"><ele>245.25</ele><time>2024-09-12T23:50:13Z</time></trkpt><trkpt lat="-39.2940023169" lon="-72.4086384661"><ele>245.61</ele><time>2024-09-12T23:50:14Z</time></trkpt><trkpt lat="-39.2940518539" lon="-72.4086144939"><ele>245.90</ele><time>2024-09-12T23:50:15Z</time></trkpt><trkpt lat="-39.2941062525" lon="-72.4085762724"><ele>246.42</ele><time>2024-09-12T23:50:16Z</time></trkpt><trkpt lat="-39.2941653449" lon="-72.4085321836"><ele>247.09</ele><time>2024-09-12T23:50:17Z</time></trkpt><trkpt lat="-39.2944068275" lon="-72.4083362147"><ele>250.32</ele><time>2024-09-12T23:50:21Z</time></trkpt><trkpt lat="-39.2946493998" lon="-72.4081155192"><ele>253.39</ele><time>2024-09-12T23:50:25Z</time></trkpt><trkpt lat="-39.2951829080" lon="-72.4076568615"><ele>256.49</ele><time>2024-09-12T23:50:33Z</time></trkpt><trkpt lat="-39.2953412421" lon="-72.4075148720"><ele>257.58</ele><time>2024-09-12T23:50:36Z</time></trkpt><trkpt lat="-39.2953668907" lon="-72.4074751418"><ele>257.89</ele><time>2024-09-12T23:50:37Z</time></trkpt><trkpt lat="-39.2953770328" lon="-72.4074354954"><ele>258.19</ele><time>2024-09-12T23:50:38Z</time></trkpt><trkpt lat="-39.2953689862" lon="-72.4073908199"><ele>258.41</ele><time>2024-09-12T23:50:39Z</time></trkpt><trkpt lat="-39.2953434214" lon="-72.4073454738"><ele>258.48</ele><time>2024-09-12T23:50:40Z</time></trkpt><trkpt lat="-39.2953031044" lon="-72.4073024746"><ele>258.28</ele><time>2024-09-12T23:50:41Z</time></trkpt><trkpt lat="-39.2952484544" lon="-72.4072637502"><ele>257.92</ele><time>2024-09-12T23:50:42Z</time></trkpt><trkpt lat="-39.2951866798" lon="-72.4072269537"><ele>257.56</ele><time>2024-09-12T23:50:43Z</time></trkpt><trkpt lat="-39.2951224744" lon="-72.4071926717"><ele>257.31</ele><time>2024-09-12T23:50:44Z</time></trkpt><trkpt lat="-39.2946734559" lon="-72.4069437291"><ele>254.29</ele><time>2024-09-12T23:50:51Z</time></trkpt><trkpt lat="-39.2945741303" lon="-72.4068648554"><ele>252.93</ele><time>2024-09-12T23:50:54Z</time></trkpt><trkpt lat="-39.2945727892" lon="-72.4068207666"><ele>252.94</ele><time>2024-09-12T23:50:55Z</time></trkpt><trkpt lat="-39.2945753038" lon="-72.4067765940"><ele>252.98</ele><time>2024-09-12T23:50:56Z</time></trkpt><trkpt lat="-39.2945863679" lon="-72.4067273084"><ele>253.14</ele><time>2024-09-12T23:50:57Z</time></trkpt><trkpt lat="-39.2946069874" lon="-72.4066734966"><ele>253.34</ele><time>2024-09-12T23:50:58Z</time></trkpt><trkpt lat="-39.2946239188" lon="-72.4066193495"><ele>253.53</ele><time>2024-09-12T23:50:59Z</time></trkpt><trkpt lat="-39.2948875297" lon="-72.4059021939"><ele>256.75</ele><time>2024-09-12T23:51:09Z</time></trkpt><trkpt lat="-39.2950506415" lon="-72.4053136166"><ele>257.82</ele><time>2024-09-12T23:51:15Z</time></trkpt><trkpt lat="-39.2950527370" lon="-72.4052080885"><ele>257.81</ele><time>2024-09-12T23:51:16Z</time></trkpt><trkpt lat="-39.2950353026" lon="-72.4051101040"><ele>258.18</ele><time>2024-09-12T23:51:17Z</time></trkpt><trkpt lat="-39.2950064689" lon="-72.4047133885"><ele>258.34</ele><time>2024-09-12T23:51:24Z</time></trkpt><trkpt lat="-39.2951222230" lon="-72.4046211876"><ele>259.01</ele><time>2024-09-12T23:51:29Z</time></trkpt><trkpt lat="-39.2956796195" lon="-72.4044693075"><ele>260.89</ele><time>2024-09-12T23:51:37Z</time></trkpt><trkpt lat="-39.2959825415" lon="-72.4044121429"><ele>261.22</ele><time>2024-09-12T23:51:44Z</time></trkpt><trkpt lat="-39.2960034125" lon="-72.4044298287"><ele>261.30</ele><time>2024-09-12T23:51:45Z</time></trkpt><trkpt lat="-39.2960253730" lon="-72.4044629373"><ele>261.40</ele><time>2024-09-12T23:51:46Z</time></trkpt><trkpt lat="-39.2960459925" lon="-72.4045138992"><ele>261.46</ele><time>2024-09-12T23:51:47Z</time></trkpt><trkpt lat="-39.2960638460" lon="-72.4045884982"><ele>261.64</ele><time>2024-09-12T23:51:48Z</time></trkpt><trkpt lat="-39.2960856389" lon="-72.4046756700"><ele>261.49</ele><time>2024-09-12T23:51:49Z</time></trkpt><trkpt lat="-39.2962598987" lon="-72.4056105874"><ele>261.41</ele><time>2024-09-12T23:51:59Z</time></trkpt><trkpt lat="-39.2962493375" lon="-72.4056707695"><ele>261.45</ele><time>2024-09-12T23:52:00Z</time></trkpt><trkpt lat="-39.2962168995" lon="-72.4057186302"><ele>261.40</ele><time>2024-09-12T23:52:01Z</time></trkpt><trkpt lat="-39.2961736489" lon="-72.4057440273"><ele>261.51</ele><time>2024-09-12T23:52:02Z</time></trkpt><trkpt lat="-39.2961226869" lon="-72.4057589471"><ele>261.43</ele><time>2024-09-12T23:52:03Z</time></trkpt><trkpt lat="-39.2960656900" lon="-72.4057731126"><ele>261.55</ele><time>2024-09-12T23:52:04Z</time></trkpt><trkpt lat="-39.2952949740" lon="-72.4059917126"><ele>259.65</ele><time>2024-09-12T23:52:15Z</time></trkpt><trkpt lat="-39.2952598538" lon="-72.4060113262"><ele>259.65</ele><time>2024-09-12T23:52:16Z</time></trkpt><trkpt lat="-39.2952370550" lon="-72.4060415011"><ele>259.57</ele><time>2024-09-12T23:52:17Z</time></trkpt><trkpt lat="-39.2952216323" lon="-72.4060819019"><ele>259.59</ele><time>2024-09-12T23:52:18Z</time></trkpt><trkpt lat="-39.2952141725" lon="-72.4061378930"><ele>259.68</ele><time>2024-09-12T23:52:19Z</time></trkpt><trkpt lat="-39.2952135019" lon="-72.4062057864"><ele>259.82</ele><time>2024-09-12T23:52:20Z</time></trkpt><trkpt lat="-39.2952190340" lon="-72.4062842410"><ele>259.79</ele><time>2024-09-12T23:52:21Z</time></trkpt><trkpt lat="-39.2952313554" lon="-72.4063675571"><ele>259.98</ele><time>2024-09-12T23:52:22Z</time></trkpt><trkpt lat="-39.2952461075" lon="-72.4064522143"><ele>260.05</ele><time>2024-09-12T23:52:23Z</time></trkpt><trkpt lat="-39.2954084650" lon="-72.4072871357"><ele>260.51</ele><time>2024-09-12T23:52:33Z</time></trkpt><trkpt lat="-39.2954384722" lon="-72.4073325656"><ele>260.31</ele><time>2024-09-12T23:52:34Z</time></trkpt><trkpt lat="-39.2954859138" lon="-72.4073660094"><ele>260.23</ele><time>2024-09-12T23:52:35Z</time></trkpt><trkpt lat="-39.2955393065" lon="-72.4073736370"><ele>260.37</ele><time>2024-09-12T23:52:36Z</time></trkpt><trkpt lat="-39.2956002429" lon="-72.4073658418"><ele>260.59</ele><time>2024-09-12T23:52:37Z</time></trkpt><trkpt lat="-39.2956663761" lon="-72.4073504191"><ele>260.64</ele><time>2024-09-12T23:52:38Z</time></trkpt><trkpt lat="-39.2957380414" lon="-72.4073269498"><ele>261.01</ele><time>2024-09-12T23:52:39Z</time></trkpt><trkpt lat="-39.2958102934" lon="-72.4073054921"><ele>261.24</ele><time>2024-09-12T23:52:40Z</time></trkpt><trkpt lat="-39.2967815045" lon="-72.4070013128"><ele>260.39</ele><time>2024-09-12T23:52:53Z</time></trkpt><trkpt lat="-39.2968127690" lon="-72.4069718923"><ele>260.19</ele><time>2024-09-12T23:52:54Z</time></trkpt><trkpt lat="-39.2968356516" lon="-72.4069379456"><ele>260.10</ele><time>2024-09-12T23:52:55Z</time></trkpt><trkpt lat="-39.2968504876" lon="-72.4069014005"><ele>260.01</ele><time>2024-09-12T23:52:56Z</time></trkpt><trkpt lat="-39.2968665808" lon="-72.4068646878"><ele>260.11</ele><time>2024-09-12T23:52:57Z</time></trkpt><trkpt lat="-39.2968863621" lon="-72.4068295676"><ele>260.28</ele><time>2024-09-12T23:52:58Z</time></trkpt><trkpt lat="-39.2969124299" lon="-72.4068014883"><ele>260.32</ele><time>2024-09-12T23:52:59Z</time></trkpt><trkpt lat="-39.2969431914" lon="-72.4067748338"><ele>260.54</ele><time>2024-09-12T23:53:00Z</time></trkpt><trkpt lat="-39.2970045470" lon="-72.4066994805"><ele>260.94</ele><time>2024-09-12T23:53:02Z</time></trkpt><trkpt lat="-39.2970501445" lon="-72.4065786973"><ele>261.82</ele><time>2024-09-12T23:53:04Z</time></trkpt><trkpt lat="-39.2970519885" lon="-72.4062981550"><ele>262.48</ele><time>2024-09-12T23:53:08Z</time></trkpt><trkpt lat="-39.2970053852" lon="-72.4061663076"><ele>262.67</ele><time>2024-09-12T23:53:10Z</time></trkpt><trkpt lat="-39.2969654873" lon="-72.4059658963"><ele>262.43</ele><time>2024-09-12T23:53:13Z</time></trkpt><trkpt lat="-39.2970695905" lon="-72.4056287762"><ele>262.85</ele><time>2024-09-12T23:53:19Z</time></trkpt><trkpt lat="-39.2972202972" lon="-72.4055757187"><ele>262.51</ele><time>2024-09-12T23:53:23Z</time></trkpt><trkpt lat="-39.2972375639" lon="-72.4054188095"><ele>262.61</ele><time>2024-09-12T23:53:27Z</time></trkpt><trkpt lat="-39.2971902899" lon="-72.4052379280"><ele>262.88</ele><time>2024-09-12T23:53:30Z</time></trkpt><trkpt lat="-39.2972534057" lon="-72.4047622550"><ele>263.96</ele><time>2024-09-12T23:53:40Z</time></trkpt><trkpt lat="-39.2972701695" lon="-72.4046900868"><ele>264.28</ele><time>2024-09-12T23:53:42Z</time></trkpt><trkpt lat="-39.2971401662" lon="-72.4039218854"><ele>265.35</ele><time>2024-09-12T23:53:51Z</time></trkpt><trkpt lat="-39.2971341312" lon="-72.4037024472"><ele>265.71</ele><time>2024-09-12T23:53:56Z</time></trkpt><trkpt lat="-39.2971724365" lon="-72.4036750384"><ele>265.76</ele><time>2024-09-12T23:53:57Z</time></trkpt><trkpt lat="-39.2972219735" lon="-72.4036628846"><ele>266.04</ele><time>2024-09-12T23:53:58Z</time></trkpt><trkpt lat="-39.2978309188" lon="-72.4035202246"><ele>267.11</ele><time>2024-09-12T23:54:08Z</time></trkpt><trkpt lat="-39.2978734151" lon="-72.4035269301"><ele>266.96</ele><time>2024-09-12T23:54:09Z</time></trkpt><trkpt lat="-39.2979149893" lon="-72.4035568535"><ele>266.92</ele><time>2024-09-12T23:54:10Z</time></trkpt><trkpt lat="-39.2979554739" lon="-72.4036047142"><ele>266.85</ele><time>2024-09-12T23:54:11Z</time></trkpt><trkpt lat="-39.2979972996" lon="-72.4036635552"><ele>266.68</ele><time>2024-09-12T23:54:12Z</time></trkpt><trkpt lat="-39.2980408855" lon="-72.4037300237"><ele>266.50</ele><time>2024-09-12T23:54:13Z</time></trkpt><trkpt lat="-39.2986035626" lon="-72.4046506919"><ele>264.44</ele><time>2024-09-12T23:54:25Z</time></trkpt><trkpt lat="-39.2986701988" lon="-72.4046852253"><ele>264.19</ele><time>2024-09-12T23:54:26Z</time></trkpt><trkpt lat="-39.2987463903" lon="-72.4046918470"><ele>263.97</ele><time>2024-09-12T23:54:27Z</time></trkpt><trkpt lat="-39.2988218274" lon="-72.4046781845"><ele>263.82</ele><time>2024-09-12T23:54:28Z</time></trkpt><trkpt lat="-39.2988957558" lon="-72.4046568945"><ele>263.78</ele><time>2024-09-12T23:54:29Z</time></trkpt><trkpt lat="-39.2994131707" lon="-72.4045082834"><ele>262.84</ele><time>2024-09-12T23:54:38Z</time></trkpt><trkpt lat="-39.3000043463" lon="-72.4043384660"><ele>262.84</ele><time>2024-09-12T23:54:47Z</time></trkpt><trkpt lat="-39.3003952783" lon="-72.4042246398"><ele>263.48</ele><time>2024-09-12T23:54:53Z</time></trkpt><trkpt lat="-39.3004337512" lon="-72.4041869212"><ele>263.82</ele><time>2024-09-12T23:54:54Z</time></trkpt><trkpt lat="-39.3004518561" lon="-72.4041326903"><ele>264.08</ele><time>2024-09-12T23:54:55Z</time></trkpt><trkpt lat="-39.3004526943" lon="-72.4040719215"><ele>264.40</ele><time>2024-09-12T23:54:56Z</time></trkpt><trkpt lat="-39.3004457373" lon="-72.4040093925"><ele>264.74</ele><time>2024-09-12T23:54:57Z</time></trkpt><trkpt lat="-39.3004344217" lon="-72.4039424211"><ele>265.02</ele><time>2024-09-12T23:54:58Z</time></trkpt><trkpt lat="-39.3004200049" lon="-72.4038637150"><ele>265.46</ele><time>2024-09-12T23:54:59Z</time></trkpt><trkpt lat="-39.3003372755" lon="-72.4034026265"><ele>267.90</ele><time>2024-09-12T23:55:04Z</time></trkpt><trkpt lat="-39.3002926838" lon="-72.4031380937"><ele>270.44</ele><time>2024-09-12T23:55:07Z</time></trkpt><trkpt lat="-39.3002565578" lon="-72.4029889796"><ele>271.75</ele><time>2024-09-12T23:55:09Z</time></trkpt><trkpt lat="-39.3001737446" lon="-72.4028542824"><ele>272.26</ele><time>2024-09-12T23:55:12Z</time></trkpt><trkpt lat="-39.3001333438" lon="-72.4028393626"><ele>272.08</ele><time>2024-09-12T23:55:13Z</time></trkpt><trkpt lat="-39.3000864889" lon="-72.4028443079"><ele>271.76</ele><time>2024-09-12T23:55:14Z</time></trkpt><trkpt lat="-39.3000317551" lon="-72.4028549530"><ele>271.35</ele><time>2024-09-12T23:55:15Z</time></trkpt><trkpt lat="-39.2999701481" lon="-72.4028668553"><ele>270.77</ele><time>2024-09-12T23:55:16Z</time></trkpt><trkpt lat="-39.2995845806" lon="-72.4029740598"><ele>267.28</ele><time>2024-09-12T23:55:21Z</time></trkpt><trkpt lat="-39.2994283419" lon="-72.4030160531"><ele>266.42</ele><time>2024-09-12T23:55:23Z</time></trkpt><trkpt lat="-39.2986866273" lon="-72.4032394309"><ele>265.83</ele><time>2024-09-12T23:55:34Z</time></trkpt><trkpt lat="-39.2985381000" lon="-72.4032554403"><ele>265.57</ele><time>2024-09-12T23:55:40Z</time></trkpt><trkpt lat="-39.2984769959" lon="-72.4032708630"><ele>265.66</ele><time>2024-09-12T23:55:44Z</time></trkpt><trkpt lat="-39.2984249443" lon="-72.4032919854"><ele>265.71</ele><time>2024-09-12T23:55:46Z</time></trkpt><trkpt lat="-39.2981218547" lon="-72.4033597950"><ele>265.96</ele><time>2024-09-12T23:55:54Z</time></trkpt><trkpt lat="-39.2980739102" lon="-72.4033612199"><ele>265.93</ele><time>2024-09-12T23:56:06Z</time></trkpt><trkpt lat="-39.2979855649" lon="-72.4034018721"><ele>266.12</ele><time>2024-09-12T23:56:09Z</time></trkpt><trkpt lat="-39.2978347745" lon="-72.4034612160"><ele>266.32</ele><time>2024-09-12T23:56:12Z</time></trkpt><trkpt lat="-39.2971772142" lon="-72.4036628008"><ele>265.64</ele><time>2024-09-12T23:56:21Z</time></trkpt><trkpt lat="-39.2971068062" lon="-72.4036704283"><ele>265.22</ele><time>2024-09-12T23:56:23Z</time></trkpt><trkpt lat="-39.2970826663" lon="-72.4036538322"><ele>265.01</ele><time>2024-09-12T23:56:24Z</time></trkpt><trkpt lat="-39.2970664054" lon="-72.4036169518"><ele>265.03</ele><time>2024-09-12T23:56:25Z</time></trkpt><trkpt lat="-39.2970566824" lon="-72.4035629723"><ele>265.00</ele><time>2024-09-12T23:56:26Z</time></trkpt><trkpt lat="-39.2970472947" lon="-72.4034944084"><ele>265.00</ele><time>2024-09-12T23:56:27Z</time></trkpt><trkpt lat="-39.2968841828" lon="-72.4025052600"><ele>264.97</ele><time>2024-09-12T23:56:37Z</time></trkpt><trkpt lat="-39.2968767229" lon="-72.4024258833"><ele>264.88</ele><time>2024-09-12T23:56:38Z</time></trkpt><trkpt lat="-39.2968941573" lon="-72.4023625161"><ele>264.79</ele><time>2024-09-12T23:56:39Z</time></trkpt><trkpt lat="-39.2969368212" lon="-72.4023189303"><ele>264.86</ele><time>2024-09-12T23:56:40Z</time></trkpt><trkpt lat="-39.2969851848" lon="-72.4022923596"><ele>265.25</ele><time>2024-09-12T23:56:41Z</time></trkpt><trkpt lat="-39.2970408406" lon="-72.4022784457"><ele>265.61</ele><time>2024-09-12T23:56:42Z</time></trkpt><trkpt lat="-39.2971038725" lon="-72.4022652023"><ele>265.77</ele><time>2024-09-12T23:56:43Z</time></trkpt><trkpt lat="-39.2978208605" lon="-72.4021085445"><ele>267.72</ele><time>2024-09-12T23:56:54Z</time></trkpt><trkpt lat="-39.2986285407" lon="-72.4018654693"><ele>268.45</ele><time>2024-09-12T23:57:07Z</time></trkpt><trkpt lat="-39.2990025412" lon="-72.4017331190"><ele>270.11</ele><time>2024-09-12T23:57:15Z</time></trkpt><trkpt lat="-39.2995434254" lon="-72.4015903752"><ele>273.29</ele><time>2024-09-12T23:57:23Z</time></trkpt><trkpt lat="-39.3000061903" lon="-72.4014421832"><ele>274.55</ele><time>2024-09-12T23:57:31Z</time></trkpt><trkpt lat="-39.3000236247" lon="-72.4014001898"><ele>274.51</ele><time>2024-09-12T23:57:32Z</time></trkpt><trkpt lat="-39.3000295758" lon="-72.4013483059"><ele>274.41</ele><time>2024-09-12T23:57:33Z</time></trkpt><trkpt lat="-39.3000221997" lon="-72.4012822565"><ele>274.38</ele><time>2024-09-12T23:57:34Z</time></trkpt><trkpt lat="-39.3000051845" lon="-72.4012074899"><ele>274.27</ele><time>2024-09-12T23:57:35Z</time></trkpt><trkpt lat="-39.2999897618" lon="-72.4011191446"><ele>274.12</ele><time>2024-09-12T23:57:36Z</time></trkpt><trkpt lat="-39.2998767737" lon="-72.4001895078"><ele>272.14</ele><time>2024-09-12T23:57:45Z</time></trkpt><trkpt lat="-39.2998483591" lon="-72.4001299124"><ele>271.97</ele><time>2024-09-12T23:57:46Z</time></trkpt><trkpt lat="-39.2997984868" lon="-72.4000999052"><ele>271.99</ele><time>2024-09-12T23:57:47Z</time></trkpt><trkpt lat="-39.2997381371" lon="-72.4000940379"><ele>271.73</ele><time>2024-09-12T23:57:48Z</time></trkpt><trkpt lat="-39.2996759433" lon="-72.4001026712"><ele>271.64</ele><time>2024-09-12T23:57:49Z</time></trkpt><trkpt lat="-39.2996129952" lon="-72.4001172557"><ele>271.45</ele><time>2024-09-12T23:57:50Z</time></trkpt><trkpt lat="-39.2988131940" lon="-72.4003538769"><ele>268.65</ele><time>2024-09-12T23:58:01Z</time></trkpt><trkpt lat="-39.2981664464" lon="-72.4005463254"><ele>268.15</ele><time>2024-09-12T23:58:11Z</time></trkpt><trkpt lat="-39.2976241373" lon="-72.4006748199"><ele>267.05</ele><time>2024-09-12T23:58:20Z</time></trkpt><trkpt lat="-39.2972842511" lon="-72.4007142149"><ele>263.44</ele><time>2024-09-12T23:58:24Z</time></trkpt><trkpt lat="-39.2968601268" lon="-72.4007486645"><ele>260.84</ele><time>2024-09-12T23:58:32Z</time></trkpt><trkpt lat="-39.2965184804" lon="-72.4007208366"><ele>260.55</ele><time>2024-09-12T23:58:41Z</time></trkpt><trkpt lat="-39.2964929994" lon="-72.4006691203"><ele>260.54</ele><time>2024-09-12T23:58:42Z</time></trkpt><trkpt lat="-39.2964725476" lon="-72.4005975388"><ele>260.60</ele><time>2024-09-12T23:58:43Z</time></trkpt><trkpt lat="-39.2963883933" lon="-72.4003382865"><ele>260.48</ele><time>2024-09-12T23:58:46Z</time></trkpt><trkpt lat="-39.2963461485" lon="-72.4002561439"><ele>260.51</ele><time>2024-09-12T23:58:47Z</time></trkpt><trkpt lat="-39.2962970305" lon="-72.4001783598"><ele>260.41</ele><time>2024-09-12T23:58:48Z</time></trkpt><trkpt lat="-39.2962403689" lon="-72.4001023360"><ele>260.46</ele><time>2024-09-12T23:58:49Z</time></trkpt><trkpt lat="-39.2961779237" lon="-72.4000360351"><ele>260.58</ele><time>2024-09-12T23:58:50Z</time></trkpt><trkpt lat="-39.2961112875" lon="-72.3999846540"><ele>260.64</ele><time>2024-09-12T23:58:51Z</time></trkpt><trkpt lat="-39.2960463278" lon="-72.3999447562"><ele>260.61</ele><time>2024-09-12T23:58:52Z</time></trkpt><trkpt lat="-39.2959861457" lon="-72.3999117315"><ele>260.65</ele><time>2024-09-12T23:58:53Z</time></trkpt><trkpt lat="-39.2958852276" lon="-72.3998696543"><ele>261.17</ele><time>2024-09-12T23:58:55Z</time></trkpt><trkpt lat="-39.2958435696" lon="-72.3998657987"><ele>261.59</ele><time>2024-09-12T23:58:56Z</time></trkpt><trkpt lat="-39.2957225349" lon="-72.3998228833"><ele>261.49</ele><time>2024-09-12T23:59:01Z</time></trkpt><trkpt lat="-39.2957095429" lon="-72.3997823987"><ele>261.49</ele><time>2024-09-12T23:59:02Z</time></trkpt><trkpt lat="-39.2956984788" lon="-72.3997215461"><ele>261.54</ele><time>2024-09-12T23:59:03Z</time></trkpt><trkpt lat="-39.2955279909" lon="-72.3989122733"><ele>262.62</ele><time>2024-09-12T23:59:12Z</time></trkpt><trkpt lat="-39.2951783817" lon="-72.3973725177"><ele>265.81</ele><time>2024-09-12T23:59:25Z</time></trkpt><trkpt lat="-39.2950283457" lon="-72.3965293821"><ele>269.32</ele><time>2024-09-12T23:59:32Z</time></trkpt><trkpt lat="-39.2950216401" lon="-72.3953044508"><ele>272.48</ele><time>2024-09-12T23:59:41Z</time></trkpt><trkpt lat="-39.2950254958" lon="-72.3933471087"><ele>275.35</ele><time>2024-09-12T23:59:54Z</time></trkpt><trkpt lat="-39.2948405910" lon="-72.3922031466"><ele>275.12</ele><time>2024-09-13T00:00:04Z</time></trkpt><trkpt lat="-39.2943707015" lon="-72.3909519799"><ele>275.05</ele><time>2024-09-13T00:00:16Z</time></trkpt><trkpt lat="-39.2937728204" lon="-72.3897931818"><ele>275.03</ele><time>2024-09-13T00:00:28Z</time></trkpt><trkpt lat="-39.2935127299" lon="-72.3892046046"><ele>274.80</ele><time>2024-09-13T00:00:35Z</time></trkpt><trkpt lat="-39.2935005762" lon="-72.3891093861"><ele>274.86</ele><time>2024-09-13T00:00:36Z</time></trkpt><trkpt lat="-39.2934996542" lon="-72.3890129104"><ele>274.76</ele><time>2024-09-13T00:00:37Z</time></trkpt><trkpt lat="-39.2935062759" lon="-72.3889153451"><ele>274.89</ele><time>2024-09-13T00:00:38Z</time></trkpt><trkpt lat="-39.2935202736" lon="-72.3888164386"><ele>274.94</ele><time>2024-09-13T00:00:39Z</time></trkpt><trkpt lat="-39.2935364507" lon="-72.3887164425"><ele>274.92</ele><time>2024-09-13T00:00:40Z</time></trkpt><trkpt lat="-39.2939013988" lon="-72.3869482800"><ele>275.61</ele><time>2024-09-13T00:00:56Z</time></trkpt><trkpt lat="-39.2942120321" lon="-72.3853692971"><ele>278.53</ele><time>2024-09-13T00:01:10Z</time></trkpt><trkpt lat="-39.2944172211" lon="-72.3843031190"><ele>281.84</ele><time>2024-09-13T00:01:21Z</time></trkpt><trkpt lat="-39.2947335541" lon="-72.3826440889"><ele>284.86</ele><time>2024-09-13T00:01:35Z</time></trkpt><trkpt lat="-39.2950047087" lon="-72.3812362645"><ele>283.91</ele><time>2024-09-13T00:01:47Z</time></trkpt><trkpt lat="-39.2952501308" lon="-72.3800159432"><ele>280.77</ele><time>2024-09-13T00:01:58Z</time></trkpt><trkpt lat="-39.2954788730" lon="-72.3789041676"><ele>277.67</ele><time>2024-09-13T00:02:08Z</time></trkpt><trkpt lat="-39.2958240397" lon="-72.3774918169"><ele>275.32</ele><time>2024-09-13T00:02:21Z</time></trkpt><trkpt lat="-39.2961464077" lon="-72.3760101479"><ele>274.22</ele><time>2024-09-13T00:02:35Z</time></trkpt><trkpt lat="-39.2964524310" lon="-72.3745920975"><ele>272.67</ele><time>2024-09-13T00:02:48Z</time></trkpt><trkpt lat="-39.2966488190" lon="-72.3736373987"><ele>271.12</ele><time>2024-09-13T00:02:58Z</time></trkpt><trkpt lat="-39.2966288701" lon="-72.3735674936"><ele>270.83</ele><time>2024-09-13T00:03:01Z</time></trkpt><trkpt lat="-39.2966142017" lon="-72.3735534959"><ele>270.94</ele><time>2024-09-13T00:03:02Z</time></trkpt><trkpt lat="-39.2965793330" lon="-72.3735350557"><ele>271.27</ele><time>2024-09-13T00:03:04Z</time></trkpt><trkpt lat="-39.2965981923" lon="-72.3735317867"><ele>271.01</ele><time>2024-09-13T00:03:09Z</time></trkpt><trkpt lat="-39.2966152076" lon="-72.3735287692"><ele>270.93</ele><time>2024-09-13T00:03:14Z</time></trkpt><trkpt lat="-39.2965860385" lon="-72.3736081459"><ele>271.21</ele><time>2024-09-13T00:03:16Z</time></trkpt><trkpt lat="-39.2963966914" lon="-72.3743672110"><ele>272.39</ele><time>2024-09-13T00:03:24Z</time></trkpt><trkpt lat="-39.2960587330" lon="-72.3759208806"><ele>274.23</ele><time>2024-09-13T00:03:37Z</time></trkpt><trkpt lat="-39.2956865765" lon="-72.3777640611"><ele>275.51</ele><time>2024-09-13T00:03:54Z</time></trkpt><trkpt lat="-39.2953459360" lon="-72.3794160504"><ele>278.73</ele><time>2024-09-13T00:04:09Z</time></trkpt><trkpt lat="-39.2951337062" lon="-72.3804269079"><ele>282.03</ele><time>2024-09-13T00:04:18Z</time></trkpt><trkpt lat="-39.2948025372" lon="-72.3820825852"><ele>284.50</ele><time>2024-09-13T00:04:32Z</time></trkpt><trkpt lat="-39.2944985256" lon="-72.3837298807"><ele>283.20</ele><time>2024-09-13T00:04:45Z</time></trkpt><trkpt lat="-39.2942804284" lon="-72.3848517146"><ele>280.10</ele><time>2024-09-13T00:04:54Z</time></trkpt><trkpt lat="-39.2940365989" lon="-72.3860692699"><ele>276.90</ele><time>2024-09-13T00:05:04Z</time></trkpt><trkpt lat="-39.2936067749" lon="-72.3882329743"><ele>275.38</ele><time>2024-09-13T00:05:21Z</time></trkpt><trkpt lat="-39.2934621871" lon="-72.3890947178"><ele>275.11</ele><time>2024-09-13T00:05:28Z</time></trkpt><trkpt lat="-39.2934729159" lon="-72.3892122321"><ele>275.04</ele><time>2024-09-13T00:05:29Z</time></trkpt><trkpt lat="-39.2934990674" lon="-72.3893267289"><ele>275.12</ele><time>2024-09-13T00:05:30Z</time></trkpt><trkpt lat="-39.2935352772" lon="-72.3894369509"><ele>275.03</ele><time>2024-09-13T00:05:31Z</time></trkpt><trkpt lat="-39.2935763486" lon="-72.3895392939"><ele>275.03</ele><time>2024-09-13T00:05:32Z</time></trkpt><trkpt lat="-39.2936221976" lon="-72.3896311596"><ele>275.07</ele><time>2024-09-13T00:05:33Z</time></trkpt><trkpt lat="-39.2936693039" lon="-72.3897152301"><ele>275.06</ele><time>2024-09-13T00:05:34Z</time></trkpt><trkpt lat="-39.2941464856" lon="-72.3905664124"><ele>274.76</ele><time>2024-09-13T00:05:46Z</time></trkpt><trkpt lat="-39.2945983540" lon="-72.3915934470"><ele>275.03</ele><time>2024-09-13T00:05:56Z</time></trkpt><trkpt lat="-39.2949786410" lon="-72.3931120802"><ele>275.19</ele><time>2024-09-13T00:06:08Z</time></trkpt><trkpt lat="-39.2950311955" lon="-72.3947666679"><ele>273.56</ele><time>2024-09-13T00:06:21Z</time></trkpt><trkpt lat="-39.2950216401" lon="-72.3962840438"><ele>270.44</ele><time>2024-09-13T00:06:33Z</time></trkpt><trkpt lat="-39.2950208019" lon="-72.3964997102"><ele>269.50</ele><time>2024-09-13T00:06:36Z</time></trkpt><trkpt lat="-39.2950107437" lon="-72.3965453077"><ele>269.38</ele><time>2024-09-13T00:06:37Z</time></trkpt><trkpt lat="-39.2949885316" lon="-72.3965764046"><ele>269.50</ele><time>2024-09-13T00:06:38Z</time></trkpt><trkpt lat="-39.2949566804" lon="-72.3965934198"><ele>269.47</ele><time>2024-09-13T00:06:39Z</time></trkpt><trkpt lat="-39.2949165311" lon="-72.3965935037"><ele>269.34</ele><time>2024-09-13T00:06:40Z</time></trkpt><trkpt lat="-39.2948620487" lon="-72.3965803441"><ele>269.49</ele><time>2024-09-13T00:06:41Z</time></trkpt><trkpt lat="-39.2947984301" lon="-72.3965622392"><ele>269.54</ele><time>2024-09-13T00:06:42Z</time></trkpt><trkpt lat="-39.2947295308" lon="-72.3965362553"><ele>269.53</ele><time>2024-09-13T00:06:43Z</time></trkpt><trkpt lat="-39.2937108781" lon="-72.3960698023"><ele>272.59</ele><time>2024-09-13T00:06:57Z</time></trkpt><trkpt lat="-39.2927175388" lon="-72.3956050258"><ele>275.67</ele><time>2024-09-13T00:07:09Z</time></trkpt><trkpt lat="-39.2923217453" lon="-72.3954500444"><ele>277.02</ele><time>2024-09-13T00:07:17Z</time></trkpt><trkpt lat="-39.2922432069" lon="-72.3953876831"><ele>278.11</ele><time>2024-09-13T00:07:21Z</time></trkpt><trkpt lat="-39.2922320589" lon="-72.3953912035"><ele>278.26</ele><time>2024-09-13T00:07:22Z</time></trkpt><trkpt lat="-39.2922178097" lon="-72.3954067938"><ele>278.50</ele><time>2024-09-13T00:07:23Z</time></trkpt><trkpt lat="-39.2922045663" lon="-72.3954312690"><ele>278.58</ele><time>2024-09-13T00:07:24Z</time></trkpt><trkpt lat="-39.2921992019" lon="-72.3954028543"><ele>278.46</ele><time>2024-09-13T00:07:29Z</time></trkpt><trkpt lat="-39.2922308855" lon="-72.3954341188"><ele>278.38</ele><time>2024-09-13T00:07:34Z</time></trkpt><trkpt lat="-39.2923199851" lon="-72.3954840750"><ele>277.10</ele><time>2024-09-13T00:07:37Z</time></trkpt><trkpt lat="-39.2923646607" lon="-72.3955095559"><ele>276.86</ele><time>2024-09-13T00:07:38Z</time></trkpt><trkpt lat="-39.2931102309" lon="-72.3958247993"><ele>274.23</ele><time>2024-09-13T00:07:50Z</time></trkpt><trkpt lat="-39.2940884829" lon="-72.3962343391"><ele>271.00</ele><time>2024-09-13T00:08:04Z</time></trkpt><trkpt lat="-39.2948691733" lon="-72.3965551984"><ele>268.91</ele><time>2024-09-13T00:08:16Z</time></trkpt><trkpt lat="-39.2950328719" lon="-72.3967481498"><ele>268.22</ele><time>2024-09-13T00:08:24Z</time></trkpt><trkpt lat="-39.2952247337" lon="-72.3975595180"><ele>264.86</ele><time>2024-09-13T00:08:33Z</time></trkpt><trkpt lat="-39.2953885999" lon="-72.3982016556"><ele>263.10</ele><time>2024-09-13T00:08:39Z</time></trkpt><trkpt lat="-39.2956365366" lon="-72.3996298481"><ele>260.67</ele><time>2024-09-13T00:08:53Z</time></trkpt><trkpt lat="-39.2956437450" lon="-72.3997093085"><ele>260.39</ele><time>2024-09-13T00:08:54Z</time></trkpt><trkpt lat="-39.2956429068" lon="-72.3997917864"><ele>260.10</ele><time>2024-09-13T00:08:55Z</time></trkpt><trkpt lat="-39.2956299987" lon="-72.3998804670"><ele>259.97</ele><time>2024-09-13T00:08:56Z</time></trkpt><trkpt lat="-39.2956125643" lon="-72.3999683093"><ele>259.61</ele><time>2024-09-13T00:08:57Z</time></trkpt><trkpt lat="-39.2955911066" lon="-72.4000586662"><ele>259.38</ele><time>2024-09-13T00:08:58Z</time></trkpt><trkpt lat="-39.2954106443" lon="-72.4012296181"><ele>256.36</ele><time>2024-09-13T00:09:10Z</time></trkpt><trkpt lat="-39.2956222873" lon="-72.4023475125"><ele>257.12</ele><time>2024-09-13T00:09:22Z</time></trkpt><trkpt lat="-39.2958014924" lon="-72.4032356590"><ele>260.16</ele><time>2024-09-13T00:09:33Z</time></trkpt><trkpt lat="-39.2959853914" lon="-72.4041922018"><ele>260.62</ele><time>2024-09-13T00:09:45Z</time></trkpt><trkpt lat="-39.2959588207" lon="-72.4042618554"><ele>260.54</ele><time>2024-09-13T00:09:47Z</time></trkpt><trkpt lat="-39.2959328368" lon="-72.4042886775"><ele>260.32</ele><time>2024-09-13T00:09:48Z</time></trkpt><trkpt lat="-39.2959014047" lon="-72.4043061119"><ele>260.33</ele><time>2024-09-13T00:09:49Z</time></trkpt><trkpt lat="-39.2958670389" lon="-72.4043139070"><ele>260.34</ele><time>2024-09-13T00:09:50Z</time></trkpt><trkpt lat="-39.2958383728" lon="-72.4043180980"><ele>260.08</ele><time>2024-09-13T00:09:51Z</time></trkpt><trkpt lat="-39.2957480997" lon="-72.4043315090"><ele>259.74</ele><time>2024-09-13T00:10:02Z</time></trkpt><trkpt lat="-39.2957232054" lon="-72.4043398071"><ele>259.64</ele><time>2024-09-13T00:10:32Z</time></trkpt><trkpt lat="-39.2957207747" lon="-72.4043448362"><ele>260.40</ele><time>2024-09-13T00:10:56Z</time></trkpt></trkseg></trk></gpx>