<?xml version="1.0" encoding="UTF-8" standalone="no" ?><gpx xmlns="http://www.topografix.com/GPX/1/1" xmlns:gpxx="http://www.garmin.com/xmlschemas/GpxExtensions/v3" xmlns:gpxtrkx="http://www.garmin.com/xmlschemas/TrackStatsExtension/v1" xmlns:wptx1="http://www.garmin.com/xmlschemas/WaypointExtension/v1" xmlns:gpxtpx="http://www.garmin.com/xmlschemas/TrackPointExtension/v1" creator="GPSMAP 64sx" version="1.1" xmlns:xsi="http://www.w3.org/2001/XMLSchema-instance" xsi:schemaLocation="http://www.topografix.com/GPX/1/1 http://www.topografix.com/GPX/1/1/gpx.xsd http://www.garmin.com/xmlschemas/GpxExtensions/v3 http://www8.garmin.com/xmlschemas/GpxExtensionsv3.xsd http://www.garmin.com/xmlschemas/TrackStatsExtension/v1 http://www8.garmin.com/xmlschemas/TrackStatsExtension.xsd http://www.garmin.com/xmlschemas/WaypointExtension/v1 http://www8.garmin.com/xmlschemas/WaypointExtensionv1.xsd http://www.garmin.com/xmlschemas/TrackPointExtension/v1 http://www.garmin.com/xmlschemas/TrackPointExtensionv1.xsd"><metadata><link href="http://www.garmin.com"><text>Garmin International</text></link><time>2024-09-27T04:11:20Z</time></metadata><trk><name>GPS LAPAZ 240926</name><extensions><gpxx:TrackExtension><gpxx:DisplayColor>Cyan</gpxx:DisplayColor></gpxx:TrackExtension><gpxtrkx:TrackStatsExtension><gpxtrkx:Distance>3827.000</gpxtrkx:Distance><gpxtrkx:TotalElapsedTime>917</gpxtrkx:TotalElapsedTime><gpxtrkx:MovingTime>797</gpxtrkx:MovingTime><gpxtrkx:StoppedTime>119</gpxtrkx:StoppedTime><gpxtrkx:MovingSpeed>4.802</gpxtrkx:MovingSpeed><gpxtrkx:MaxSpeed>9.089</gpxtrkx:MaxSpeed><gpxtrkx:MaxElevation>94.769</gpxtrkx:MaxElevation><gpxtrkx:MinElevation>86.653</gpxtrkx:MinElevation><gpxtrkx:Ascent>10.000</gpxtrkx:Ascent><gpxtrkx:Descent>10.293</gpxtrkx:Descent><gpxtrkx:AvgAscentRate>0.037</gpxtrkx:AvgAscentRate><gpxtrkx:MaxAscentRate>0.095</gpxtrkx:MaxAscentRate><gpxtrkx:AvgDescentRate>0.034</gpxtrkx:AvgDescentRate><gpxtrkx:MaxDescentRate>-0.123</gpxtrkx:MaxDescentRate></gpxtrkx:TrackStatsExtension></extensions><trkseg><trkpt lat="-39.4056756701" lon="-72.7026475500"><ele>91.68</ele><time>2024-09-27T03:56:03Z</time></trkpt><trkpt lat="-39.4056675397" lon="-72.7026467118"><ele>88.82</ele><time>2024-09-27T03:56:08Z</time></trkpt><trkpt lat="-39.4056672882" lon="-72.7026431914"><ele>94.04</ele><time>2024-09-27T03:56:09Z</time></trkpt><trkpt lat="-39.4056717306" lon="-72.7026454546"><ele>92.46</ele><time>2024-09-27T03:56:10Z</time></trkpt><trkpt lat="-39.4056921825" lon="-72.7026762161"><ele>91.24</ele><time>2024-09-27T03:56:11Z</time></trkpt><trkpt lat="-39.4057964534" lon="-72.7027853485"><ele>90.97</ele><time>2024-09-27T03:56:14Z</time></trkpt><trkpt lat="-39.4064903073" lon="-72.7037108783"><ele>91.85</ele><time>2024-09-27T03:56:29Z</time></trkpt><trkpt lat="-39.4070725143" lon="-72.7047305368"><ele>94.57</ele><time>2024-09-27T03:56:43Z</time></trkpt><trkpt lat="-39.4073755201" lon="-72.7058391273"><ele>91.54</ele><time>2024-09-27T03:56:55Z</time></trkpt><trkpt lat="-39.4076064415" lon="-72.7062505111"><ele>91.07</ele><time>2024-09-27T03:57:03Z</time></trkpt><trkpt lat="-39.4076580741" lon="-72.7063760720"><ele>91.34</ele><time>2024-09-27T03:57:08Z</time></trkpt><trkpt lat="-39.4076698925" lon="-72.7064322308"><ele>91.38</ele><time>2024-09-27T03:57:09Z</time></trkpt><trkpt lat="-39.4076772686" lon="-72.7064915746"><ele>91.39</ele><time>2024-09-27T03:57:10Z</time></trkpt><trkpt lat="-39.4077537954" lon="-72.7068395913"><ele>91.47</ele><time>2024-09-27T03:57:16Z</time></trkpt><trkpt lat="-39.4077876583" lon="-72.7069118433"><ele>91.54</ele><time>2024-09-27T03:57:17Z</time></trkpt><trkpt lat="-39.4078755844" lon="-72.7071127575"><ele>91.52</ele><time>2024-09-27T03:57:20Z</time></trkpt><trkpt lat="-39.4078925997" lon="-72.7071849257"><ele>91.71</ele><time>2024-09-27T03:57:21Z</time></trkpt><trkpt lat="-39.4079294801" lon="-72.7074183617"><ele>91.53</ele><time>2024-09-27T03:57:24Z</time></trkpt><trkpt lat="-39.4079516083" lon="-72.7074976545"><ele>91.52</ele><time>2024-09-27T03:57:25Z</time></trkpt><trkpt lat="-39.4079808611" lon="-72.7075704094"><ele>91.38</ele><time>2024-09-27T03:57:26Z</time></trkpt><trkpt lat="-39.4080163166" lon="-72.7076332737"><ele>91.22</ele><time>2024-09-27T03:57:27Z</time></trkpt><trkpt lat="-39.4080597349" lon="-72.7076875046"><ele>91.17</ele><time>2024-09-27T03:57:28Z</time></trkpt><trkpt lat="-39.4081103615" lon="-72.7077317610"><ele>91.19</ele><time>2024-09-27T03:57:29Z</time></trkpt><trkpt lat="-39.4081679452" lon="-72.7077658754"><ele>91.19</ele><time>2024-09-27T03:57:30Z</time></trkpt><trkpt lat="-39.4082297198" lon="-72.7077908535"><ele>91.06</ele><time>2024-09-27T03:57:31Z</time></trkpt><trkpt lat="-39.4082931709" lon="-72.7078066953"><ele>91.09</ele><time>2024-09-27T03:57:32Z</time></trkpt><trkpt lat="-39.4083577115" lon="-72.7078133170"><ele>91.12</ele><time>2024-09-27T03:57:33Z</time></trkpt><trkpt lat="-39.4084248506" lon="-72.7078155801"><ele>91.07</ele><time>2024-09-27T03:57:34Z</time></trkpt><trkpt lat="-39.4087999407" lon="-72.7078828868"><ele>91.14</ele><time>2024-09-27T03:57:40Z</time></trkpt><trkpt lat="-39.4088550098" lon="-72.7079109661"><ele>91.19</ele><time>2024-09-27T03:57:41Z</time></trkpt><trkpt lat="-39.4089105818" lon="-72.7079466730"><ele>91.26</ele><time>2024-09-27T03:57:42Z</time></trkpt><trkpt lat="-39.4089663215" lon="-72.7079884987"><ele>91.32</ele><time>2024-09-27T03:57:43Z</time></trkpt><trkpt lat="-39.4090220612" lon="-72.7080348507"><ele>91.29</ele><time>2024-09-27T03:57:44Z</time></trkpt><trkpt lat="-39.4095839839" lon="-72.7086187340"><ele>91.75</ele><time>2024-09-27T03:57:57Z</time></trkpt><trkpt lat="-39.4095925335" lon="-72.7087025531"><ele>92.20</ele><time>2024-09-27T03:57:59Z</time></trkpt><trkpt lat="-39.4095747638" lon="-72.7087494917"><ele>92.04</ele><time>2024-09-27T03:58:00Z</time></trkpt><trkpt lat="-39.4095517974" lon="-72.7087912336"><ele>91.88</ele><time>2024-09-27T03:58:01Z</time></trkpt><trkpt lat="-39.4090037048" lon="-72.7095983271"><ele>91.01</ele><time>2024-09-27T03:58:18Z</time></trkpt><trkpt lat="-39.4088354800" lon="-72.7097461838"><ele>91.08</ele><time>2024-09-27T03:58:24Z</time></trkpt><trkpt lat="-39.4088015333" lon="-72.7097292524"><ele>91.21</ele><time>2024-09-27T03:58:25Z</time></trkpt><trkpt lat="-39.4087693468" lon="-72.7097036038"><ele>91.29</ele><time>2024-09-27T03:58:26Z</time></trkpt><trkpt lat="-39.4082707912" lon="-72.7091648988"><ele>91.72</ele><time>2024-09-27T03:58:37Z</time></trkpt><trkpt lat="-39.4078563061" lon="-72.7087008767"><ele>91.18</ele><time>2024-09-27T03:58:49Z</time></trkpt><trkpt lat="-39.4073357899" lon="-72.7081015706"><ele>90.57</ele><time>2024-09-27T03:59:07Z</time></trkpt><trkpt lat="-39.4072787929" lon="-72.7080470044"><ele>90.48</ele><time>2024-09-27T03:59:09Z</time></trkpt><trkpt lat="-39.4071025215" lon="-72.7083334979"><ele>90.33</ele><time>2024-09-27T03:59:18Z</time></trkpt><trkpt lat="-39.4072288368" lon="-72.7095714211"><ele>90.78</ele><time>2024-09-27T03:59:44Z</time></trkpt><trkpt lat="-39.4075545575" lon="-72.7101984713"><ele>90.80</ele><time>2024-09-27T03:59:58Z</time></trkpt><trkpt lat="-39.4080589805" lon="-72.7107448876"><ele>91.26</ele><time>2024-09-27T04:00:14Z</time></trkpt><trkpt lat="-39.4084817637" lon="-72.7112135198"><ele>91.50</ele><time>2024-09-27T04:00:27Z</time></trkpt><trkpt lat="-39.4090321194" lon="-72.7117598522"><ele>90.57</ele><time>2024-09-27T04:00:43Z</time></trkpt><trkpt lat="-39.4090639707" lon="-72.7117471118"><ele>90.44</ele><time>2024-09-27T04:00:44Z</time></trkpt><trkpt lat="-39.4090923015" lon="-72.7117188647"><ele>90.51</ele><time>2024-09-27T04:00:45Z</time></trkpt><trkpt lat="-39.4091167767" lon="-72.7116825711"><ele>90.62</ele><time>2024-09-27T04:00:46Z</time></trkpt><trkpt lat="-39.4091404136" lon="-72.7116422541"><ele>90.54</ele><time>2024-09-27T04:00:47Z</time></trkpt><trkpt lat="-39.4095618557" lon="-72.7109515015"><ele>91.30</ele><time>2024-09-27T04:01:00Z</time></trkpt><trkpt lat="-39.4100105390" lon="-72.7102476731"><ele>90.84</ele><time>2024-09-27T04:01:14Z</time></trkpt><trkpt lat="-39.4104249403" lon="-72.7096248977"><ele>89.93</ele><time>2024-09-27T04:01:28Z</time></trkpt><trkpt lat="-39.4105867110" lon="-72.7096850798"><ele>90.02</ele><time>2024-09-27T04:01:34Z</time></trkpt><trkpt lat="-39.4106183946" lon="-72.7097220439"><ele>89.93</ele><time>2024-09-27T04:01:35Z</time></trkpt><trkpt lat="-39.4111374859" lon="-72.7103216015"><ele>89.62</ele><time>2024-09-27T04:01:47Z</time></trkpt><trkpt lat="-39.4112013560" lon="-72.7106073406"><ele>89.32</ele><time>2024-09-27T04:01:54Z</time></trkpt><trkpt lat="-39.4107956719" lon="-72.7112303674"><ele>89.57</ele><time>2024-09-27T04:02:08Z</time></trkpt><trkpt lat="-39.4104345795" lon="-72.7117882669"><ele>90.23</ele><time>2024-09-27T04:02:22Z</time></trkpt><trkpt lat="-39.4099105429" lon="-72.7125658561"><ele>90.31</ele><time>2024-09-27T04:02:41Z</time></trkpt><trkpt lat="-39.4099101238" lon="-72.7128082607"><ele>90.00</ele><time>2024-09-27T04:02:48Z</time></trkpt><trkpt lat="-39.4104292989" lon="-72.7133609634"><ele>89.19</ele><time>2024-09-27T04:03:01Z</time></trkpt><trkpt lat="-39.4104685262" lon="-72.7134031244"><ele>89.11</ele><time>2024-09-27T04:03:02Z</time></trkpt><trkpt lat="-39.4105322286" lon="-72.7134860214"><ele>88.84</ele><time>2024-09-27T04:03:04Z</time></trkpt><trkpt lat="-39.4106143713" lon="-72.7135747857"><ele>88.75</ele><time>2024-09-27T04:03:07Z</time></trkpt><trkpt lat="-39.4106486533" lon="-72.7135732770"><ele>88.64</ele><time>2024-09-27T04:03:08Z</time></trkpt><trkpt lat="-39.4106807560" lon="-72.7135577705"><ele>88.58</ele><time>2024-09-27T04:03:09Z</time></trkpt><trkpt lat="-39.4107099250" lon="-72.7135287691"><ele>88.66</ele><time>2024-09-27T04:03:10Z</time></trkpt><trkpt lat="-39.4107372500" lon="-72.7134932298"><ele>88.62</ele><time>2024-09-27T04:03:11Z</time></trkpt><trkpt lat="-39.4107647426" lon="-72.7134534996"><ele>88.66</ele><time>2024-09-27T04:03:12Z</time></trkpt><trkpt lat="-39.4112135936" lon="-72.7127696201"><ele>88.38</ele><time>2024-09-27T04:03:25Z</time></trkpt><trkpt lat="-39.4116460159" lon="-72.7121304162"><ele>88.43</ele><time>2024-09-27T04:03:38Z</time></trkpt><trkpt lat="-39.4121046737" lon="-72.7114971634"><ele>88.28</ele><time>2024-09-27T04:03:52Z</time></trkpt><trkpt lat="-39.4121931028" lon="-72.7115051262"><ele>88.51</ele><time>2024-09-27T04:03:55Z</time></trkpt><trkpt lat="-39.4122288097" lon="-72.7115339600"><ele>88.44</ele><time>2024-09-27T04:03:56Z</time></trkpt><trkpt lat="-39.4122642651" lon="-72.7115735225"><ele>88.37</ele><time>2024-09-27T04:03:57Z</time></trkpt><trkpt lat="-39.4128681812" lon="-72.7122522052"><ele>87.76</ele><time>2024-09-27T04:04:10Z</time></trkpt><trkpt lat="-39.4128900580" lon="-72.7122985572"><ele>87.71</ele><time>2024-09-27T04:04:11Z</time></trkpt><trkpt lat="-39.4129001163" lon="-72.7123456635"><ele>87.52</ele><time>2024-09-27T04:04:12Z</time></trkpt><trkpt lat="-39.4128964283" lon="-72.7123903390"><ele>87.55</ele><time>2024-09-27T04:04:13Z</time></trkpt><trkpt lat="-39.4128820114" lon="-72.7124347631"><ele>87.59</ele><time>2024-09-27T04:04:14Z</time></trkpt><trkpt lat="-39.4128597993" lon="-72.7124794386"><ele>87.42</ele><time>2024-09-27T04:04:15Z</time></trkpt><trkpt lat="-39.4128331449" lon="-72.7125212643"><ele>87.35</ele><time>2024-09-27T04:04:16Z</time></trkpt><trkpt lat="-39.4128022157" lon="-72.7125638444"><ele>87.27</ele><time>2024-09-27T04:04:17Z</time></trkpt><trkpt lat="-39.4122879021" lon="-72.7133182995"><ele>87.66</ele><time>2024-09-27T04:04:32Z</time></trkpt><trkpt lat="-39.4122554641" lon="-72.7133587003"><ele>87.62</ele><time>2024-09-27T04:04:33Z</time></trkpt><trkpt lat="-39.4122234453" lon="-72.7133869473"><ele>87.71</ele><time>2024-09-27T04:04:34Z</time></trkpt><trkpt lat="-39.4121897500" lon="-72.7134011965"><ele>87.69</ele><time>2024-09-27T04:04:35Z</time></trkpt><trkpt lat="-39.4121550489" lon="-72.7133996040"><ele>87.77</ele><time>2024-09-27T04:04:36Z</time></trkpt><trkpt lat="-39.4121193420" lon="-72.7133866958"><ele>87.98</ele><time>2024-09-27T04:04:37Z</time></trkpt><trkpt lat="-39.4120834675" lon="-72.7133626398"><ele>87.97</ele><time>2024-09-27T04:04:38Z</time></trkpt><trkpt lat="-39.4120472576" lon="-72.7133294474"><ele>88.11</ele><time>2024-09-27T04:04:39Z</time></trkpt><trkpt lat="-39.4120091200" lon="-72.7132889628"><ele>88.05</ele><time>2024-09-27T04:04:40Z</time></trkpt><trkpt lat="-39.4114265777" lon="-72.7126182429"><ele>87.74</ele><time>2024-09-27T04:04:57Z</time></trkpt><trkpt lat="-39.4111749530" lon="-72.7123346832"><ele>88.08</ele><time>2024-09-27T04:05:06Z</time></trkpt><trkpt lat="-39.4105764851" lon="-72.7116717584"><ele>88.89</ele><time>2024-09-27T04:05:22Z</time></trkpt><trkpt lat="-39.4102126267" lon="-72.7112906333"><ele>90.06</ele><time>2024-09-27T04:05:32Z</time></trkpt><trkpt lat="-39.4095664658" lon="-72.7105804347"><ele>87.70</ele><time>2024-09-27T04:05:49Z</time></trkpt><trkpt lat="-39.4089731108" lon="-72.7099388838"><ele>86.87</ele><time>2024-09-27T04:06:03Z</time></trkpt><trkpt lat="-39.4088912196" lon="-72.7097889315"><ele>86.74</ele><time>2024-09-27T04:06:07Z</time></trkpt><trkpt lat="-39.4088956621" lon="-72.7097459324"><ele>86.83</ele><time>2024-09-27T04:06:08Z</time></trkpt><trkpt lat="-39.4089115039" lon="-72.7097049449"><ele>86.86</ele><time>2024-09-27T04:06:09Z</time></trkpt><trkpt lat="-39.4089332130" lon="-72.7096637059"><ele>86.82</ele><time>2024-09-27T04:06:10Z</time></trkpt><trkpt lat="-39.4089623820" lon="-72.7096186113"><ele>86.77</ele><time>2024-09-27T04:06:11Z</time></trkpt><trkpt lat="-39.4089969993" lon="-72.7095708344"><ele>86.76</ele><time>2024-09-27T04:06:12Z</time></trkpt><trkpt lat="-39.4095679745" lon="-72.7087363321"><ele>87.29</ele><time>2024-09-27T04:06:29Z</time></trkpt><trkpt lat="-39.4096036814" lon="-72.7086546086"><ele>87.59</ele><time>2024-09-27T04:06:32Z</time></trkpt><trkpt lat="-39.4095999096" lon="-72.7086100169"><ele>87.61</ele><time>2024-09-27T04:06:33Z</time></trkpt><trkpt lat="-39.4095835648" lon="-72.7085626591"><ele>87.67</ele><time>2024-09-27T04:06:34Z</time></trkpt><trkpt lat="-39.4095597602" lon="-72.7085213363"><ele>87.64</ele><time>2024-09-27T04:06:35Z</time></trkpt><trkpt lat="-39.4095310941" lon="-72.7084843721"><ele>87.84</ele><time>2024-09-27T04:06:36Z</time></trkpt><trkpt lat="-39.4094981533" lon="-72.7084454801"><ele>87.95</ele><time>2024-09-27T04:06:37Z</time></trkpt><trkpt lat="-39.4088596199" lon="-72.7078467607"><ele>89.35</ele><time>2024-09-27T04:06:49Z</time></trkpt><trkpt lat="-39.4087939057" lon="-72.7078104671"><ele>89.44</ele><time>2024-09-27T04:06:50Z</time></trkpt><trkpt lat="-39.4087271020" lon="-72.7077828906"><ele>89.33</ele><time>2024-09-27T04:06:51Z</time></trkpt><trkpt lat="-39.4086613879" lon="-72.7077647857"><ele>89.46</ele><time>2024-09-27T04:06:52Z</time></trkpt><trkpt lat="-39.4085958414" lon="-72.7077570744"><ele>89.32</ele><time>2024-09-27T04:06:53Z</time></trkpt><trkpt lat="-39.4085290376" lon="-72.7077548951"><ele>89.22</ele><time>2024-09-27T04:06:54Z</time></trkpt><trkpt lat="-39.4084622338" lon="-72.7077543084"><ele>89.23</ele><time>2024-09-27T04:06:55Z</time></trkpt><trkpt lat="-39.4082683604" lon="-72.7077350300"><ele>88.98</ele><time>2024-09-27T04:06:58Z</time></trkpt><trkpt lat="-39.4082091004" lon="-72.7077169251"><ele>88.88</ele><time>2024-09-27T04:06:59Z</time></trkpt><trkpt lat="-39.4081545342" lon="-72.7076934557"><ele>88.74</ele><time>2024-09-27T04:07:00Z</time></trkpt><trkpt lat="-39.4081075117" lon="-72.7076647896"><ele>88.78</ele><time>2024-09-27T04:07:01Z</time></trkpt><trkpt lat="-39.4080660213" lon="-72.7076303400"><ele>88.77</ele><time>2024-09-27T04:07:02Z</time></trkpt><trkpt lat="-39.4080298953" lon="-72.7075916156"><ele>88.65</ele><time>2024-09-27T04:07:03Z</time></trkpt><trkpt lat="-39.4079972059" lon="-72.7075477783"><ele>88.82</ele><time>2024-09-27T04:07:04Z</time></trkpt><trkpt lat="-39.4079680368" lon="-72.7074986603"><ele>88.80</ele><time>2024-09-27T04:07:05Z</time></trkpt><trkpt lat="-39.4079461601" lon="-72.7074485365"><ele>89.05</ele><time>2024-09-27T04:07:06Z</time></trkpt><trkpt lat="-39.4079311565" lon="-72.7073989995"><ele>88.91</ele><time>2024-09-27T04:07:07Z</time></trkpt><trkpt lat="-39.4079236966" lon="-72.7073511388"><ele>89.00</ele><time>2024-09-27T04:07:08Z</time></trkpt><trkpt lat="-39.4079231098" lon="-72.7073070500"><ele>89.06</ele><time>2024-09-27T04:07:09Z</time></trkpt><trkpt lat="-39.4079300668" lon="-72.7072667331"><ele>89.16</ele><time>2024-09-27T04:07:10Z</time></trkpt><trkpt lat="-39.4079430588" lon="-72.7072351333"><ele>89.08</ele><time>2024-09-27T04:07:11Z</time></trkpt><trkpt lat="-39.4079565536" lon="-72.7072155196"><ele>88.91</ele><time>2024-09-27T04:07:12Z</time></trkpt><trkpt lat="-39.4079690427" lon="-72.7072021086"><ele>89.02</ele><time>2024-09-27T04:07:13Z</time></trkpt><trkpt lat="-39.4079810288" lon="-72.7071921341"><ele>89.16</ele><time>2024-09-27T04:07:14Z</time></trkpt><trkpt lat="-39.4079930149" lon="-72.7071829140"><ele>90.38</ele><time>2024-09-27T04:07:15Z</time></trkpt><trkpt lat="-39.4080058392" lon="-72.7071749512"><ele>91.20</ele><time>2024-09-27T04:07:16Z</time></trkpt><trkpt lat="-39.4080207590" lon="-72.7071689162"><ele>91.41</ele><time>2024-09-27T04:07:17Z</time></trkpt><trkpt lat="-39.4080378581" lon="-72.7071648091"><ele>91.46</ele><time>2024-09-27T04:07:18Z</time></trkpt><trkpt lat="-39.4080548733" lon="-72.7071631327"><ele>91.45</ele><time>2024-09-27T04:07:19Z</time></trkpt><trkpt lat="-39.4080723915" lon="-72.7071621269"><ele>91.47</ele><time>2024-09-27T04:07:20Z</time></trkpt><trkpt lat="-39.4084893074" lon="-72.7070322912"><ele>91.53</ele><time>2024-09-27T04:07:35Z</time></trkpt><trkpt lat="-39.4085877109" lon="-72.7069100831"><ele>91.51</ele><time>2024-09-27T04:07:47Z</time></trkpt><trkpt lat="-39.4085410237" lon="-72.7070287708"><ele>91.58</ele><time>2024-09-27T04:08:04Z</time></trkpt><trkpt lat="-39.4084710348" lon="-72.7070492227"><ele>91.57</ele><time>2024-09-27T04:08:13Z</time></trkpt><trkpt lat="-39.4084007107" lon="-72.7071220614"><ele>91.67</ele><time>2024-09-27T04:08:25Z</time></trkpt><trkpt lat="-39.4084501639" lon="-72.7070961613"><ele>91.70</ele><time>2024-09-27T04:08:39Z</time></trkpt><trkpt lat="-39.4086415228" lon="-72.7068040520"><ele>89.36</ele><time>2024-09-27T04:08:47Z</time></trkpt><trkpt lat="-39.4086500723" lon="-72.7067460492"><ele>89.30</ele><time>2024-09-27T04:08:48Z</time></trkpt><trkpt lat="-39.4086596277" lon="-72.7065873798"><ele>89.57</ele><time>2024-09-27T04:08:50Z</time></trkpt><trkpt lat="-39.4086559396" lon="-72.7064991184"><ele>89.72</ele><time>2024-09-27T04:08:51Z</time></trkpt><trkpt lat="-39.4086448755" lon="-72.7064090967"><ele>89.88</ele><time>2024-09-27T04:08:52Z</time></trkpt><trkpt lat="-39.4086240046" lon="-72.7063183207"><ele>89.94</ele><time>2024-09-27T04:08:53Z</time></trkpt><trkpt lat="-39.4085968472" lon="-72.7062285505"><ele>90.08</ele><time>2024-09-27T04:08:54Z</time></trkpt><trkpt lat="-39.4084194023" lon="-72.7058153227"><ele>89.51</ele><time>2024-09-27T04:09:02Z</time></trkpt><trkpt lat="-39.4084195700" lon="-72.7058071923"><ele>89.53</ele><time>2024-09-27T04:09:18Z</time></trkpt><trkpt lat="-39.4084211625" lon="-72.7058215253"><ele>91.85</ele><time>2024-09-27T04:09:35Z</time></trkpt><trkpt lat="-39.4084127806" lon="-72.7058060188"><ele>91.20</ele><time>2024-09-27T04:10:02Z</time></trkpt><trkpt lat="-39.4084169716" lon="-72.7058137301"><ele>90.63</ele><time>2024-09-27T04:10:29Z</time></trkpt><trkpt lat="-39.4084244315" lon="-72.7058353554"><ele>90.64</ele><time>2024-09-27T04:10:57Z</time></trkpt></trkseg></trk></gpx>