<?xml version="1.0" encoding="UTF-8" standalone="no" ?><gpx xmlns="http://www.topografix.com/GPX/1/1" xmlns:gpxx="http://www.garmin.com/xmlschemas/GpxExtensions/v3" xmlns:gpxtrkx="http://www.garmin.com/xmlschemas/TrackStatsExtension/v1" xmlns:wptx1="http://www.garmin.com/xmlschemas/WaypointExtension/v1" xmlns:gpxtpx="http://www.garmin.com/xmlschemas/TrackPointExtension/v1" creator="GPSMAP 64sx" version="1.1" xmlns:xsi="http://www.w3.org/2001/XMLSchema-instance" xsi:schemaLocation="http://www.topografix.com/GPX/1/1 http://www.topografix.com/GPX/1/1/gpx.xsd http://www.garmin.com/xmlschemas/GpxExtensions/v3 http://www8.garmin.com/xmlschemas/GpxExtensionsv3.xsd http://www.garmin.com/xmlschemas/TrackStatsExtension/v1 http://www8.garmin.com/xmlschemas/TrackStatsExtension.xsd http://www.garmin.com/xmlschemas/WaypointExtension/v1 http://www8.garmin.com/xmlschemas/WaypointExtensionv1.xsd http://www.garmin.com/xmlschemas/TrackPointExtension/v1 http://www.garmin.com/xmlschemas/TrackPointExtensionv1.xsd"><metadata><link href="http://www.garmin.com"><text>Garmin International</text></link><time>2024-08-24T04:22:22Z</time></metadata><trk><name>GPS LAPAZ 240823</name><extensions><gpxx:TrackExtension><gpxx:DisplayColor>Cyan</gpxx:DisplayColor></gpxx:TrackExtension><gpxtrkx:TrackStatsExtension><gpxtrkx:Distance>3701.000</gpxtrkx:Distance><gpxtrkx:TotalElapsedTime>842</gpxtrkx:TotalElapsedTime><gpxtrkx:MovingTime>731</gpxtrkx:MovingTime><gpxtrkx:StoppedTime>111</gpxtrkx:StoppedTime><gpxtrkx:MovingSpeed>5.064</gpxtrkx:MovingSpeed><gpxtrkx:MaxSpeed>9.843</gpxtrkx:MaxSpeed><gpxtrkx:MaxElevation>92.008</gpxtrkx:MaxElevation><gpxtrkx:MinElevation>84.747</gpxtrkx:MinElevation><gpxtrkx:Ascent>10.000</gpxtrkx:Ascent><gpxtrkx:Descent>8.942</gpxtrkx:Descent><gpxtrkx:AvgAscentRate>0.035</gpxtrkx:AvgAscentRate><gpxtrkx:MaxAscentRate>0.151</gpxtrkx:MaxAscentRate><gpxtrkx:AvgDescentRate>0.028</gpxtrkx:AvgDescentRate><gpxtrkx:MaxDescentRate>-0.028</gpxtrkx:MaxDescentRate></gpxtrkx:TrackStatsExtension></extensions><trkseg><trkpt lat="-39.4060476590" lon="-72.7031017654"><ele>87.80</ele><time>2024-08-24T04:08:20Z</time></trkpt><trkpt lat="-39.4060478266" lon="-72.7031026036"><ele>87.80</ele><time>2024-08-24T04:08:21Z</time></trkpt><trkpt lat="-39.4060719665" lon="-72.7031414118"><ele>88.55</ele><time>2024-08-24T04:08:38Z</time></trkpt><trkpt lat="-39.4060955197" lon="-72.7031689044"><ele>87.81</ele><time>2024-08-24T04:08:39Z</time></trkpt><trkpt lat="-39.4061239343" lon="-72.7032019291"><ele>88.70</ele><time>2024-08-24T04:08:40Z</time></trkpt><trkpt lat="-39.4065604638" lon="-72.7038027439"><ele>89.71</ele><time>2024-08-24T04:08:49Z</time></trkpt><trkpt lat="-39.4070921279" lon="-72.7047881205"><ele>91.90</ele><time>2024-08-24T04:09:01Z</time></trkpt><trkpt lat="-39.4073910266" lon="-72.7058744151"><ele>88.85</ele><time>2024-08-24T04:09:13Z</time></trkpt><trkpt lat="-39.4076406397" lon="-72.7063250262"><ele>88.84</ele><time>2024-08-24T04:09:20Z</time></trkpt><trkpt lat="-39.4076604210" lon="-72.7063814364"><ele>88.83</ele><time>2024-08-24T04:09:21Z</time></trkpt><trkpt lat="-39.4076750893" lon="-72.7064453065"><ele>88.85</ele><time>2024-08-24T04:09:22Z</time></trkpt><trkpt lat="-39.4076868240" lon="-72.7065157983"><ele>88.90</ele><time>2024-08-24T04:09:23Z</time></trkpt><trkpt lat="-39.4076989777" lon="-72.7065959293"><ele>88.86</ele><time>2024-08-24T04:09:24Z</time></trkpt><trkpt lat="-39.4077341817" lon="-72.7067722846"><ele>89.03</ele><time>2024-08-24T04:09:26Z</time></trkpt><trkpt lat="-39.4077625126" lon="-72.7068592049"><ele>89.19</ele><time>2024-08-24T04:09:27Z</time></trkpt><trkpt lat="-39.4077972136" lon="-72.7069396712"><ele>89.27</ele><time>2024-08-24T04:09:28Z</time></trkpt><trkpt lat="-39.4078942761" lon="-72.7071648929"><ele>89.17</ele><time>2024-08-24T04:09:31Z</time></trkpt><trkpt lat="-39.4079059269" lon="-72.7072503883"><ele>89.23</ele><time>2024-08-24T04:09:32Z</time></trkpt><trkpt lat="-39.4079308212" lon="-72.7074274141"><ele>89.06</ele><time>2024-08-24T04:09:34Z</time></trkpt><trkpt lat="-39.4079554640" lon="-72.7075120714"><ele>88.97</ele><time>2024-08-24T04:09:35Z</time></trkpt><trkpt lat="-39.4079925120" lon="-72.7075857483"><ele>88.92</ele><time>2024-08-24T04:09:36Z</time></trkpt><trkpt lat="-39.4080406241" lon="-72.7076543961"><ele>88.83</ele><time>2024-08-24T04:09:37Z</time></trkpt><trkpt lat="-39.4080961123" lon="-72.7077148296"><ele>88.84</ele><time>2024-08-24T04:09:38Z</time></trkpt><trkpt lat="-39.4081604853" lon="-72.7077624388"><ele>88.74</ele><time>2024-08-24T04:09:39Z</time></trkpt><trkpt lat="-39.4082285464" lon="-72.7077988163"><ele>88.65</ele><time>2024-08-24T04:09:40Z</time></trkpt><trkpt lat="-39.4083002117" lon="-72.7078246325"><ele>88.67</ele><time>2024-08-24T04:09:41Z</time></trkpt><trkpt lat="-39.4083795883" lon="-72.7078324277"><ele>88.78</ele><time>2024-08-24T04:09:42Z</time></trkpt><trkpt lat="-39.4084629882" lon="-72.7078330982"><ele>88.71</ele><time>2024-08-24T04:09:43Z</time></trkpt><trkpt lat="-39.4087893795" lon="-72.7078934480"><ele>88.87</ele><time>2024-08-24T04:09:47Z</time></trkpt><trkpt lat="-39.4088657387" lon="-72.7079335973"><ele>88.93</ele><time>2024-08-24T04:09:48Z</time></trkpt><trkpt lat="-39.4089391641" lon="-72.7079843078"><ele>88.90</ele><time>2024-08-24T04:09:49Z</time></trkpt><trkpt lat="-39.4090135954" lon="-72.7080414724"><ele>88.90</ele><time>2024-08-24T04:09:50Z</time></trkpt><trkpt lat="-39.4090850931" lon="-72.7081039175"><ele>88.76</ele><time>2024-08-24T04:09:51Z</time></trkpt><trkpt lat="-39.4091528188" lon="-72.7081675362"><ele>88.61</ele><time>2024-08-24T04:09:52Z</time></trkpt><trkpt lat="-39.4095505401" lon="-72.7085716277"><ele>87.44</ele><time>2024-08-24T04:10:00Z</time></trkpt><trkpt lat="-39.4095752668" lon="-72.7086060774"><ele>87.37</ele><time>2024-08-24T04:10:01Z</time></trkpt><trkpt lat="-39.4095906895" lon="-72.7086397726"><ele>87.33</ele><time>2024-08-24T04:10:02Z</time></trkpt><trkpt lat="-39.4095950481" lon="-72.7086733002"><ele>87.30</ele><time>2024-08-24T04:10:03Z</time></trkpt><trkpt lat="-39.4095883425" lon="-72.7087111864"><ele>87.32</ele><time>2024-08-24T04:10:04Z</time></trkpt><trkpt lat="-39.4095705729" lon="-72.7087491564"><ele>87.27</ele><time>2024-08-24T04:10:05Z</time></trkpt><trkpt lat="-39.4095480256" lon="-72.7087848634"><ele>87.09</ele><time>2024-08-24T04:10:06Z</time></trkpt><trkpt lat="-39.4095204491" lon="-72.7088188939"><ele>87.03</ele><time>2024-08-24T04:10:07Z</time></trkpt><trkpt lat="-39.4094924536" lon="-72.7088549361"><ele>86.92</ele><time>2024-08-24T04:10:08Z</time></trkpt><trkpt lat="-39.4090699218" lon="-72.7094616182"><ele>86.41</ele><time>2024-08-24T04:10:21Z</time></trkpt><trkpt lat="-39.4088281039" lon="-72.7097350359"><ele>86.24</ele><time>2024-08-24T04:10:30Z</time></trkpt><trkpt lat="-39.4087949954" lon="-72.7097209543"><ele>86.48</ele><time>2024-08-24T04:10:31Z</time></trkpt><trkpt lat="-39.4087643176" lon="-72.7096968144"><ele>86.53</ele><time>2024-08-24T04:10:32Z</time></trkpt><trkpt lat="-39.4087336399" lon="-72.7096671425"><ele>86.60</ele><time>2024-08-24T04:10:33Z</time></trkpt><trkpt lat="-39.4087028783" lon="-72.7096320223"><ele>86.59</ele><time>2024-08-24T04:10:34Z</time></trkpt><trkpt lat="-39.4086679257" lon="-72.7095959801"><ele>86.60</ele><time>2024-08-24T04:10:35Z</time></trkpt><trkpt lat="-39.4086342305" lon="-72.7095554117"><ele>86.63</ele><time>2024-08-24T04:10:36Z</time></trkpt><trkpt lat="-39.4081483316" lon="-72.7090029605"><ele>86.94</ele><time>2024-08-24T04:10:52Z</time></trkpt><trkpt lat="-39.4077757560" lon="-72.7085703705"><ele>86.53</ele><time>2024-08-24T04:11:04Z</time></trkpt><trkpt lat="-39.4074122328" lon="-72.7081060968"><ele>86.18</ele><time>2024-08-24T04:11:18Z</time></trkpt><trkpt lat="-39.4073181041" lon="-72.7080092020"><ele>86.05</ele><time>2024-08-24T04:11:22Z</time></trkpt><trkpt lat="-39.4071272481" lon="-72.7082547080"><ele>86.09</ele><time>2024-08-24T04:11:31Z</time></trkpt><trkpt lat="-39.4071301818" lon="-72.7083102800"><ele>86.06</ele><time>2024-08-24T04:11:32Z</time></trkpt><trkpt lat="-39.4071946386" lon="-72.7091359813"><ele>86.33</ele><time>2024-08-24T04:11:46Z</time></trkpt><trkpt lat="-39.4072119053" lon="-72.7093728539"><ele>86.49</ele><time>2024-08-24T04:11:51Z</time></trkpt><trkpt lat="-39.4074060302" lon="-72.7099727467"><ele>86.55</ele><time>2024-08-24T04:12:05Z</time></trkpt><trkpt lat="-39.4078802783" lon="-72.7105090208"><ele>86.87</ele><time>2024-08-24T04:12:24Z</time></trkpt><trkpt lat="-39.4082634151" lon="-72.7109369170"><ele>87.58</ele><time>2024-08-24T04:12:39Z</time></trkpt><trkpt lat="-39.4087557681" lon="-72.7114752028"><ele>87.50</ele><time>2024-08-24T04:12:55Z</time></trkpt><trkpt lat="-39.4090508111" lon="-72.7117220499"><ele>87.30</ele><time>2024-08-24T04:13:06Z</time></trkpt><trkpt lat="-39.4090757892" lon="-72.7116994187"><ele>87.25</ele><time>2024-08-24T04:13:07Z</time></trkpt><trkpt lat="-39.4090980850" lon="-72.7116708364"><ele>87.20</ele><time>2024-08-24T04:13:08Z</time></trkpt><trkpt lat="-39.4094487838" lon="-72.7111152839"><ele>87.56</ele><time>2024-08-24T04:13:23Z</time></trkpt><trkpt lat="-39.4098292384" lon="-72.7105244435"><ele>87.67</ele><time>2024-08-24T04:13:39Z</time></trkpt><trkpt lat="-39.4102609903" lon="-72.7098562382"><ele>86.85</ele><time>2024-08-24T04:13:53Z</time></trkpt><trkpt lat="-39.4104677718" lon="-72.7095657215"><ele>87.08</ele><time>2024-08-24T04:14:02Z</time></trkpt><trkpt lat="-39.4104992878" lon="-72.7095754445"><ele>86.92</ele><time>2024-08-24T04:14:03Z</time></trkpt><trkpt lat="-39.4105294626" lon="-72.7096002549"><ele>86.98</ele><time>2024-08-24T04:14:04Z</time></trkpt><trkpt lat="-39.4105599727" lon="-72.7096350398"><ele>86.94</ele><time>2024-08-24T04:14:05Z</time></trkpt><trkpt lat="-39.4105944224" lon="-72.7096795477"><ele>87.01</ele><time>2024-08-24T04:14:06Z</time></trkpt><trkpt lat="-39.4112227298" lon="-72.7104289737"><ele>86.49</ele><time>2024-08-24T04:14:22Z</time></trkpt><trkpt lat="-39.4112372305" lon="-72.7105068415"><ele>86.51</ele><time>2024-08-24T04:14:24Z</time></trkpt><trkpt lat="-39.4112299383" lon="-72.7105476614"><ele>86.32</ele><time>2024-08-24T04:14:25Z</time></trkpt><trkpt lat="-39.4112131745" lon="-72.7105864696"><ele>86.15</ele><time>2024-08-24T04:14:26Z</time></trkpt><trkpt lat="-39.4111910462" lon="-72.7106219251"><ele>86.16</ele><time>2024-08-24T04:14:27Z</time></trkpt><trkpt lat="-39.4111670740" lon="-72.7106537763"><ele>85.94</ele><time>2024-08-24T04:14:28Z</time></trkpt><trkpt lat="-39.4111436047" lon="-72.7106850408"><ele>85.86</ele><time>2024-08-24T04:14:29Z</time></trkpt><trkpt lat="-39.4111223146" lon="-72.7107177302"><ele>85.90</ele><time>2024-08-24T04:14:30Z</time></trkpt><trkpt lat="-39.4107914809" lon="-72.7112809941"><ele>86.53</ele><time>2024-08-24T04:14:45Z</time></trkpt><trkpt lat="-39.4104417879" lon="-72.7118036058"><ele>87.12</ele><time>2024-08-24T04:14:59Z</time></trkpt><trkpt lat="-39.4099881593" lon="-72.7124944422"><ele>87.27</ele><time>2024-08-24T04:15:14Z</time></trkpt><trkpt lat="-39.4099469204" lon="-72.7128514275"><ele>87.05</ele><time>2024-08-24T04:15:23Z</time></trkpt><trkpt lat="-39.4099827949" lon="-72.7129004616"><ele>87.00</ele><time>2024-08-24T04:15:24Z</time></trkpt><trkpt lat="-39.4105532672" lon="-72.7135508973"><ele>86.06</ele><time>2024-08-24T04:15:38Z</time></trkpt><trkpt lat="-39.4106953405" lon="-72.7135684993"><ele>86.13</ele><time>2024-08-24T04:15:42Z</time></trkpt><trkpt lat="-39.4107345678" lon="-72.7135311998"><ele>85.92</ele><time>2024-08-24T04:15:43Z</time></trkpt><trkpt lat="-39.4107701909" lon="-72.7134832554"><ele>86.07</ele><time>2024-08-24T04:15:44Z</time></trkpt><trkpt lat="-39.4113218039" lon="-72.7126075979"><ele>85.71</ele><time>2024-08-24T04:16:00Z</time></trkpt><trkpt lat="-39.4118528813" lon="-72.7118383907"><ele>85.75</ele><time>2024-08-24T04:16:17Z</time></trkpt><trkpt lat="-39.4122019038" lon="-72.7114880271"><ele>85.93</ele><time>2024-08-24T04:16:30Z</time></trkpt><trkpt lat="-39.4122360181" lon="-72.7115231473"><ele>85.91</ele><time>2024-08-24T04:16:31Z</time></trkpt><trkpt lat="-39.4122732338" lon="-72.7115672361"><ele>85.87</ele><time>2024-08-24T04:16:32Z</time></trkpt><trkpt lat="-39.4128705282" lon="-72.7122771833"><ele>85.31</ele><time>2024-08-24T04:16:46Z</time></trkpt><trkpt lat="-39.4128918182" lon="-72.7123223618"><ele>85.30</ele><time>2024-08-24T04:16:47Z</time></trkpt><trkpt lat="-39.4129012898" lon="-72.7123645227"><ele>85.27</ele><time>2024-08-24T04:16:48Z</time></trkpt><trkpt lat="-39.4129017089" lon="-72.7124040015"><ele>85.33</ele><time>2024-08-24T04:16:49Z</time></trkpt><trkpt lat="-39.4128892198" lon="-72.7124433126"><ele>85.34</ele><time>2024-08-24T04:16:50Z</time></trkpt><trkpt lat="-39.4128634874" lon="-72.7124862280"><ele>85.03</ele><time>2024-08-24T04:16:51Z</time></trkpt><trkpt lat="-39.4128285348" lon="-72.7125314064"><ele>84.97</ele><time>2024-08-24T04:16:52Z</time></trkpt><trkpt lat="-39.4127869606" lon="-72.7125814464"><ele>84.99</ele><time>2024-08-24T04:16:53Z</time></trkpt><trkpt lat="-39.4122837950" lon="-72.7133338060"><ele>85.39</ele><time>2024-08-24T04:17:06Z</time></trkpt><trkpt lat="-39.4120665360" lon="-72.7133398410"><ele>85.88</ele><time>2024-08-24T04:17:12Z</time></trkpt><trkpt lat="-39.4115766976" lon="-72.7127407864"><ele>85.98</ele><time>2024-08-24T04:17:24Z</time></trkpt><trkpt lat="-39.4111483824" lon="-72.7122467570"><ele>86.02</ele><time>2024-08-24T04:17:37Z</time></trkpt><trkpt lat="-39.4106176402" lon="-72.7116532344"><ele>86.91</ele><time>2024-08-24T04:17:52Z</time></trkpt><trkpt lat="-39.4101840444" lon="-72.7112272661"><ele>88.31</ele><time>2024-08-24T04:18:05Z</time></trkpt><trkpt lat="-39.4098321721" lon="-72.7108292095"><ele>88.61</ele><time>2024-08-24T04:18:17Z</time></trkpt><trkpt lat="-39.4094169326" lon="-72.7103919256"><ele>88.08</ele><time>2024-08-24T04:18:31Z</time></trkpt><trkpt lat="-39.4089014456" lon="-72.7097531408"><ele>87.48</ele><time>2024-08-24T04:18:46Z</time></trkpt><trkpt lat="-39.4089101627" lon="-72.7096817270"><ele>87.40</ele><time>2024-08-24T04:18:48Z</time></trkpt><trkpt lat="-39.4089293573" lon="-72.7096476126"><ele>87.40</ele><time>2024-08-24T04:18:49Z</time></trkpt><trkpt lat="-39.4089519046" lon="-72.7096124087"><ele>87.47</ele><time>2024-08-24T04:18:50Z</time></trkpt><trkpt lat="-39.4091780484" lon="-72.7092892863"><ele>87.38</ele><time>2024-08-24T04:18:58Z</time></trkpt><trkpt lat="-39.4095750153" lon="-72.7086963505"><ele>87.94</ele><time>2024-08-24T04:19:13Z</time></trkpt><trkpt lat="-39.4096058607" lon="-72.7086354140"><ele>88.37</ele><time>2024-08-24T04:19:18Z</time></trkpt><trkpt lat="-39.4095772784" lon="-72.7085194085"><ele>88.56</ele><time>2024-08-24T04:19:21Z</time></trkpt><trkpt lat="-39.4095440861" lon="-72.7084728889"><ele>88.54</ele><time>2024-08-24T04:19:22Z</time></trkpt><trkpt lat="-39.4095011707" lon="-72.7084237710"><ele>88.80</ele><time>2024-08-24T04:19:23Z</time></trkpt><trkpt lat="-39.4087622222" lon="-72.7077736706"><ele>90.24</ele><time>2024-08-24T04:19:36Z</time></trkpt><trkpt lat="-39.4086903054" lon="-72.7077498659"><ele>90.18</ele><time>2024-08-24T04:19:37Z</time></trkpt><trkpt lat="-39.4086155389" lon="-72.7077339403"><ele>90.08</ele><time>2024-08-24T04:19:38Z</time></trkpt><trkpt lat="-39.4085407723" lon="-72.7077237144"><ele>89.98</ele><time>2024-08-24T04:19:39Z</time></trkpt><trkpt lat="-39.4084657542" lon="-72.7077179309"><ele>89.93</ele><time>2024-08-24T04:19:40Z</time></trkpt><trkpt lat="-39.4081736449" lon="-72.7076884266"><ele>89.64</ele><time>2024-08-24T04:19:44Z</time></trkpt><trkpt lat="-39.4081062544" lon="-72.7076561563"><ele>89.73</ele><time>2024-08-24T04:19:45Z</time></trkpt><trkpt lat="-39.4080531970" lon="-72.7076050267"><ele>89.67</ele><time>2024-08-24T04:19:46Z</time></trkpt><trkpt lat="-39.4080097787" lon="-72.7075442579"><ele>89.73</ele><time>2024-08-24T04:19:47Z</time></trkpt><trkpt lat="-39.4079763349" lon="-72.7074770350"><ele>89.64</ele><time>2024-08-24T04:19:48Z</time></trkpt><trkpt lat="-39.4079535361" lon="-72.7074066270"><ele>89.72</ele><time>2024-08-24T04:19:49Z</time></trkpt><trkpt lat="-39.4079440646" lon="-72.7073405776"><ele>89.79</ele><time>2024-08-24T04:19:50Z</time></trkpt><trkpt lat="-39.4079475012" lon="-72.7072798926"><ele>89.78</ele><time>2024-08-24T04:19:51Z</time></trkpt><trkpt lat="-39.4079553802" lon="-72.7072308585"><ele>89.97</ele><time>2024-08-24T04:19:52Z</time></trkpt><trkpt lat="-39.4079663604" lon="-72.7071961574"><ele>89.77</ele><time>2024-08-24T04:19:53Z</time></trkpt><trkpt lat="-39.4079788495" lon="-72.7071744483"><ele>89.81</ele><time>2024-08-24T04:19:54Z</time></trkpt><trkpt lat="-39.4079964515" lon="-72.7071565110"><ele>89.92</ele><time>2024-08-24T04:19:55Z</time></trkpt><trkpt lat="-39.4080224354" lon="-72.7071355563"><ele>90.05</ele><time>2024-08-24T04:19:56Z</time></trkpt><trkpt lat="-39.4080538675" lon="-72.7071177028"><ele>90.08</ele><time>2024-08-24T04:19:57Z</time></trkpt><trkpt lat="-39.4080937654" lon="-72.7071068063"><ele>90.12</ele><time>2024-08-24T04:19:58Z</time></trkpt><trkpt lat="-39.4081431348" lon="-72.7071006875"><ele>89.97</ele><time>2024-08-24T04:19:59Z</time></trkpt><trkpt lat="-39.4082016405" lon="-72.7070964128"><ele>90.07</ele><time>2024-08-24T04:20:00Z</time></trkpt><trkpt lat="-39.4083925802" lon="-72.7070447803"><ele>90.05</ele><time>2024-08-24T04:20:03Z</time></trkpt><trkpt lat="-39.4084512535" lon="-72.7070106659"><ele>90.07</ele><time>2024-08-24T04:20:04Z</time></trkpt><trkpt lat="-39.4086611364" lon="-72.7068261802"><ele>90.16</ele><time>2024-08-24T04:20:08Z</time></trkpt><trkpt lat="-39.4086810853" lon="-72.7067419421"><ele>90.21</ele><time>2024-08-24T04:20:09Z</time></trkpt><trkpt lat="-39.4086846057" lon="-72.7066520881"><ele>90.38</ele><time>2024-08-24T04:20:10Z</time></trkpt><trkpt lat="-39.4086816721" lon="-72.7065479010"><ele>90.37</ele><time>2024-08-24T04:20:11Z</time></trkpt><trkpt lat="-39.4086737093" lon="-72.7064516768"><ele>90.47</ele><time>2024-08-24T04:20:12Z</time></trkpt><trkpt lat="-39.4086619746" lon="-72.7063557878"><ele>90.67</ele><time>2024-08-24T04:20:13Z</time></trkpt><trkpt lat="-39.4086385053" lon="-72.7062624134"><ele>90.64</ele><time>2024-08-24T04:20:14Z</time></trkpt><trkpt lat="-39.4086116832" lon="-72.7061785944"><ele>90.68</ele><time>2024-08-24T04:20:15Z</time></trkpt><trkpt lat="-39.4085816760" lon="-72.7061017323"><ele>90.70</ele><time>2024-08-24T04:20:16Z</time></trkpt><trkpt lat="-39.4085491542" lon="-72.7060298994"><ele>90.64</ele><time>2024-08-24T04:20:17Z</time></trkpt><trkpt lat="-39.4084655028" lon="-72.7058397979"><ele>90.57</ele><time>2024-08-24T04:20:20Z</time></trkpt><trkpt lat="-39.4084368367" lon="-72.7057967149"><ele>90.47</ele><time>2024-08-24T04:20:21Z</time></trkpt><trkpt lat="-39.4083926640" lon="-72.7057276480"><ele>90.49</ele><time>2024-08-24T04:20:29Z</time></trkpt><trkpt lat="-39.4083917420" lon="-72.7057565656"><ele>90.67</ele><time>2024-08-24T04:20:59Z</time></trkpt><trkpt lat="-39.4083894789" lon="-72.7057449147"><ele>90.85</ele><time>2024-08-24T04:21:31Z</time></trkpt><trkpt lat="-39.4083867129" lon="-72.7057335991"><ele>91.24</ele><time>2024-08-24T04:22:02Z</time></trkpt></trkseg></trk></gpx>