<?xml version="1.0" encoding="UTF-8" standalone="no" ?><gpx xmlns="http://www.topografix.com/GPX/1/1" xmlns:gpxx="http://www.garmin.com/xmlschemas/GpxExtensions/v3" xmlns:gpxtrkx="http://www.garmin.com/xmlschemas/TrackStatsExtension/v1" xmlns:wptx1="http://www.garmin.com/xmlschemas/WaypointExtension/v1" xmlns:gpxtpx="http://www.garmin.com/xmlschemas/TrackPointExtension/v1" creator="GPSMAP 64sx" version="1.1" xmlns:xsi="http://www.w3.org/2001/XMLSchema-instance" xsi:schemaLocation="http://www.topografix.com/GPX/1/1 http://www.topografix.com/GPX/1/1/gpx.xsd http://www.garmin.com/xmlschemas/GpxExtensions/v3 http://www8.garmin.com/xmlschemas/GpxExtensionsv3.xsd http://www.garmin.com/xmlschemas/TrackStatsExtension/v1 http://www8.garmin.com/xmlschemas/TrackStatsExtension.xsd http://www.garmin.com/xmlschemas/WaypointExtension/v1 http://www8.garmin.com/xmlschemas/WaypointExtensionv1.xsd http://www.garmin.com/xmlschemas/TrackPointExtension/v1 http://www.garmin.com/xmlschemas/TrackPointExtensionv1.xsd"><metadata><link href="http://www.garmin.com"><text>Garmin International</text></link><time>2024-08-17T01:28:24Z</time></metadata><trk><name>GPS HUIS 240816</name><extensions><gpxx:TrackExtension><gpxx:DisplayColor>Cyan</gpxx:DisplayColor></gpxx:TrackExtension><gpxtrkx:TrackStatsExtension><gpxtrkx:Distance>12898.000</gpxtrkx:Distance><gpxtrkx:TotalElapsedTime>1905</gpxtrkx:TotalElapsedTime><gpxtrkx:MovingTime>1803</gpxtrkx:MovingTime><gpxtrkx:StoppedTime>102</gpxtrkx:StoppedTime><gpxtrkx:MovingSpeed>7.154</gpxtrkx:MovingSpeed><gpxtrkx:MaxSpeed>12.978</gpxtrkx:MaxSpeed><gpxtrkx:MaxElevation>278.730</gpxtrkx:MaxElevation><gpxtrkx:MinElevation>208.573</gpxtrkx:MinElevation><gpxtrkx:Ascent>147.000</gpxtrkx:Ascent><gpxtrkx:Descent>138.033</gpxtrkx:Descent><gpxtrkx:AvgAscentRate>0.115</gpxtrkx:AvgAscentRate><gpxtrkx:MaxAscentRate>0.610</gpxtrkx:MaxAscentRate><gpxtrkx:AvgDescentRate>0.120</gpxtrkx:AvgDescentRate><gpxtrkx:MaxDescentRate>-0.970</gpxtrkx:MaxDescentRate></gpxtrkx:TrackStatsExtension></extensions><trkseg><trkpt lat="-39.2730928212" lon="-72.4095846992"><ele>278.73</ele><time>2024-08-17T00:56:39Z</time></trkpt><trkpt lat="-39.2730948329" lon="-72.4095816817"><ele>278.73</ele><time>2024-08-17T00:56:40Z</time></trkpt><trkpt lat="-39.2730985209" lon="-72.4095746409"><ele>241.45</ele><time>2024-08-17T00:56:43Z</time></trkpt><trkpt lat="-39.2730999459" lon="-72.4095727131"><ele>241.45</ele><time>2024-08-17T00:56:44Z</time></trkpt><trkpt lat="-39.2731281091" lon="-72.4095593859"><ele>241.75</ele><time>2024-08-17T00:56:52Z</time></trkpt><trkpt lat="-39.2731623910" lon="-72.4095514230"><ele>241.78</ele><time>2024-08-17T00:56:54Z</time></trkpt><trkpt lat="-39.2731918115" lon="-72.4095479026"><ele>242.04</ele><time>2024-08-17T00:56:55Z</time></trkpt><trkpt lat="-39.2732236627" lon="-72.4095464777"><ele>242.12</ele><time>2024-08-17T00:56:56Z</time></trkpt><trkpt lat="-39.2732610460" lon="-72.4095501658"><ele>242.00</ele><time>2024-08-17T00:56:57Z</time></trkpt><trkpt lat="-39.2733067274" lon="-72.4095585477"><ele>242.27</ele><time>2024-08-17T00:56:58Z</time></trkpt><trkpt lat="-39.2740231287" lon="-72.4097733758"><ele>242.13</ele><time>2024-08-17T00:57:08Z</time></trkpt><trkpt lat="-39.2752577830" lon="-72.4101441912"><ele>242.51</ele><time>2024-08-17T00:57:21Z</time></trkpt><trkpt lat="-39.2765597440" lon="-72.4103056267"><ele>243.64</ele><time>2024-08-17T00:57:33Z</time></trkpt><trkpt lat="-39.2776331306" lon="-72.4099048041"><ele>242.96</ele><time>2024-08-17T00:57:44Z</time></trkpt><trkpt lat="-39.2784619331" lon="-72.4098266847"><ele>239.75</ele><time>2024-08-17T00:57:54Z</time></trkpt><trkpt lat="-39.2789707147" lon="-72.4100110866"><ele>236.08</ele><time>2024-08-17T00:58:00Z</time></trkpt><trkpt lat="-39.2791353352" lon="-72.4101339653"><ele>234.31</ele><time>2024-08-17T00:58:02Z</time></trkpt><trkpt lat="-39.2792137060" lon="-72.4102134258"><ele>233.42</ele><time>2024-08-17T00:58:03Z</time></trkpt><trkpt lat="-39.2795353197" lon="-72.4105666392"><ele>229.67</ele><time>2024-08-17T00:58:07Z</time></trkpt><trkpt lat="-39.2797461245" lon="-72.4108745065"><ele>226.48</ele><time>2024-08-17T00:58:10Z</time></trkpt><trkpt lat="-39.2799713463" lon="-72.4111799430"><ele>223.47</ele><time>2024-08-17T00:58:13Z</time></trkpt><trkpt lat="-39.2802890204" lon="-72.4115665164"><ele>219.75</ele><time>2024-08-17T00:58:17Z</time></trkpt><trkpt lat="-39.2803797964" lon="-72.4116335716"><ele>218.82</ele><time>2024-08-17T00:58:18Z</time></trkpt><trkpt lat="-39.2804671358" lon="-72.4117041472"><ele>217.87</ele><time>2024-08-17T00:58:19Z</time></trkpt><trkpt lat="-39.2809024919" lon="-72.4118750542"><ele>214.30</ele><time>2024-08-17T00:58:23Z</time></trkpt><trkpt lat="-39.2816359084" lon="-72.4121304508"><ele>211.20</ele><time>2024-08-17T00:58:30Z</time></trkpt><trkpt lat="-39.2828413937" lon="-72.4125278369"><ele>209.63</ele><time>2024-08-17T00:58:43Z</time></trkpt><trkpt lat="-39.2841696739" lon="-72.4129695632"><ele>210.83</ele><time>2024-08-17T00:58:57Z</time></trkpt><trkpt lat="-39.2850309145" lon="-72.4132283963"><ele>213.07</ele><time>2024-08-17T00:59:07Z</time></trkpt><trkpt lat="-39.2861436959" lon="-72.4136053305"><ele>216.78</ele><time>2024-08-17T00:59:21Z</time></trkpt><trkpt lat="-39.2862260062" lon="-72.4136313982"><ele>216.01</ele><time>2024-08-17T00:59:22Z</time></trkpt><trkpt lat="-39.2877892312" lon="-72.4142775591"><ele>214.18</ele><time>2024-08-17T00:59:41Z</time></trkpt><trkpt lat="-39.2888585106" lon="-72.4144678283"><ele>211.92</ele><time>2024-08-17T00:59:54Z</time></trkpt><trkpt lat="-39.2899066675" lon="-72.4141280260"><ele>209.26</ele><time>2024-08-17T01:00:07Z</time></trkpt><trkpt lat="-39.2908458598" lon="-72.4132946972"><ele>209.06</ele><time>2024-08-17T01:00:21Z</time></trkpt><trkpt lat="-39.2911633663" lon="-72.4128182698"><ele>210.39</ele><time>2024-08-17T01:00:27Z</time></trkpt><trkpt lat="-39.2913668789" lon="-72.4123729393"><ele>212.04</ele><time>2024-08-17T01:00:32Z</time></trkpt><trkpt lat="-39.2916646041" lon="-72.4114917498"><ele>215.16</ele><time>2024-08-17T01:00:41Z</time></trkpt><trkpt lat="-39.2920017242" lon="-72.4105305132"><ele>218.36</ele><time>2024-08-17T01:00:51Z</time></trkpt><trkpt lat="-39.2923698574" lon="-72.4094380997"><ele>220.96</ele><time>2024-08-17T01:01:06Z</time></trkpt><trkpt lat="-39.2922030576" lon="-72.4092110340"><ele>220.42</ele><time>2024-08-17T01:01:15Z</time></trkpt><trkpt lat="-39.2914687190" lon="-72.4088120554"><ele>217.70</ele><time>2024-08-17T01:01:28Z</time></trkpt><trkpt lat="-39.2910696566" lon="-72.4085740093"><ele>217.36</ele><time>2024-08-17T01:01:36Z</time></trkpt><trkpt lat="-39.2910166830" lon="-72.4083214626"><ele>217.55</ele><time>2024-08-17T01:01:41Z</time></trkpt><trkpt lat="-39.2913212813" lon="-72.4076349847"><ele>218.56</ele><time>2024-08-17T01:01:54Z</time></trkpt><trkpt lat="-39.2913899291" lon="-72.4076560233"><ele>218.93</ele><time>2024-08-17T01:01:56Z</time></trkpt><trkpt lat="-39.2915971298" lon="-72.4078068975"><ele>219.48</ele><time>2024-08-17T01:02:01Z</time></trkpt><trkpt lat="-39.2922907323" lon="-72.4083534814"><ele>221.88</ele><time>2024-08-17T01:02:17Z</time></trkpt><trkpt lat="-39.2925801594" lon="-72.4086113088"><ele>223.37</ele><time>2024-08-17T01:02:30Z</time></trkpt><trkpt lat="-39.2924851086" lon="-72.4089651927"><ele>222.93</ele><time>2024-08-17T01:02:38Z</time></trkpt><trkpt lat="-39.2923821788" lon="-72.4093018938"><ele>221.95</ele><time>2024-08-17T01:02:44Z</time></trkpt><trkpt lat="-39.2923875432" lon="-72.4093409535"><ele>221.86</ele><time>2024-08-17T01:02:45Z</time></trkpt><trkpt lat="-39.2923995294" lon="-72.4093694519"><ele>221.96</ele><time>2024-08-17T01:02:46Z</time></trkpt><trkpt lat="-39.2924188916" lon="-72.4093917478"><ele>221.80</ele><time>2024-08-17T01:02:47Z</time></trkpt><trkpt lat="-39.2924430314" lon="-72.4094104394"><ele>221.77</ele><time>2024-08-17T01:02:48Z</time></trkpt><trkpt lat="-39.2924696021" lon="-72.4094277062"><ele>221.73</ele><time>2024-08-17T01:02:49Z</time></trkpt><trkpt lat="-39.2925479729" lon="-72.4094799254"><ele>221.79</ele><time>2024-08-17T01:02:51Z</time></trkpt><trkpt lat="-39.2931823991" lon="-72.4098421913"><ele>224.90</ele><time>2024-08-17T01:03:01Z</time></trkpt><trkpt lat="-39.2936122231" lon="-72.4101075623"><ele>228.35</ele><time>2024-08-17T01:03:08Z</time></trkpt><trkpt lat="-39.2938526161" lon="-72.4102496356"><ele>231.69</ele><time>2024-08-17T01:03:13Z</time></trkpt><trkpt lat="-39.2938931845" lon="-72.4102672376"><ele>232.16</ele><time>2024-08-17T01:03:14Z</time></trkpt><trkpt lat="-39.2939309869" lon="-72.4102782179"><ele>232.59</ele><time>2024-08-17T01:03:15Z</time></trkpt><trkpt lat="-39.2939694598" lon="-72.4102783855"><ele>232.98</ele><time>2024-08-17T01:03:16Z</time></trkpt><trkpt lat="-39.2940073460" lon="-72.4102652259"><ele>233.40</ele><time>2024-08-17T01:03:17Z</time></trkpt><trkpt lat="-39.2940443102" lon="-72.4102432653"><ele>233.80</ele><time>2024-08-17T01:03:18Z</time></trkpt><trkpt lat="-39.2940799333" lon="-72.4102156051"><ele>233.96</ele><time>2024-08-17T01:03:19Z</time></trkpt><trkpt lat="-39.2941149697" lon="-72.4101874419"><ele>234.12</ele><time>2024-08-17T01:03:20Z</time></trkpt><trkpt lat="-39.2942422070" lon="-72.4101006053"><ele>234.95</ele><time>2024-08-17T01:03:29Z</time></trkpt><trkpt lat="-39.2942593899" lon="-72.4100928102"><ele>235.01</ele><time>2024-08-17T01:03:34Z</time></trkpt><trkpt lat="-39.2943243496" lon="-72.4100226536"><ele>235.52</ele><time>2024-08-17T01:03:37Z</time></trkpt><trkpt lat="-39.2943919916" lon="-72.4098115973"><ele>236.34</ele><time>2024-08-17T01:03:43Z</time></trkpt><trkpt lat="-39.2943730485" lon="-72.4097659159"><ele>236.54</ele><time>2024-08-17T01:03:44Z</time></trkpt><trkpt lat="-39.2940826155" lon="-72.4091902468"><ele>233.09</ele><time>2024-08-17T01:03:53Z</time></trkpt><trkpt lat="-39.2939090263" lon="-72.4088574015"><ele>230.01</ele><time>2024-08-17T01:03:59Z</time></trkpt><trkpt lat="-39.2937586550" lon="-72.4086517934"><ele>229.01</ele><time>2024-08-17T01:04:10Z</time></trkpt><trkpt lat="-39.2936920188" lon="-72.4086116441"><ele>229.37</ele><time>2024-08-17T01:04:12Z</time></trkpt><trkpt lat="-39.2930797208" lon="-72.4081895314"><ele>227.94</ele><time>2024-08-17T01:04:24Z</time></trkpt><trkpt lat="-39.2929107416" lon="-72.4080581870"><ele>226.32</ele><time>2024-08-17T01:04:33Z</time></trkpt><trkpt lat="-39.2929002643" lon="-72.4080329575"><ele>226.06</ele><time>2024-08-17T01:04:35Z</time></trkpt><trkpt lat="-39.2928962409" lon="-72.4080101587"><ele>226.19</ele><time>2024-08-17T01:04:36Z</time></trkpt><trkpt lat="-39.2928967439" lon="-72.4079760443"><ele>226.18</ele><time>2024-08-17T01:04:37Z</time></trkpt><trkpt lat="-39.2929026950" lon="-72.4079340510"><ele>226.30</ele><time>2024-08-17T01:04:38Z</time></trkpt><trkpt lat="-39.2929135077" lon="-72.4078875314"><ele>226.83</ele><time>2024-08-17T01:04:39Z</time></trkpt><trkpt lat="-39.2929291818" lon="-72.4078327138"><ele>226.90</ele><time>2024-08-17T01:04:40Z</time></trkpt><trkpt lat="-39.2932039406" lon="-72.4070417974"><ele>230.01</ele><time>2024-08-17T01:04:50Z</time></trkpt><trkpt lat="-39.2934029270" lon="-72.4064725824"><ele>233.19</ele><time>2024-08-17T01:04:57Z</time></trkpt><trkpt lat="-39.2935096286" lon="-72.4063181877"><ele>234.40</ele><time>2024-08-17T01:05:04Z</time></trkpt><trkpt lat="-39.2937378678" lon="-72.4064112268"><ele>237.60</ele><time>2024-08-17T01:05:12Z</time></trkpt><trkpt lat="-39.2942832783" lon="-72.4067725707"><ele>238.56</ele><time>2024-08-17T01:05:24Z</time></trkpt><trkpt lat="-39.2944487371" lon="-72.4069620017"><ele>237.71</ele><time>2024-08-17T01:05:31Z</time></trkpt><trkpt lat="-39.2944381759" lon="-72.4070154782"><ele>237.58</ele><time>2024-08-17T01:05:32Z</time></trkpt><trkpt lat="-39.2944174726" lon="-72.4070765823"><ele>237.43</ele><time>2024-08-17T01:05:33Z</time></trkpt><trkpt lat="-39.2941484135" lon="-72.4078354798"><ele>234.40</ele><time>2024-08-17T01:05:43Z</time></trkpt><trkpt lat="-39.2938692123" lon="-72.4085542280"><ele>231.08</ele><time>2024-08-17T01:05:53Z</time></trkpt><trkpt lat="-39.2938622553" lon="-72.4086447526"><ele>230.62</ele><time>2024-08-17T01:05:55Z</time></trkpt><trkpt lat="-39.2938766722" lon="-72.4086775258"><ele>230.29</ele><time>2024-08-17T01:05:56Z</time></trkpt><trkpt lat="-39.2939014826" lon="-72.4086983968"><ele>230.19</ele><time>2024-08-17T01:05:57Z</time></trkpt><trkpt lat="-39.2939386144" lon="-72.4086997379"><ele>230.29</ele><time>2024-08-17T01:05:58Z</time></trkpt><trkpt lat="-39.2939780094" lon="-72.4086855724"><ele>231.09</ele><time>2024-08-17T01:05:59Z</time></trkpt><trkpt lat="-39.2940212600" lon="-72.4086598400"><ele>231.65</ele><time>2024-08-17T01:06:00Z</time></trkpt><trkpt lat="-39.2940697074" lon="-72.4086252227"><ele>232.18</ele><time>2024-08-17T01:06:01Z</time></trkpt><trkpt lat="-39.2943318095" lon="-72.4084075447"><ele>235.60</ele><time>2024-08-17T01:06:06Z</time></trkpt><trkpt lat="-39.2945960909" lon="-72.4081786349"><ele>239.10</ele><time>2024-08-17T01:06:11Z</time></trkpt><trkpt lat="-39.2947051395" lon="-72.4080855120"><ele>239.85</ele><time>2024-08-17T01:06:13Z</time></trkpt><trkpt lat="-39.2952397373" lon="-72.4076294526"><ele>243.00</ele><time>2024-08-17T01:06:24Z</time></trkpt><trkpt lat="-39.2953367159" lon="-72.4075017963"><ele>243.94</ele><time>2024-08-17T01:06:28Z</time></trkpt><trkpt lat="-39.2953347042" lon="-72.4074566178"><ele>244.04</ele><time>2024-08-17T01:06:29Z</time></trkpt><trkpt lat="-39.2953170184" lon="-72.4074148759"><ele>244.06</ele><time>2024-08-17T01:06:30Z</time></trkpt><trkpt lat="-39.2952845804" lon="-72.4073830247"><ele>243.86</ele><time>2024-08-17T01:06:31Z</time></trkpt><trkpt lat="-39.2952456884" lon="-72.4073523469"><ele>243.71</ele><time>2024-08-17T01:06:32Z</time></trkpt><trkpt lat="-39.2947462946" lon="-72.4070131313"><ele>240.69</ele><time>2024-08-17T01:06:41Z</time></trkpt><trkpt lat="-39.2945502419" lon="-72.4068807811"><ele>238.59</ele><time>2024-08-17T01:06:46Z</time></trkpt><trkpt lat="-39.2945352383" lon="-72.4068517797"><ele>238.35</ele><time>2024-08-17T01:06:47Z</time></trkpt><trkpt lat="-39.2945289519" lon="-72.4068122171"><ele>238.31</ele><time>2024-08-17T01:06:48Z</time></trkpt><trkpt lat="-39.2945322208" lon="-72.4067636020"><ele>238.18</ele><time>2024-08-17T01:06:49Z</time></trkpt><trkpt lat="-39.2945492361" lon="-72.4067062698"><ele>238.33</ele><time>2024-08-17T01:06:50Z</time></trkpt><trkpt lat="-39.2945753876" lon="-72.4066390470"><ele>238.53</ele><time>2024-08-17T01:06:51Z</time></trkpt><trkpt lat="-39.2947811633" lon="-72.4060660601"><ele>241.80</ele><time>2024-08-17T01:06:58Z</time></trkpt><trkpt lat="-39.2950236518" lon="-72.4054167140"><ele>243.28</ele><time>2024-08-17T01:07:06Z</time></trkpt><trkpt lat="-39.2950337101" lon="-72.4053415284"><ele>243.42</ele><time>2024-08-17T01:07:07Z</time></trkpt><trkpt lat="-39.2950346321" lon="-72.4052672647"><ele>243.32</ele><time>2024-08-17T01:07:08Z</time></trkpt><trkpt lat="-39.2950285971" lon="-72.4051932525"><ele>243.43</ele><time>2024-08-17T01:07:09Z</time></trkpt><trkpt lat="-39.2950183712" lon="-72.4051137920"><ele>243.41</ele><time>2024-08-17T01:07:10Z</time></trkpt><trkpt lat="-39.2949761264" lon="-72.4047249556"><ele>243.86</ele><time>2024-08-17T01:07:18Z</time></trkpt><trkpt lat="-39.2949824128" lon="-72.4047097005"><ele>243.92</ele><time>2024-08-17T01:07:19Z</time></trkpt><trkpt lat="-39.2949933931" lon="-72.4046923500"><ele>243.83</ele><time>2024-08-17T01:07:20Z</time></trkpt><trkpt lat="-39.2950143479" lon="-72.4046727363"><ele>244.11</ele><time>2024-08-17T01:07:21Z</time></trkpt><trkpt lat="-39.2950454447" lon="-72.4046541285"><ele>244.20</ele><time>2024-08-17T01:07:22Z</time></trkpt><trkpt lat="-39.2950835824" lon="-72.4046387896"><ele>244.34</ele><time>2024-08-17T01:07:23Z</time></trkpt><trkpt lat="-39.2951310240" lon="-72.4046227802"><ele>244.58</ele><time>2024-08-17T01:07:24Z</time></trkpt><trkpt lat="-39.2957154103" lon="-72.4044536334"><ele>246.41</ele><time>2024-08-17T01:07:32Z</time></trkpt><trkpt lat="-39.2959743273" lon="-72.4043852370"><ele>246.50</ele><time>2024-08-17T01:07:39Z</time></trkpt><trkpt lat="-39.2959988024" lon="-72.4043965526"><ele>246.53</ele><time>2024-08-17T01:07:40Z</time></trkpt><trkpt lat="-39.2960219365" lon="-72.4044196028"><ele>246.73</ele><time>2024-08-17T01:07:41Z</time></trkpt><trkpt lat="-39.2960421368" lon="-72.4044612609"><ele>246.70</ele><time>2024-08-17T01:07:42Z</time></trkpt><trkpt lat="-39.2960579786" lon="-72.4045209400"><ele>246.88</ele><time>2024-08-17T01:07:43Z</time></trkpt><trkpt lat="-39.2960706353" lon="-72.4045958742"><ele>246.81</ele><time>2024-08-17T01:07:44Z</time></trkpt><trkpt lat="-39.2960843816" lon="-72.4046803638"><ele>247.02</ele><time>2024-08-17T01:07:45Z</time></trkpt><trkpt lat="-39.2962200008" lon="-72.4056659080"><ele>246.54</ele><time>2024-08-17T01:07:58Z</time></trkpt><trkpt lat="-39.2961022351" lon="-72.4057491403"><ele>246.66</ele><time>2024-08-17T01:08:02Z</time></trkpt><trkpt lat="-39.2953793798" lon="-72.4059603643"><ele>245.66</ele><time>2024-08-17T01:08:13Z</time></trkpt><trkpt lat="-39.2952000909" lon="-72.4060426746"><ele>244.74</ele><time>2024-08-17T01:08:18Z</time></trkpt><trkpt lat="-39.2951829080" lon="-72.4060881883"><ele>244.83</ele><time>2024-08-17T01:08:19Z</time></trkpt><trkpt lat="-39.2951828241" lon="-72.4061550759"><ele>244.92</ele><time>2024-08-17T01:08:20Z</time></trkpt><trkpt lat="-39.2951943073" lon="-72.4062389787"><ele>245.00</ele><time>2024-08-17T01:08:21Z</time></trkpt><trkpt lat="-39.2952101491" lon="-72.4063363764"><ele>245.16</ele><time>2024-08-17T01:08:22Z</time></trkpt><trkpt lat="-39.2954074591" lon="-72.4073573761"><ele>245.61</ele><time>2024-08-17T01:08:34Z</time></trkpt><trkpt lat="-39.2954422440" lon="-72.4073941726"><ele>245.60</ele><time>2024-08-17T01:08:35Z</time></trkpt><trkpt lat="-39.2954854947" lon="-72.4074131995"><ele>245.61</ele><time>2024-08-17T01:08:36Z</time></trkpt><trkpt lat="-39.2955395579" lon="-72.4074106012"><ele>245.68</ele><time>2024-08-17T01:08:37Z</time></trkpt><trkpt lat="-39.2956013326" lon="-72.4073976930"><ele>245.82</ele><time>2024-08-17T01:08:38Z</time></trkpt><trkpt lat="-39.2964585498" lon="-72.4071234372"><ele>246.35</ele><time>2024-08-17T01:08:49Z</time></trkpt><trkpt lat="-39.2968402617" lon="-72.4069675338"><ele>245.34</ele><time>2024-08-17T01:08:58Z</time></trkpt><trkpt lat="-39.2970036250" lon="-72.4066980556"><ele>245.76</ele><time>2024-08-17T01:09:08Z</time></trkpt><trkpt lat="-39.2970727757" lon="-72.4065354466"><ele>247.31</ele><time>2024-08-17T01:09:12Z</time></trkpt><trkpt lat="-39.2970746197" lon="-72.4063984863"><ele>247.59</ele><time>2024-08-17T01:09:15Z</time></trkpt><trkpt lat="-39.2970287707" lon="-72.4062345363"><ele>247.79</ele><time>2024-08-17T01:09:18Z</time></trkpt><trkpt lat="-39.2970211431" lon="-72.4056938197"><ele>248.05</ele><time>2024-08-17T01:09:30Z</time></trkpt><trkpt lat="-39.2972119991" lon="-72.4056033790"><ele>247.58</ele><time>2024-08-17T01:09:37Z</time></trkpt><trkpt lat="-39.2972388212" lon="-72.4053832702"><ele>247.90</ele><time>2024-08-17T01:09:43Z</time></trkpt><trkpt lat="-39.2971843388" lon="-72.4050814379"><ele>248.48</ele><time>2024-08-17T01:09:49Z</time></trkpt><trkpt lat="-39.2972055450" lon="-72.4048883189"><ele>248.70</ele><time>2024-08-17T01:09:53Z</time></trkpt><trkpt lat="-39.2972213030" lon="-72.4048572220"><ele>248.85</ele><time>2024-08-17T01:09:54Z</time></trkpt><trkpt lat="-39.2972396594" lon="-72.4048346747"><ele>249.09</ele><time>2024-08-17T01:09:55Z</time></trkpt><trkpt lat="-39.2972549144" lon="-72.4048188329"><ele>249.28</ele><time>2024-08-17T01:09:56Z</time></trkpt><trkpt lat="-39.2972652242" lon="-72.4048055056"><ele>249.39</ele><time>2024-08-17T01:09:57Z</time></trkpt><trkpt lat="-39.2972976621" lon="-72.4046918470"><ele>249.60</ele><time>2024-08-17T01:10:01Z</time></trkpt><trkpt lat="-39.2971705087" lon="-72.4039620347"><ele>250.94</ele><time>2024-08-17T01:10:10Z</time></trkpt><trkpt lat="-39.2971645575" lon="-72.4037392437"><ele>250.83</ele><time>2024-08-17T01:10:16Z</time></trkpt><trkpt lat="-39.2971949838" lon="-72.4037171155"><ele>250.99</ele><time>2024-08-17T01:10:17Z</time></trkpt><trkpt lat="-39.2972487956" lon="-72.4037002679"><ele>251.07</ele><time>2024-08-17T01:10:18Z</time></trkpt><trkpt lat="-39.2978727445" lon="-72.4035518244"><ele>252.42</ele><time>2024-08-17T01:10:27Z</time></trkpt><trkpt lat="-39.2979183421" lon="-72.4035611283"><ele>252.39</ele><time>2024-08-17T01:10:28Z</time></trkpt><trkpt lat="-39.2979627661" lon="-72.4035897944"><ele>252.31</ele><time>2024-08-17T01:10:29Z</time></trkpt><trkpt lat="-39.2980026640" lon="-72.4036428519"><ele>252.29</ele><time>2024-08-17T01:10:30Z</time></trkpt><trkpt lat="-39.2980416398" lon="-72.4037118349"><ele>252.16</ele><time>2024-08-17T01:10:31Z</time></trkpt><trkpt lat="-39.2985804286" lon="-72.4046272226"><ele>249.77</ele><time>2024-08-17T01:10:43Z</time></trkpt><trkpt lat="-39.2986215837" lon="-72.4046669528"><ele>249.56</ele><time>2024-08-17T01:10:44Z</time></trkpt><trkpt lat="-39.2986709531" lon="-72.4046886619"><ele>249.51</ele><time>2024-08-17T01:10:45Z</time></trkpt><trkpt lat="-39.2987251841" lon="-72.4046984687"><ele>249.36</ele><time>2024-08-17T01:10:46Z</time></trkpt><trkpt lat="-39.2987836059" lon="-72.4046947807"><ele>249.30</ele><time>2024-08-17T01:10:47Z</time></trkpt><trkpt lat="-39.2988470569" lon="-72.4046790227"><ele>249.18</ele><time>2024-08-17T01:10:48Z</time></trkpt><trkpt lat="-39.2989159562" lon="-72.4046587385"><ele>249.32</ele><time>2024-08-17T01:10:49Z</time></trkpt><trkpt lat="-39.2994481232" lon="-72.4045102112"><ele>248.37</ele><time>2024-08-17T01:10:58Z</time></trkpt><trkpt lat="-39.3000690546" lon="-72.4043463450"><ele>248.80</ele><time>2024-08-17T01:11:07Z</time></trkpt><trkpt lat="-39.3004540354" lon="-72.4042321835"><ele>249.28</ele><time>2024-08-17T01:11:13Z</time></trkpt><trkpt lat="-39.3004871439" lon="-72.4041871727"><ele>249.52</ele><time>2024-08-17T01:11:14Z</time></trkpt><trkpt lat="-39.3004975375" lon="-72.4041243084"><ele>249.76</ele><time>2024-08-17T01:11:15Z</time></trkpt><trkpt lat="-39.3004987109" lon="-72.4040554091"><ele>250.08</ele><time>2024-08-17T01:11:16Z</time></trkpt><trkpt lat="-39.3004931789" lon="-72.4039826542"><ele>250.48</ele><time>2024-08-17T01:11:17Z</time></trkpt><trkpt lat="-39.3004868086" lon="-72.4039086420"><ele>250.79</ele><time>2024-08-17T01:11:18Z</time></trkpt><trkpt lat="-39.3004221004" lon="-72.4035530817"><ele>252.62</ele><time>2024-08-17T01:11:24Z</time></trkpt><trkpt lat="-39.3003794365" lon="-72.4034262635"><ele>253.85</ele><time>2024-08-17T01:11:26Z</time></trkpt><trkpt lat="-39.3003677018" lon="-72.4033544306"><ele>254.60</ele><time>2024-08-17T01:11:27Z</time></trkpt><trkpt lat="-39.3003130518" lon="-72.4029976968"><ele>257.72</ele><time>2024-08-17T01:11:32Z</time></trkpt><trkpt lat="-39.3001527060" lon="-72.4028302263"><ele>258.32</ele><time>2024-08-17T01:11:39Z</time></trkpt><trkpt lat="-39.3000962120" lon="-72.4028319865"><ele>257.73</ele><time>2024-08-17T01:11:40Z</time></trkpt><trkpt lat="-39.3000326771" lon="-72.4028447270"><ele>257.13</ele><time>2024-08-17T01:11:41Z</time></trkpt><trkpt lat="-39.2997191101" lon="-72.4029277079"><ele>254.11</ele><time>2024-08-17T01:11:45Z</time></trkpt><trkpt lat="-39.2989339773" lon="-72.4031778239"><ele>251.94</ele><time>2024-08-17T01:11:56Z</time></trkpt><trkpt lat="-39.2981733195" lon="-72.4033865333"><ele>251.99</ele><time>2024-08-17T01:12:07Z</time></trkpt><trkpt lat="-39.2980986368" lon="-72.4033664167"><ele>252.20</ele><time>2024-08-17T01:12:11Z</time></trkpt><trkpt lat="-39.2980810348" lon="-72.4033302907"><ele>252.37</ele><time>2024-08-17T01:12:12Z</time></trkpt><trkpt lat="-39.2980675399" lon="-72.4032792449"><ele>252.40</ele><time>2024-08-17T01:12:13Z</time></trkpt><trkpt lat="-39.2980591580" lon="-72.4032162130"><ele>252.53</ele><time>2024-08-17T01:12:14Z</time></trkpt><trkpt lat="-39.2980495188" lon="-72.4031464756"><ele>252.68</ele><time>2024-08-17T01:12:15Z</time></trkpt><trkpt lat="-39.2978974711" lon="-72.4022020027"><ele>254.43</ele><time>2024-08-17T01:12:26Z</time></trkpt><trkpt lat="-39.2978906818" lon="-72.4021399766"><ele>254.56</ele><time>2024-08-17T01:12:27Z</time></trkpt><trkpt lat="-39.2978951242" lon="-72.4020902719"><ele>254.66</ele><time>2024-08-17T01:12:28Z</time></trkpt><trkpt lat="-39.2979167495" lon="-72.4020547327"><ele>254.71</ele><time>2024-08-17T01:12:29Z</time></trkpt><trkpt lat="-39.2979623470" lon="-72.4020266533"><ele>254.59</ele><time>2024-08-17T01:12:30Z</time></trkpt><trkpt lat="-39.2980199307" lon="-72.4020056147"><ele>254.71</ele><time>2024-08-17T01:12:31Z</time></trkpt><trkpt lat="-39.2980871536" lon="-72.4019874260"><ele>254.62</ele><time>2024-08-17T01:12:32Z</time></trkpt><trkpt lat="-39.2981608305" lon="-72.4019676447"><ele>254.83</ele><time>2024-08-17T01:12:33Z</time></trkpt><trkpt lat="-39.2989988532" lon="-72.4017385673"><ele>257.40</ele><time>2024-08-17T01:12:45Z</time></trkpt><trkpt lat="-39.2993680760" lon="-72.4016593583"><ele>259.63</ele><time>2024-08-17T01:12:50Z</time></trkpt><trkpt lat="-39.2999776918" lon="-72.4014961626"><ele>261.61</ele><time>2024-08-17T01:13:00Z</time></trkpt><trkpt lat="-39.3000011612" lon="-72.4014702626"><ele>261.69</ele><time>2024-08-17T01:13:01Z</time></trkpt><trkpt lat="-39.3000164162" lon="-72.4014282692"><ele>261.75</ele><time>2024-08-17T01:13:02Z</time></trkpt><trkpt lat="-39.3000237085" lon="-72.4013754632"><ele>261.69</ele><time>2024-08-17T01:13:03Z</time></trkpt><trkpt lat="-39.3000211101" lon="-72.4013094977"><ele>261.57</ele><time>2024-08-17T01:13:04Z</time></trkpt><trkpt lat="-39.3000101298" lon="-72.4012353178"><ele>261.31</ele><time>2024-08-17T01:13:05Z</time></trkpt><trkpt lat="-39.2999957129" lon="-72.4011541810"><ele>261.28</ele><time>2024-08-17T01:13:06Z</time></trkpt><trkpt lat="-39.2998317629" lon="-72.4001914356"><ele>259.32</ele><time>2024-08-17T01:13:17Z</time></trkpt><trkpt lat="-39.2997948825" lon="-72.4001498614"><ele>259.11</ele><time>2024-08-17T01:13:18Z</time></trkpt><trkpt lat="-39.2997441720" lon="-72.4001272302"><ele>259.06</ele><time>2024-08-17T01:13:19Z</time></trkpt><trkpt lat="-39.2996823136" lon="-72.4001251347"><ele>259.01</ele><time>2024-08-17T01:13:20Z</time></trkpt><trkpt lat="-39.2996111512" lon="-72.4001386296"><ele>258.98</ele><time>2024-08-17T01:13:21Z</time></trkpt><trkpt lat="-39.2995338701" lon="-72.4001576565"><ele>258.79</ele><time>2024-08-17T01:13:22Z</time></trkpt><trkpt lat="-39.2987612262" lon="-72.4003696349"><ele>255.79</ele><time>2024-08-17T01:13:34Z</time></trkpt><trkpt lat="-39.2982039973" lon="-72.4005157314"><ele>255.71</ele><time>2024-08-17T01:13:42Z</time></trkpt><trkpt lat="-39.2975520529" lon="-72.4006656837"><ele>254.42</ele><time>2024-08-17T01:13:52Z</time></trkpt><trkpt lat="-39.2972106580" lon="-72.4006846268"><ele>250.77</ele><time>2024-08-17T01:13:56Z</time></trkpt><trkpt lat="-39.2968762200" lon="-72.4006875604"><ele>248.68</ele><time>2024-08-17T01:14:00Z</time></trkpt><trkpt lat="-39.2964655906" lon="-72.4006700423"><ele>247.67</ele><time>2024-08-17T01:14:08Z</time></trkpt><trkpt lat="-39.2964427918" lon="-72.4006122909"><ele>247.68</ele><time>2024-08-17T01:14:09Z</time></trkpt><trkpt lat="-39.2961837072" lon="-72.4000730831"><ele>247.73</ele><time>2024-08-17T01:14:16Z</time></trkpt><trkpt lat="-39.2961261235" lon="-72.4000103027"><ele>247.64</ele><time>2024-08-17T01:14:17Z</time></trkpt><trkpt lat="-39.2960660253" lon="-72.3999583349"><ele>247.62</ele><time>2024-08-17T01:14:18Z</time></trkpt><trkpt lat="-39.2960045859" lon="-72.3999151681"><ele>247.69</ele><time>2024-08-17T01:14:19Z</time></trkpt><trkpt lat="-39.2959490977" lon="-72.3998810537"><ele>247.84</ele><time>2024-08-17T01:14:20Z</time></trkpt><trkpt lat="-39.2958937772" lon="-72.3998554051"><ele>247.95</ele><time>2024-08-17T01:14:21Z</time></trkpt><trkpt lat="-39.2958406359" lon="-72.3998400662"><ele>248.32</ele><time>2024-08-17T01:14:22Z</time></trkpt><trkpt lat="-39.2957985587" lon="-72.3998329416"><ele>248.65</ele><time>2024-08-17T01:14:23Z</time></trkpt><trkpt lat="-39.2957674619" lon="-72.3998309299"><ele>248.95</ele><time>2024-08-17T01:14:24Z</time></trkpt><trkpt lat="-39.2957420647" lon="-72.3998312652"><ele>249.14</ele><time>2024-08-17T01:14:25Z</time></trkpt><trkpt lat="-39.2957218643" lon="-72.3998307623"><ele>249.22</ele><time>2024-08-17T01:14:26Z</time></trkpt><trkpt lat="-39.2956612632" lon="-72.3998016771"><ele>248.82</ele><time>2024-08-17T01:14:30Z</time></trkpt><trkpt lat="-39.2956460919" lon="-72.3997672275"><ele>248.75</ele><time>2024-08-17T01:14:31Z</time></trkpt><trkpt lat="-39.2956345249" lon="-72.3997218814"><ele>248.89</ele><time>2024-08-17T01:14:32Z</time></trkpt><trkpt lat="-39.2955061141" lon="-72.3990165442"><ele>250.28</ele><time>2024-08-17T01:14:40Z</time></trkpt><trkpt lat="-39.2951393221" lon="-72.3974162713"><ele>253.52</ele><time>2024-08-17T01:14:56Z</time></trkpt><trkpt lat="-39.2950693332" lon="-72.3969102558"><ele>255.70</ele><time>2024-08-17T01:15:01Z</time></trkpt><trkpt lat="-39.2950071394" lon="-72.3960240372"><ele>258.72</ele><time>2024-08-17T01:15:10Z</time></trkpt><trkpt lat="-39.2950410862" lon="-72.3945501633"><ele>261.80</ele><time>2024-08-17T01:15:24Z</time></trkpt><trkpt lat="-39.2949832510" lon="-72.3929311987"><ele>263.43</ele><time>2024-08-17T01:15:40Z</time></trkpt><trkpt lat="-39.2946600448" lon="-72.3916677106"><ele>263.37</ele><time>2024-08-17T01:15:53Z</time></trkpt><trkpt lat="-39.2938335892" lon="-72.3899660166"><ele>263.51</ele><time>2024-08-17T01:16:12Z</time></trkpt><trkpt lat="-39.2934734188" lon="-72.3891901039"><ele>263.62</ele><time>2024-08-17T01:16:22Z</time></trkpt><trkpt lat="-39.2934580799" lon="-72.3890956398"><ele>263.49</ele><time>2024-08-17T01:16:23Z</time></trkpt><trkpt lat="-39.2934542242" lon="-72.3889966495"><ele>263.59</ele><time>2024-08-17T01:16:24Z</time></trkpt><trkpt lat="-39.2934605945" lon="-72.3888969887"><ele>263.69</ele><time>2024-08-17T01:16:25Z</time></trkpt><trkpt lat="-39.2934769392" lon="-72.3887983337"><ele>263.81</ele><time>2024-08-17T01:16:26Z</time></trkpt><trkpt lat="-39.2934948765" lon="-72.3886974994"><ele>263.73</ele><time>2024-08-17T01:16:27Z</time></trkpt><trkpt lat="-39.2939024046" lon="-72.3866620380"><ele>265.22</ele><time>2024-08-17T01:16:47Z</time></trkpt><trkpt lat="-39.2941421270" lon="-72.3853455763"><ele>267.62</ele><time>2024-08-17T01:17:00Z</time></trkpt><trkpt lat="-39.2942783330" lon="-72.3844664823"><ele>270.96</ele><time>2024-08-17T01:17:09Z</time></trkpt><trkpt lat="-39.2945378367" lon="-72.3831073567"><ele>273.90</ele><time>2024-08-17T01:17:22Z</time></trkpt><trkpt lat="-39.2948310357" lon="-72.3817069083"><ele>273.98</ele><time>2024-08-17T01:17:35Z</time></trkpt><trkpt lat="-39.2951586843" lon="-72.3801432643"><ele>271.70</ele><time>2024-08-17T01:17:50Z</time></trkpt><trkpt lat="-39.2953565810" lon="-72.3791534454"><ele>268.65</ele><time>2024-08-17T01:17:59Z</time></trkpt><trkpt lat="-39.2956106365" lon="-72.3778744508"><ele>265.63</ele><time>2024-08-17T01:18:11Z</time></trkpt><trkpt lat="-39.2960018199" lon="-72.3761077970"><ele>264.40</ele><time>2024-08-17T01:18:28Z</time></trkpt><trkpt lat="-39.2962187435" lon="-72.3750520963"><ele>263.11</ele><time>2024-08-17T01:18:38Z</time></trkpt><trkpt lat="-39.2962421291" lon="-72.3749515135"><ele>262.86</ele><time>2024-08-17T01:18:39Z</time></trkpt><trkpt lat="-39.2965131160" lon="-72.3739038594"><ele>261.35</ele><time>2024-08-17T01:18:51Z</time></trkpt><trkpt lat="-39.2965635750" lon="-72.3736321181"><ele>260.83</ele><time>2024-08-17T01:18:58Z</time></trkpt><trkpt lat="-39.2965587974" lon="-72.3736130074"><ele>260.83</ele><time>2024-08-17T01:18:59Z</time></trkpt><trkpt lat="-39.2965461407" lon="-72.3735967465"><ele>260.81</ele><time>2024-08-17T01:19:00Z</time></trkpt><trkpt lat="-39.2965597194" lon="-72.3735668231"><ele>260.90</ele><time>2024-08-17T01:19:10Z</time></trkpt><trkpt lat="-39.2965111881" lon="-72.3737022746"><ele>261.12</ele><time>2024-08-17T01:19:17Z</time></trkpt><trkpt lat="-39.2963485792" lon="-72.3745183367"><ele>262.45</ele><time>2024-08-17T01:19:26Z</time></trkpt><trkpt lat="-39.2959782667" lon="-72.3762796260"><ele>265.03</ele><time>2024-08-17T01:19:43Z</time></trkpt><trkpt lat="-39.2954305932" lon="-72.3789826222"><ele>268.14</ele><time>2024-08-17T01:20:09Z</time></trkpt><trkpt lat="-39.2952647991" lon="-72.3798009474"><ele>271.24</ele><time>2024-08-17T01:20:17Z</time></trkpt><trkpt lat="-39.2952440120" lon="-72.3799038772"><ele>271.51</ele><time>2024-08-17T01:20:18Z</time></trkpt><trkpt lat="-39.2949371506" lon="-72.3814594746"><ele>274.53</ele><time>2024-08-17T01:20:33Z</time></trkpt><trkpt lat="-39.2947070673" lon="-72.3826289177"><ele>275.09</ele><time>2024-08-17T01:20:44Z</time></trkpt><trkpt lat="-39.2943323962" lon="-72.3845454399"><ele>271.91</ele><time>2024-08-17T01:21:02Z</time></trkpt><trkpt lat="-39.2941474076" lon="-72.3854965344"><ele>268.88</ele><time>2024-08-17T01:21:11Z</time></trkpt><trkpt lat="-39.2938392889" lon="-72.3871836439"><ele>265.95</ele><time>2024-08-17T01:21:27Z</time></trkpt><trkpt lat="-39.2934745923" lon="-72.3890604358"><ele>264.98</ele><time>2024-08-17T01:21:45Z</time></trkpt><trkpt lat="-39.2934745923" lon="-72.3891665507"><ele>264.91</ele><time>2024-08-17T01:21:46Z</time></trkpt><trkpt lat="-39.2934865784" lon="-72.3892721627"><ele>265.03</ele><time>2024-08-17T01:21:47Z</time></trkpt><trkpt lat="-39.2935103830" lon="-72.3893754277"><ele>265.01</ele><time>2024-08-17T01:21:48Z</time></trkpt><trkpt lat="-39.2935455032" lon="-72.3894746695"><ele>264.89</ele><time>2024-08-17T01:21:49Z</time></trkpt><trkpt lat="-39.2935859878" lon="-72.3895706423"><ele>264.90</ele><time>2024-08-17T01:21:50Z</time></trkpt><trkpt lat="-39.2942396086" lon="-72.3908251617"><ele>264.86</ele><time>2024-08-17T01:22:04Z</time></trkpt><trkpt lat="-39.2948591989" lon="-72.3924588785"><ele>265.28</ele><time>2024-08-17T01:22:21Z</time></trkpt><trkpt lat="-39.2950344644" lon="-72.3939435650"><ele>265.04</ele><time>2024-08-17T01:22:35Z</time></trkpt><trkpt lat="-39.2950118333" lon="-72.3957941215"><ele>261.83</ele><time>2024-08-17T01:22:52Z</time></trkpt><trkpt lat="-39.2950083129" lon="-72.3965272028"><ele>259.42</ele><time>2024-08-17T01:23:02Z</time></trkpt><trkpt lat="-39.2949897051" lon="-72.3965535220"><ele>259.51</ele><time>2024-08-17T01:23:03Z</time></trkpt><trkpt lat="-39.2949622963" lon="-72.3965712916"><ele>259.40</ele><time>2024-08-17T01:23:04Z</time></trkpt><trkpt lat="-39.2949296907" lon="-72.3965754826"><ele>259.46</ele><time>2024-08-17T01:23:05Z</time></trkpt><trkpt lat="-39.2948920559" lon="-72.3965681065"><ele>259.33</ele><time>2024-08-17T01:23:06Z</time></trkpt><trkpt lat="-39.2948465422" lon="-72.3965510074"><ele>259.42</ele><time>2024-08-17T01:23:07Z</time></trkpt><trkpt lat="-39.2947932333" lon="-72.3965269513"><ele>259.49</ele><time>2024-08-17T01:23:08Z</time></trkpt><trkpt lat="-39.2937522847" lon="-72.3960815370"><ele>262.63</ele><time>2024-08-17T01:23:23Z</time></trkpt><trkpt lat="-39.2927640583" lon="-72.3956561554"><ele>265.71</ele><time>2024-08-17T01:23:36Z</time></trkpt><trkpt lat="-39.2924535088" lon="-72.3955654632"><ele>266.70</ele><time>2024-08-17T01:23:44Z</time></trkpt><trkpt lat="-39.2924414389" lon="-72.3955782037"><ele>266.73</ele><time>2024-08-17T01:23:45Z</time></trkpt><trkpt lat="-39.2924595438" lon="-72.3955637030"><ele>266.42</ele><time>2024-08-17T01:23:56Z</time></trkpt><trkpt lat="-39.2924671713" lon="-72.3955786228"><ele>266.48</ele><time>2024-08-17T01:23:57Z</time></trkpt><trkpt lat="-39.2924827617" lon="-72.3955922853"><ele>266.52</ele><time>2024-08-17T01:23:58Z</time></trkpt><trkpt lat="-39.2925046384" lon="-72.3956056125"><ele>266.46</ele><time>2024-08-17T01:23:59Z</time></trkpt><trkpt lat="-39.2925376631" lon="-72.3956187721"><ele>266.38</ele><time>2024-08-17T01:24:00Z</time></trkpt><trkpt lat="-39.2925783992" lon="-72.3956387211"><ele>266.28</ele><time>2024-08-17T01:24:01Z</time></trkpt><trkpt lat="-39.2926333845" lon="-72.3956650402"><ele>266.21</ele><time>2024-08-17T01:24:02Z</time></trkpt><trkpt lat="-39.2936143186" lon="-72.3960765917"><ele>263.28</ele><time>2024-08-17T01:24:16Z</time></trkpt><trkpt lat="-39.2943219189" lon="-72.3963697907"><ele>260.25</ele><time>2024-08-17T01:24:26Z</time></trkpt><trkpt lat="-39.2949350551" lon="-72.3966277018"><ele>259.07</ele><time>2024-08-17T01:24:38Z</time></trkpt><trkpt lat="-39.2950213887" lon="-72.3969733715"><ele>258.25</ele><time>2024-08-17T01:24:46Z</time></trkpt><trkpt lat="-39.2951844167" lon="-72.3977340292"><ele>255.21</ele><time>2024-08-17T01:24:54Z</time></trkpt><trkpt lat="-39.2955304217" lon="-72.3992928956"><ele>252.14</ele><time>2024-08-17T01:25:10Z</time></trkpt><trkpt lat="-39.2956178449" lon="-72.3998369649"><ele>251.13</ele><time>2024-08-17T01:25:17Z</time></trkpt><trkpt lat="-39.2956107203" lon="-72.3999106418"><ele>250.95</ele><time>2024-08-17T01:25:18Z</time></trkpt><trkpt lat="-39.2954028491" lon="-72.4008756503"><ele>248.28</ele><time>2024-08-17T01:25:28Z</time></trkpt><trkpt lat="-39.2953899410" lon="-72.4009860400"><ele>248.12</ele><time>2024-08-17T01:25:29Z</time></trkpt><trkpt lat="-39.2953859176" lon="-72.4010929931"><ele>247.73</ele><time>2024-08-17T01:25:30Z</time></trkpt><trkpt lat="-39.2953896057" lon="-72.4011989404"><ele>247.44</ele><time>2024-08-17T01:25:31Z</time></trkpt><trkpt lat="-39.2956244666" lon="-72.4024862330"><ele>248.17</ele><time>2024-08-17T01:25:44Z</time></trkpt><trkpt lat="-39.2958020791" lon="-72.4032856990"><ele>251.27</ele><time>2024-08-17T01:25:52Z</time></trkpt><trkpt lat="-39.2959775124" lon="-72.4042174313"><ele>251.58</ele><time>2024-08-17T01:26:04Z</time></trkpt><trkpt lat="-39.2959639337" lon="-72.4043097999"><ele>251.27</ele><time>2024-08-17T01:26:07Z</time></trkpt><trkpt lat="-39.2959430628" lon="-72.4043306708"><ele>251.25</ele><time>2024-08-17T01:26:08Z</time></trkpt><trkpt lat="-39.2959195934" lon="-72.4043423217"><ele>251.24</ele><time>2024-08-17T01:26:09Z</time></trkpt><trkpt lat="-39.2958950344" lon="-72.4043486081"><ele>251.12</ele><time>2024-08-17T01:26:10Z</time></trkpt><trkpt lat="-39.2958702240" lon="-72.4043540563"><ele>251.07</ele><time>2024-08-17T01:26:11Z</time></trkpt><trkpt lat="-39.2957796156" lon="-72.4043489434"><ele>250.85</ele><time>2024-08-17T01:26:24Z</time></trkpt><trkpt lat="-39.2958025821" lon="-72.4043383822"><ele>251.02</ele><time>2024-08-17T01:27:20Z</time></trkpt><trkpt lat="-39.2957750894" lon="-72.4043419864"><ele>251.52</ele><time>2024-08-17T01:27:59Z</time></trkpt></trkseg></trk></gpx>