<?xml version="1.0" encoding="UTF-8" standalone="no" ?><gpx xmlns="http://www.topografix.com/GPX/1/1" xmlns:gpxx="http://www.garmin.com/xmlschemas/GpxExtensions/v3" xmlns:gpxtrkx="http://www.garmin.com/xmlschemas/TrackStatsExtension/v1" xmlns:wptx1="http://www.garmin.com/xmlschemas/WaypointExtension/v1" xmlns:gpxtpx="http://www.garmin.com/xmlschemas/TrackPointExtension/v1" creator="GPSMAP 64sx" version="1.1" xmlns:xsi="http://www.w3.org/2001/XMLSchema-instance" xsi:schemaLocation="http://www.topografix.com/GPX/1/1 http://www.topografix.com/GPX/1/1/gpx.xsd http://www.garmin.com/xmlschemas/GpxExtensions/v3 http://www8.garmin.com/xmlschemas/GpxExtensionsv3.xsd http://www.garmin.com/xmlschemas/TrackStatsExtension/v1 http://www8.garmin.com/xmlschemas/TrackStatsExtension.xsd http://www.garmin.com/xmlschemas/WaypointExtension/v1 http://www8.garmin.com/xmlschemas/WaypointExtensionv1.xsd http://www.garmin.com/xmlschemas/TrackPointExtension/v1 http://www.garmin.com/xmlschemas/TrackPointExtensionv1.xsd"><metadata><link href="http://www.garmin.com"><text>Garmin International</text></link><time>2024-08-14T02:25:39Z</time></metadata><trk><name>240813 LONCO 1</name><extensions><gpxx:TrackExtension><gpxx:DisplayColor>Cyan</gpxx:DisplayColor></gpxx:TrackExtension><gpxtrkx:TrackStatsExtension><gpxtrkx:Distance>9759.000</gpxtrkx:Distance><gpxtrkx:TotalElapsedTime>1567</gpxtrkx:TotalElapsedTime><gpxtrkx:MovingTime>1377</gpxtrkx:MovingTime><gpxtrkx:StoppedTime>189</gpxtrkx:StoppedTime><gpxtrkx:MovingSpeed>7.088</gpxtrkx:MovingSpeed><gpxtrkx:MaxSpeed>16.887</gpxtrkx:MaxSpeed><gpxtrkx:MaxElevation>150.215</gpxtrkx:MaxElevation><gpxtrkx:MinElevation>108.044</gpxtrkx:MinElevation><gpxtrkx:Ascent>57.000</gpxtrkx:Ascent><gpxtrkx:Descent>77.596</gpxtrkx:Descent><gpxtrkx:AvgAscentRate>0.057</gpxtrkx:AvgAscentRate><gpxtrkx:MaxAscentRate>0.838</gpxtrkx:MaxAscentRate><gpxtrkx:AvgDescentRate>0.084</gpxtrkx:AvgDescentRate><gpxtrkx:MaxDescentRate>-0.707</gpxtrkx:MaxDescentRate></gpxtrkx:TrackStatsExtension></extensions><trkseg><trkpt lat="-39.3541639298" lon="-72.5777292810"><ele>142.70</ele><time>2024-08-14T01:59:32Z</time></trkpt><trkpt lat="-39.3541630916" lon="-72.5777299516"><ele>142.70</ele><time>2024-08-14T01:59:33Z</time></trkpt><trkpt lat="-39.3541638460" lon="-72.5777290296"><ele>150.14</ele><time>2024-08-14T01:59:37Z</time></trkpt><trkpt lat="-39.3541676179" lon="-72.5777222402"><ele>150.14</ele><time>2024-08-14T01:59:38Z</time></trkpt><trkpt lat="-39.3541996367" lon="-72.5777050573"><ele>150.00</ele><time>2024-08-14T01:59:50Z</time></trkpt><trkpt lat="-39.3544508424" lon="-72.5778619666"><ele>149.53</ele><time>2024-08-14T02:00:00Z</time></trkpt><trkpt lat="-39.3544814363" lon="-72.5779062230"><ele>149.35</ele><time>2024-08-14T02:00:01Z</time></trkpt><trkpt lat="-39.3545494974" lon="-72.5780042075"><ele>149.10</ele><time>2024-08-14T02:00:03Z</time></trkpt><trkpt lat="-39.3545957655" lon="-72.5780469552"><ele>149.04</ele><time>2024-08-14T02:00:04Z</time></trkpt><trkpt lat="-39.3546480685" lon="-72.5780829974"><ele>149.04</ele><time>2024-08-14T02:00:05Z</time></trkpt><trkpt lat="-39.3546997849" lon="-72.5781057123"><ele>149.06</ele><time>2024-08-14T02:00:06Z</time></trkpt><trkpt lat="-39.3547479808" lon="-72.5781235658"><ele>149.06</ele><time>2024-08-14T02:00:07Z</time></trkpt><trkpt lat="-39.3547965121" lon="-72.5781467836"><ele>149.07</ele><time>2024-08-14T02:00:08Z</time></trkpt><trkpt lat="-39.3548442889" lon="-72.5781761203"><ele>149.08</ele><time>2024-08-14T02:00:09Z</time></trkpt><trkpt lat="-39.3548875395" lon="-72.5782216340"><ele>149.09</ele><time>2024-08-14T02:00:10Z</time></trkpt><trkpt lat="-39.3549225759" lon="-72.5782863423"><ele>149.10</ele><time>2024-08-14T02:00:11Z</time></trkpt><trkpt lat="-39.3549543433" lon="-72.5783621985"><ele>149.10</ele><time>2024-08-14T02:00:12Z</time></trkpt><trkpt lat="-39.3553446047" lon="-72.5794971082"><ele>148.72</ele><time>2024-08-14T02:00:23Z</time></trkpt><trkpt lat="-39.3559847306" lon="-72.5812886562"><ele>147.98</ele><time>2024-08-14T02:00:36Z</time></trkpt><trkpt lat="-39.3567518424" lon="-72.5833739061"><ele>146.68</ele><time>2024-08-14T02:00:50Z</time></trkpt><trkpt lat="-39.3576960638" lon="-72.5859092642"><ele>145.22</ele><time>2024-08-14T02:01:07Z</time></trkpt><trkpt lat="-39.3587973621" lon="-72.5888483785"><ele>143.56</ele><time>2024-08-14T02:01:26Z</time></trkpt><trkpt lat="-39.3596167769" lon="-72.5910374802"><ele>142.24</ele><time>2024-08-14T02:01:40Z</time></trkpt><trkpt lat="-39.3605543766" lon="-72.5935725030"><ele>140.90</ele><time>2024-08-14T02:01:56Z</time></trkpt><trkpt lat="-39.3615508173" lon="-72.5962727331"><ele>138.89</ele><time>2024-08-14T02:02:13Z</time></trkpt><trkpt lat="-39.3623891752" lon="-72.5986084342"><ele>136.93</ele><time>2024-08-14T02:02:27Z</time></trkpt><trkpt lat="-39.3632159662" lon="-72.6009872183"><ele>135.08</ele><time>2024-08-14T02:02:41Z</time></trkpt><trkpt lat="-39.3637725245" lon="-72.6032659225"><ele>133.23</ele><time>2024-08-14T02:02:54Z</time></trkpt><trkpt lat="-39.3639982492" lon="-72.6052481588"><ele>130.51</ele><time>2024-08-14T02:03:05Z</time></trkpt><trkpt lat="-39.3640114088" lon="-72.6072428841"><ele>127.30</ele><time>2024-08-14T02:03:16Z</time></trkpt><trkpt lat="-39.3639467005" lon="-72.6096098498"><ele>123.85</ele><time>2024-08-14T02:03:29Z</time></trkpt><trkpt lat="-39.3639167771" lon="-72.6105479524"><ele>120.80</ele><time>2024-08-14T02:03:34Z</time></trkpt><trkpt lat="-39.3638880271" lon="-72.6114898268"><ele>117.56</ele><time>2024-08-14T02:03:39Z</time></trkpt><trkpt lat="-39.3638750352" lon="-72.6118644979"><ele>116.76</ele><time>2024-08-14T02:03:41Z</time></trkpt><trkpt lat="-39.3638456985" lon="-72.6126093138"><ele>114.54</ele><time>2024-08-14T02:03:45Z</time></trkpt><trkpt lat="-39.3636357319" lon="-72.6145203877"><ele>112.46</ele><time>2024-08-14T02:03:55Z</time></trkpt><trkpt lat="-39.3630215898" lon="-72.6167126745"><ele>111.74</ele><time>2024-08-14T02:04:07Z</time></trkpt><trkpt lat="-39.3620805535" lon="-72.6186126005"><ele>115.52</ele><time>2024-08-14T02:04:19Z</time></trkpt><trkpt lat="-39.3614216521" lon="-72.6195567381"><ele>119.01</ele><time>2024-08-14T02:04:26Z</time></trkpt><trkpt lat="-39.3608192448" lon="-72.6202024799"><ele>123.75</ele><time>2024-08-14T02:04:32Z</time></trkpt><trkpt lat="-39.3606326636" lon="-72.6203868818"><ele>125.07</ele><time>2024-08-14T02:04:34Z</time></trkpt><trkpt lat="-39.3603508640" lon="-72.6206043921"><ele>125.49</ele><time>2024-08-14T02:04:37Z</time></trkpt><trkpt lat="-39.3602522928" lon="-72.6206533425"><ele>125.94</ele><time>2024-08-14T02:04:38Z</time></trkpt><trkpt lat="-39.3601556495" lon="-72.6206875406"><ele>126.17</ele><time>2024-08-14T02:04:39Z</time></trkpt><trkpt lat="-39.3600596767" lon="-72.6207105070"><ele>125.96</ele><time>2024-08-14T02:04:40Z</time></trkpt><trkpt lat="-39.3599650450" lon="-72.6207220741"><ele>125.83</ele><time>2024-08-14T02:04:41Z</time></trkpt><trkpt lat="-39.3598739337" lon="-72.6207291149"><ele>124.39</ele><time>2024-08-14T02:04:42Z</time></trkpt><trkpt lat="-39.3595705926" lon="-72.6208314579"><ele>121.10</ele><time>2024-08-14T02:04:46Z</time></trkpt><trkpt lat="-39.3595140148" lon="-72.6208667457"><ele>120.44</ele><time>2024-08-14T02:04:47Z</time></trkpt><trkpt lat="-39.3593454547" lon="-72.6210071426"><ele>117.42</ele><time>2024-08-14T02:04:55Z</time></trkpt><trkpt lat="-39.3593467120" lon="-72.6210078131"><ele>117.29</ele><time>2024-08-14T02:05:07Z</time></trkpt><trkpt lat="-39.3593306188" lon="-72.6210140157"><ele>117.44</ele><time>2024-08-14T02:05:08Z</time></trkpt><trkpt lat="-39.3593153637" lon="-72.6210233197"><ele>117.34</ele><time>2024-08-14T02:05:09Z</time></trkpt><trkpt lat="-39.3592999410" lon="-72.6210343000"><ele>117.24</ele><time>2024-08-14T02:05:10Z</time></trkpt><trkpt lat="-39.3592833448" lon="-72.6210450288"><ele>117.16</ele><time>2024-08-14T02:05:11Z</time></trkpt><trkpt lat="-39.3592638150" lon="-72.6210657321"><ele>117.34</ele><time>2024-08-14T02:05:12Z</time></trkpt><trkpt lat="-39.3592160381" lon="-72.6213140041"><ele>114.79</ele><time>2024-08-14T02:05:19Z</time></trkpt><trkpt lat="-39.3592354003" lon="-72.6213863399"><ele>116.94</ele><time>2024-08-14T02:05:20Z</time></trkpt><trkpt lat="-39.3592656590" lon="-72.6214577537"><ele>115.94</ele><time>2024-08-14T02:05:21Z</time></trkpt><trkpt lat="-39.3593415152" lon="-72.6216160040"><ele>114.07</ele><time>2024-08-14T02:05:23Z</time></trkpt><trkpt lat="-39.3598171882" lon="-72.6225322299"><ele>112.31</ele><time>2024-08-14T02:05:32Z</time></trkpt><trkpt lat="-39.3598912004" lon="-72.6226344053"><ele>112.33</ele><time>2024-08-14T02:05:33Z</time></trkpt><trkpt lat="-39.3599755224" lon="-72.6227228343"><ele>112.37</ele><time>2024-08-14T02:05:34Z</time></trkpt><trkpt lat="-39.3600695673" lon="-72.6227902249"><ele>112.40</ele><time>2024-08-14T02:05:35Z</time></trkpt><trkpt lat="-39.3601679709" lon="-72.6228421088"><ele>110.35</ele><time>2024-08-14T02:05:36Z</time></trkpt><trkpt lat="-39.3602724094" lon="-72.6228794921"><ele>110.00</ele><time>2024-08-14T02:05:37Z</time></trkpt><trkpt lat="-39.3603787757" lon="-72.6229049731"><ele>109.85</ele><time>2024-08-14T02:05:38Z</time></trkpt><trkpt lat="-39.3604815379" lon="-72.6229220722"><ele>109.74</ele><time>2024-08-14T02:05:39Z</time></trkpt><trkpt lat="-39.3605822884" lon="-72.6229322981"><ele>109.96</ele><time>2024-08-14T02:05:40Z</time></trkpt><trkpt lat="-39.3616620451" lon="-72.6233831607"><ele>111.55</ele><time>2024-08-14T02:05:51Z</time></trkpt><trkpt lat="-39.3617424276" lon="-72.6234663092"><ele>111.32</ele><time>2024-08-14T02:05:52Z</time></trkpt><trkpt lat="-39.3622930348" lon="-72.6240135636"><ele>110.28</ele><time>2024-08-14T02:05:59Z</time></trkpt><trkpt lat="-39.3623822182" lon="-72.6240638550"><ele>110.04</ele><time>2024-08-14T02:06:00Z</time></trkpt><trkpt lat="-39.3624760956" lon="-72.6240988076"><ele>110.06</ele><time>2024-08-14T02:06:01Z</time></trkpt><trkpt lat="-39.3625715654" lon="-72.6241178345"><ele>110.17</ele><time>2024-08-14T02:06:02Z</time></trkpt><trkpt lat="-39.3626668677" lon="-72.6241280604"><ele>110.28</ele><time>2024-08-14T02:06:03Z</time></trkpt><trkpt lat="-39.3627627566" lon="-72.6241323352"><ele>110.26</ele><time>2024-08-14T02:06:04Z</time></trkpt><trkpt lat="-39.3633701093" lon="-72.6242536213"><ele>110.78</ele><time>2024-08-14T02:06:11Z</time></trkpt><trkpt lat="-39.3634490669" lon="-72.6243043318"><ele>110.70</ele><time>2024-08-14T02:06:12Z</time></trkpt><trkpt lat="-39.3635264318" lon="-72.6243611611"><ele>110.68</ele><time>2024-08-14T02:06:13Z</time></trkpt><trkpt lat="-39.3635970075" lon="-72.6244259533"><ele>110.76</ele><time>2024-08-14T02:06:14Z</time></trkpt><trkpt lat="-39.3636532500" lon="-72.6244911645"><ele>110.90</ele><time>2024-08-14T02:06:15Z</time></trkpt><trkpt lat="-39.3637016136" lon="-72.6245545316"><ele>110.79</ele><time>2024-08-14T02:06:16Z</time></trkpt><trkpt lat="-39.3638087343" lon="-72.6246192399"><ele>110.52</ele><time>2024-08-14T02:06:19Z</time></trkpt><trkpt lat="-39.3638333771" lon="-72.6245967764"><ele>110.80</ele><time>2024-08-14T02:06:20Z</time></trkpt><trkpt lat="-39.3638488837" lon="-72.6245546155"><ele>110.78</ele><time>2024-08-14T02:06:21Z</time></trkpt><trkpt lat="-39.3638564274" lon="-72.6244990434"><ele>110.54</ele><time>2024-08-14T02:06:22Z</time></trkpt><trkpt lat="-39.3638646416" lon="-72.6244271267"><ele>110.29</ele><time>2024-08-14T02:06:23Z</time></trkpt><trkpt lat="-39.3638787232" lon="-72.6240327582"><ele>108.49</ele><time>2024-08-14T02:06:28Z</time></trkpt><trkpt lat="-39.3638703413" lon="-72.6239771862"><ele>108.61</ele><time>2024-08-14T02:06:29Z</time></trkpt><trkpt lat="-39.3638495542" lon="-72.6239320077"><ele>108.59</ele><time>2024-08-14T02:06:30Z</time></trkpt><trkpt lat="-39.3638177030" lon="-72.6238910202"><ele>108.52</ele><time>2024-08-14T02:06:31Z</time></trkpt><trkpt lat="-39.3637798168" lon="-72.6238523796"><ele>108.68</ele><time>2024-08-14T02:06:32Z</time></trkpt><trkpt lat="-39.3637317047" lon="-72.6238126494"><ele>108.85</ele><time>2024-08-14T02:06:33Z</time></trkpt><trkpt lat="-39.3636809941" lon="-72.6237722486"><ele>108.62</ele><time>2024-08-14T02:06:34Z</time></trkpt><trkpt lat="-39.3632561993" lon="-72.6233798079"><ele>108.86</ele><time>2024-08-14T02:06:42Z</time></trkpt><trkpt lat="-39.3632261083" lon="-72.6233148482"><ele>108.87</ele><time>2024-08-14T02:06:43Z</time></trkpt><trkpt lat="-39.3632039800" lon="-72.6232438534"><ele>108.88</ele><time>2024-08-14T02:06:44Z</time></trkpt><trkpt lat="-39.3631916586" lon="-72.6231750380"><ele>108.89</ele><time>2024-08-14T02:06:45Z</time></trkpt><trkpt lat="-39.3631831929" lon="-72.6231027022"><ele>108.90</ele><time>2024-08-14T02:06:46Z</time></trkpt><trkpt lat="-39.3631988671" lon="-72.6223378535"><ele>108.84</ele><time>2024-08-14T02:06:57Z</time></trkpt><trkpt lat="-39.3632187322" lon="-72.6223135460"><ele>109.03</ele><time>2024-08-14T02:06:58Z</time></trkpt><trkpt lat="-39.3632411957" lon="-72.6223034877"><ele>108.93</ele><time>2024-08-14T02:06:59Z</time></trkpt><trkpt lat="-39.3632668443" lon="-72.6223052479"><ele>109.19</ele><time>2024-08-14T02:07:00Z</time></trkpt><trkpt lat="-39.3632925767" lon="-72.6223189943"><ele>109.29</ele><time>2024-08-14T02:07:01Z</time></trkpt><trkpt lat="-39.3633266073" lon="-72.6223348361"><ele>109.31</ele><time>2024-08-14T02:07:02Z</time></trkpt><trkpt lat="-39.3635152839" lon="-72.6224704552"><ele>109.44</ele><time>2024-08-14T02:07:09Z</time></trkpt><trkpt lat="-39.3635276053" lon="-72.6224624086"><ele>109.47</ele><time>2024-08-14T02:07:10Z</time></trkpt><trkpt lat="-39.3635375798" lon="-72.6224489976"><ele>109.53</ele><time>2024-08-14T02:07:11Z</time></trkpt><trkpt lat="-39.3635428604" lon="-72.6224270370"><ele>109.45</ele><time>2024-08-14T02:07:12Z</time></trkpt><trkpt lat="-39.3635427766" lon="-72.6224035677"><ele>109.39</ele><time>2024-08-14T02:07:13Z</time></trkpt><trkpt lat="-39.3635418545" lon="-72.6223809365"><ele>109.44</ele><time>2024-08-14T02:07:14Z</time></trkpt><trkpt lat="-39.3635722809" lon="-72.6218765974"><ele>109.86</ele><time>2024-08-14T02:07:24Z</time></trkpt><trkpt lat="-39.3634673394" lon="-72.6213897765"><ele>109.92</ele><time>2024-08-14T02:07:34Z</time></trkpt><trkpt lat="-39.3632632401" lon="-72.6212304365"><ele>109.43</ele><time>2024-08-14T02:07:40Z</time></trkpt><trkpt lat="-39.3632445484" lon="-72.6212404110"><ele>109.48</ele><time>2024-08-14T02:07:41Z</time></trkpt><trkpt lat="-39.3632313050" lon="-72.6212611143"><ele>109.40</ele><time>2024-08-14T02:07:42Z</time></trkpt><trkpt lat="-39.3632222526" lon="-72.6212973241"><ele>109.48</ele><time>2024-08-14T02:07:43Z</time></trkpt><trkpt lat="-39.3632165529" lon="-72.6213434245"><ele>109.60</ele><time>2024-08-14T02:07:44Z</time></trkpt><trkpt lat="-39.3632144574" lon="-72.6214019302"><ele>109.62</ele><time>2024-08-14T02:07:45Z</time></trkpt><trkpt lat="-39.3632143736" lon="-72.6214663871"><ele>109.61</ele><time>2024-08-14T02:07:46Z</time></trkpt><trkpt lat="-39.3631924130" lon="-72.6217218675"><ele>109.08</ele><time>2024-08-14T02:07:51Z</time></trkpt><trkpt lat="-39.3631709553" lon="-72.6217431575"><ele>109.26</ele><time>2024-08-14T02:07:52Z</time></trkpt><trkpt lat="-39.3631426245" lon="-72.6217507012"><ele>109.15</ele><time>2024-08-14T02:07:53Z</time></trkpt><trkpt lat="-39.3625827134" lon="-72.6217628550"><ele>109.51</ele><time>2024-08-14T02:08:07Z</time></trkpt><trkpt lat="-39.3625545502" lon="-72.6218265574"><ele>109.67</ele><time>2024-08-14T02:08:09Z</time></trkpt><trkpt lat="-39.3625492696" lon="-72.6218667906"><ele>109.61</ele><time>2024-08-14T02:08:10Z</time></trkpt><trkpt lat="-39.3625424802" lon="-72.6219100412"><ele>109.59</ele><time>2024-08-14T02:08:11Z</time></trkpt><trkpt lat="-39.3625242915" lon="-72.6219415572"><ele>109.52</ele><time>2024-08-14T02:08:12Z</time></trkpt><trkpt lat="-39.3625002354" lon="-72.6219628472"><ele>109.59</ele><time>2024-08-14T02:08:13Z</time></trkpt><trkpt lat="-39.3624758441" lon="-72.6219755039"><ele>109.58</ele><time>2024-08-14T02:08:14Z</time></trkpt><trkpt lat="-39.3624480162" lon="-72.6219891664"><ele>109.68</ele><time>2024-08-14T02:08:15Z</time></trkpt><trkpt lat="-39.3619854189" lon="-72.6220202632"><ele>109.37</ele><time>2024-08-14T02:08:27Z</time></trkpt><trkpt lat="-39.3617700879" lon="-72.6217427384"><ele>109.12</ele><time>2024-08-14T02:08:35Z</time></trkpt><trkpt lat="-39.3617819902" lon="-72.6217119768"><ele>109.05</ele><time>2024-08-14T02:08:36Z</time></trkpt><trkpt lat="-39.3618010171" lon="-72.6216891780"><ele>109.05</ele><time>2024-08-14T02:08:37Z</time></trkpt><trkpt lat="-39.3618302699" lon="-72.6216730010"><ele>109.25</ele><time>2024-08-14T02:08:38Z</time></trkpt><trkpt lat="-39.3618666474" lon="-72.6216616016"><ele>109.25</ele><time>2024-08-14T02:08:39Z</time></trkpt><trkpt lat="-39.3619114906" lon="-72.6216527168"><ele>109.16</ele><time>2024-08-14T02:08:40Z</time></trkpt><trkpt lat="-39.3619590160" lon="-72.6216443349"><ele>109.11</ele><time>2024-08-14T02:08:41Z</time></trkpt><trkpt lat="-39.3620047811" lon="-72.6216305047"><ele>109.03</ele><time>2024-08-14T02:08:42Z</time></trkpt><trkpt lat="-39.3624876626" lon="-72.6215398125"><ele>109.32</ele><time>2024-08-14T02:08:54Z</time></trkpt><trkpt lat="-39.3625547178" lon="-72.6213148423"><ele>109.49</ele><time>2024-08-14T02:09:00Z</time></trkpt><trkpt lat="-39.3625652790" lon="-72.6206688490"><ele>109.30</ele><time>2024-08-14T02:09:10Z</time></trkpt><trkpt lat="-39.3625817914" lon="-72.6206192281"><ele>109.05</ele><time>2024-08-14T02:09:11Z</time></trkpt><trkpt lat="-39.3626115471" lon="-72.6205820125"><ele>109.00</ele><time>2024-08-14T02:09:12Z</time></trkpt><trkpt lat="-39.3626518641" lon="-72.6205607224"><ele>109.29</ele><time>2024-08-14T02:09:13Z</time></trkpt><trkpt lat="-39.3626976293" lon="-72.6205597166"><ele>109.16</ele><time>2024-08-14T02:09:14Z</time></trkpt><trkpt lat="-39.3627497647" lon="-72.6205647457"><ele>109.41</ele><time>2024-08-14T02:09:15Z</time></trkpt><trkpt lat="-39.3631854560" lon="-72.6205834374"><ele>109.23</ele><time>2024-08-14T02:09:23Z</time></trkpt><trkpt lat="-39.3639068026" lon="-72.6206021290"><ele>109.34</ele><time>2024-08-14T02:09:38Z</time></trkpt><trkpt lat="-39.3639935553" lon="-72.6204224210"><ele>109.48</ele><time>2024-08-14T02:09:44Z</time></trkpt><trkpt lat="-39.3639985006" lon="-72.6203601435"><ele>109.61</ele><time>2024-08-14T02:09:45Z</time></trkpt><trkpt lat="-39.3639877718" lon="-72.6201598160"><ele>109.56</ele><time>2024-08-14T02:09:49Z</time></trkpt><trkpt lat="-39.3639650568" lon="-72.6201364305"><ele>109.58</ele><time>2024-08-14T02:09:50Z</time></trkpt><trkpt lat="-39.3639360555" lon="-72.6201250311"><ele>109.75</ele><time>2024-08-14T02:09:51Z</time></trkpt><trkpt lat="-39.3639000133" lon="-72.6201184094"><ele>109.80</ele><time>2024-08-14T02:09:52Z</time></trkpt><trkpt lat="-39.3638606183" lon="-72.6201117039"><ele>109.95</ele><time>2024-08-14T02:09:53Z</time></trkpt><trkpt lat="-39.3638107460" lon="-72.6201092731"><ele>109.98</ele><time>2024-08-14T02:09:54Z</time></trkpt><trkpt lat="-39.3630531058" lon="-72.6200700458"><ele>109.86</ele><time>2024-08-14T02:10:07Z</time></trkpt><trkpt lat="-39.3626457453" lon="-72.6200334169"><ele>108.77</ele><time>2024-08-14T02:10:16Z</time></trkpt><trkpt lat="-39.3626298197" lon="-72.6200026553"><ele>108.77</ele><time>2024-08-14T02:10:17Z</time></trkpt><trkpt lat="-39.3626221083" lon="-72.6199605782"><ele>108.87</ele><time>2024-08-14T02:10:18Z</time></trkpt><trkpt lat="-39.3626213539" lon="-72.6199097838"><ele>108.80</ele><time>2024-08-14T02:10:19Z</time></trkpt><trkpt lat="-39.3626244552" lon="-72.6198553853"><ele>108.71</ele><time>2024-08-14T02:10:20Z</time></trkpt><trkpt lat="-39.3626429792" lon="-72.6196975540"><ele>108.73</ele><time>2024-08-14T02:10:23Z</time></trkpt><trkpt lat="-39.3626616709" lon="-72.6196589973"><ele>108.61</ele><time>2024-08-14T02:10:24Z</time></trkpt><trkpt lat="-39.3626879901" lon="-72.6196315885"><ele>108.51</ele><time>2024-08-14T02:10:25Z</time></trkpt><trkpt lat="-39.3627241999" lon="-72.6196166687"><ele>108.56</ele><time>2024-08-14T02:10:26Z</time></trkpt><trkpt lat="-39.3627620861" lon="-72.6196080353"><ele>108.62</ele><time>2024-08-14T02:10:27Z</time></trkpt><trkpt lat="-39.3628053367" lon="-72.6196047664"><ele>108.67</ele><time>2024-08-14T02:10:28Z</time></trkpt><trkpt lat="-39.3628549576" lon="-72.6196014136"><ele>109.06</ele><time>2024-08-14T02:10:29Z</time></trkpt><trkpt lat="-39.3635160383" lon="-72.6196388807"><ele>109.68</ele><time>2024-08-14T02:10:40Z</time></trkpt><trkpt lat="-39.3639931362" lon="-72.6196587458"><ele>109.52</ele><time>2024-08-14T02:10:50Z</time></trkpt><trkpt lat="-39.3640124984" lon="-72.6196320914"><ele>109.91</ele><time>2024-08-14T02:10:51Z</time></trkpt><trkpt lat="-39.3640281726" lon="-72.6195932832"><ele>109.96</ele><time>2024-08-14T02:10:52Z</time></trkpt><trkpt lat="-39.3640366383" lon="-72.6195431594"><ele>109.80</ele><time>2024-08-14T02:10:53Z</time></trkpt><trkpt lat="-39.3640430924" lon="-72.6194846537"><ele>109.89</ele><time>2024-08-14T02:10:54Z</time></trkpt><trkpt lat="-39.3640456069" lon="-72.6194216218"><ele>110.00</ele><time>2024-08-14T02:10:55Z</time></trkpt><trkpt lat="-39.3640495464" lon="-72.6193581708"><ele>109.97</ele><time>2024-08-14T02:10:56Z</time></trkpt><trkpt lat="-39.3640473671" lon="-72.6192993298"><ele>109.95</ele><time>2024-08-14T02:10:57Z</time></trkpt><trkpt lat="-39.3640216347" lon="-72.6192316040"><ele>109.97</ele><time>2024-08-14T02:10:59Z</time></trkpt><trkpt lat="-39.3639985844" lon="-72.6192157622"><ele>110.05</ele><time>2024-08-14T02:11:00Z</time></trkpt><trkpt lat="-39.3639701698" lon="-72.6192071289"><ele>110.05</ele><time>2024-08-14T02:11:01Z</time></trkpt><trkpt lat="-39.3639368936" lon="-72.6192031894"><ele>110.06</ele><time>2024-08-14T02:11:02Z</time></trkpt><trkpt lat="-39.3638957385" lon="-72.6191886049"><ele>110.06</ele><time>2024-08-14T02:11:03Z</time></trkpt><trkpt lat="-39.3638519011" lon="-72.6191815641"><ele>110.07</ele><time>2024-08-14T02:11:04Z</time></trkpt><trkpt lat="-39.3630474899" lon="-72.6191563345"><ele>109.84</ele><time>2024-08-14T02:11:18Z</time></trkpt><trkpt lat="-39.3627415504" lon="-72.6191074681"><ele>108.96</ele><time>2024-08-14T02:11:26Z</time></trkpt><trkpt lat="-39.3627368566" lon="-72.6190691628"><ele>109.07</ele><time>2024-08-14T02:11:27Z</time></trkpt><trkpt lat="-39.3627443165" lon="-72.6190259960"><ele>109.15</ele><time>2024-08-14T02:11:28Z</time></trkpt><trkpt lat="-39.3627595715" lon="-72.6189824101"><ele>109.00</ele><time>2024-08-14T02:11:29Z</time></trkpt><trkpt lat="-39.3627790175" lon="-72.6189356390"><ele>109.20</ele><time>2024-08-14T02:11:30Z</time></trkpt><trkpt lat="-39.3629282992" lon="-72.6187157817"><ele>109.23</ele><time>2024-08-14T02:11:36Z</time></trkpt><trkpt lat="-39.3629622459" lon="-72.6187127642"><ele>109.40</ele><time>2024-08-14T02:11:37Z</time></trkpt><trkpt lat="-39.3629999645" lon="-72.6187160332"><ele>109.44</ele><time>2024-08-14T02:11:38Z</time></trkpt><trkpt lat="-39.3636703491" lon="-72.6187442802"><ele>110.05</ele><time>2024-08-14T02:11:52Z</time></trkpt><trkpt lat="-39.3640357163" lon="-72.6186644845"><ele>110.09</ele><time>2024-08-14T02:12:05Z</time></trkpt><trkpt lat="-39.3640402425" lon="-72.6186135225"><ele>110.27</ele><time>2024-08-14T02:12:06Z</time></trkpt><trkpt lat="-39.3640426733" lon="-72.6185601298"><ele>110.24</ele><time>2024-08-14T02:12:07Z</time></trkpt><trkpt lat="-39.3640342914" lon="-72.6183760632"><ele>110.22</ele><time>2024-08-14T02:12:11Z</time></trkpt><trkpt lat="-39.3640155159" lon="-72.6183531806"><ele>110.09</ele><time>2024-08-14T02:12:12Z</time></trkpt><trkpt lat="-39.3639877718" lon="-72.6183409430"><ele>110.17</ele><time>2024-08-14T02:12:13Z</time></trkpt><trkpt lat="-39.3639555015" lon="-72.6183383446"><ele>110.26</ele><time>2024-08-14T02:12:14Z</time></trkpt><trkpt lat="-39.3639205489" lon="-72.6183377579"><ele>110.21</ele><time>2024-08-14T02:12:15Z</time></trkpt><trkpt lat="-39.3632948399" lon="-72.6183127798"><ele>109.86</ele><time>2024-08-14T02:12:29Z</time></trkpt><trkpt lat="-39.3631377630" lon="-72.6182624884"><ele>109.57</ele><time>2024-08-14T02:12:34Z</time></trkpt><trkpt lat="-39.3631323986" lon="-72.6182317268"><ele>109.46</ele><time>2024-08-14T02:12:35Z</time></trkpt><trkpt lat="-39.3631342426" lon="-72.6181988697"><ele>109.53</ele><time>2024-08-14T02:12:36Z</time></trkpt><trkpt lat="-39.3631436303" lon="-72.6181634981"><ele>109.63</ele><time>2024-08-14T02:12:37Z</time></trkpt><trkpt lat="-39.3631602265" lon="-72.6181263663"><ele>109.75</ele><time>2024-08-14T02:12:38Z</time></trkpt><trkpt lat="-39.3631789181" lon="-72.6180853788"><ele>109.74</ele><time>2024-08-14T02:12:39Z</time></trkpt><trkpt lat="-39.3634343147" lon="-72.6178306527"><ele>110.34</ele><time>2024-08-14T02:12:49Z</time></trkpt><trkpt lat="-39.3639419228" lon="-72.6178623363"><ele>110.96</ele><time>2024-08-14T02:13:02Z</time></trkpt><trkpt lat="-39.3639831617" lon="-72.6178341731"><ele>110.90</ele><time>2024-08-14T02:13:04Z</time></trkpt><trkpt lat="-39.3640006799" lon="-72.6178029086"><ele>110.90</ele><time>2024-08-14T02:13:05Z</time></trkpt><trkpt lat="-39.3640106544" lon="-72.6177626755"><ele>110.98</ele><time>2024-08-14T02:13:06Z</time></trkpt><trkpt lat="-39.3640176952" lon="-72.6177121326"><ele>111.01</ele><time>2024-08-14T02:13:07Z</time></trkpt><trkpt lat="-39.3640197068" lon="-72.6176584046"><ele>111.07</ele><time>2024-08-14T02:13:08Z</time></trkpt><trkpt lat="-39.3640207127" lon="-72.6176059339"><ele>111.09</ele><time>2024-08-14T02:13:09Z</time></trkpt><trkpt lat="-39.3640023563" lon="-72.6174859051"><ele>111.03</ele><time>2024-08-14T02:13:12Z</time></trkpt><trkpt lat="-39.3639837485" lon="-72.6174623519"><ele>111.17</ele><time>2024-08-14T02:13:13Z</time></trkpt><trkpt lat="-39.3639591057" lon="-72.6174487732"><ele>111.17</ele><time>2024-08-14T02:13:14Z</time></trkpt><trkpt lat="-39.3639304396" lon="-72.6174431574"><ele>111.15</ele><time>2024-08-14T02:13:15Z</time></trkpt><trkpt lat="-39.3638956547" lon="-72.6174405590"><ele>111.10</ele><time>2024-08-14T02:13:16Z</time></trkpt><trkpt lat="-39.3638546672" lon="-72.6174410619"><ele>111.10</ele><time>2024-08-14T02:13:17Z</time></trkpt><trkpt lat="-39.3634737097" lon="-72.6174121443"><ele>110.59</ele><time>2024-08-14T02:13:26Z</time></trkpt><trkpt lat="-39.3634611368" lon="-72.6173832268"><ele>110.75</ele><time>2024-08-14T02:13:27Z</time></trkpt><trkpt lat="-39.3634570297" lon="-72.6173454244"><ele>110.77</ele><time>2024-08-14T02:13:28Z</time></trkpt><trkpt lat="-39.3634629808" lon="-72.6173002459"><ele>110.87</ele><time>2024-08-14T02:13:29Z</time></trkpt><trkpt lat="-39.3634725362" lon="-72.6172503736"><ele>110.82</ele><time>2024-08-14T02:13:30Z</time></trkpt><trkpt lat="-39.3634841032" lon="-72.6171968132"><ele>111.14</ele><time>2024-08-14T02:13:31Z</time></trkpt><trkpt lat="-39.3636967521" lon="-72.6169601921"><ele>111.06</ele><time>2024-08-14T02:13:41Z</time></trkpt><trkpt lat="-39.3639989197" lon="-72.6170147583"><ele>111.28</ele><time>2024-08-14T02:13:51Z</time></trkpt><trkpt lat="-39.3640233111" lon="-72.6170608588"><ele>111.09</ele><time>2024-08-14T02:13:52Z</time></trkpt><trkpt lat="-39.3640347105" lon="-72.6171269920"><ele>110.90</ele><time>2024-08-14T02:13:53Z</time></trkpt><trkpt lat="-39.3640374765" lon="-72.6171942148"><ele>110.91</ele><time>2024-08-14T02:13:54Z</time></trkpt><trkpt lat="-39.3640393205" lon="-72.6172688138"><ele>110.91</ele><time>2024-08-14T02:13:55Z</time></trkpt><trkpt lat="-39.3640153483" lon="-72.6185544301"><ele>111.24</ele><time>2024-08-14T02:14:10Z</time></trkpt><trkpt lat="-39.3640093133" lon="-72.6190068014"><ele>110.89</ele><time>2024-08-14T02:14:16Z</time></trkpt><trkpt lat="-39.3639835808" lon="-72.6191669796"><ele>110.50</ele><time>2024-08-14T02:14:24Z</time></trkpt><trkpt lat="-39.3640123308" lon="-72.6191913709"><ele>111.13</ele><time>2024-08-14T02:14:48Z</time></trkpt><trkpt lat="-39.3640206289" lon="-72.6191927958"><ele>111.35</ele><time>2024-08-14T02:15:53Z</time></trkpt><trkpt lat="-39.3640305195" lon="-72.6191948075"><ele>112.14</ele><time>2024-08-14T02:16:46Z</time></trkpt><trkpt lat="-39.3640109897" lon="-72.6191858388"><ele>111.58</ele><time>2024-08-14T02:17:11Z</time></trkpt><trkpt lat="-39.3640078045" lon="-72.6192159299"><ele>111.60</ele><time>2024-08-14T02:17:17Z</time></trkpt><trkpt lat="-39.3640077207" lon="-72.6192387287"><ele>111.97</ele><time>2024-08-14T02:17:18Z</time></trkpt><trkpt lat="-39.3640056252" lon="-72.6192668080"><ele>110.74</ele><time>2024-08-14T02:17:19Z</time></trkpt><trkpt lat="-39.3640036974" lon="-72.6192958932"><ele>110.75</ele><time>2024-08-14T02:17:20Z</time></trkpt><trkpt lat="-39.3640029430" lon="-72.6193283312"><ele>110.75</ele><time>2024-08-14T02:17:21Z</time></trkpt><trkpt lat="-39.3640099000" lon="-72.6200304832"><ele>111.57</ele><time>2024-08-14T02:17:36Z</time></trkpt><trkpt lat="-39.3639961537" lon="-72.6210635528"><ele>111.58</ele><time>2024-08-14T02:17:50Z</time></trkpt><trkpt lat="-39.3639591895" lon="-72.6214865874"><ele>111.35</ele><time>2024-08-14T02:17:55Z</time></trkpt><trkpt lat="-39.3639201298" lon="-72.6217028406"><ele>111.33</ele><time>2024-08-14T02:17:58Z</time></trkpt><trkpt lat="-39.3639192078" lon="-72.6217780262"><ele>111.18</ele><time>2024-08-14T02:17:59Z</time></trkpt><trkpt lat="-39.3638981692" lon="-72.6228672545"><ele>111.24</ele><time>2024-08-14T02:18:12Z</time></trkpt><trkpt lat="-39.3638674915" lon="-72.6242523640"><ele>111.38</ele><time>2024-08-14T02:18:28Z</time></trkpt><trkpt lat="-39.3638483807" lon="-72.6247126982"><ele>114.05</ele><time>2024-08-14T02:18:37Z</time></trkpt><trkpt lat="-39.3638621271" lon="-72.6247586310"><ele>113.24</ele><time>2024-08-14T02:18:38Z</time></trkpt><trkpt lat="-39.3638844229" lon="-72.6248083357"><ele>113.09</ele><time>2024-08-14T02:18:39Z</time></trkpt><trkpt lat="-39.3639135920" lon="-72.6248597167"><ele>112.65</ele><time>2024-08-14T02:18:40Z</time></trkpt><trkpt lat="-39.3641554937" lon="-72.6252092421"><ele>113.51</ele><time>2024-08-14T02:18:47Z</time></trkpt><trkpt lat="-39.3641940504" lon="-72.6252353098"><ele>113.43</ele><time>2024-08-14T02:18:48Z</time></trkpt><trkpt lat="-39.3642279133" lon="-72.6252450328"><ele>113.02</ele><time>2024-08-14T02:18:49Z</time></trkpt><trkpt lat="-39.3642593455" lon="-72.6252358127"><ele>113.00</ele><time>2024-08-14T02:18:50Z</time></trkpt><trkpt lat="-39.3642815575" lon="-72.6252099127"><ele>112.85</ele><time>2024-08-14T02:18:51Z</time></trkpt><trkpt lat="-39.3642932922" lon="-72.6251694281"><ele>112.49</ele><time>2024-08-14T02:18:52Z</time></trkpt><trkpt lat="-39.3642974831" lon="-72.6251253393"><ele>112.41</ele><time>2024-08-14T02:18:53Z</time></trkpt><trkpt lat="-39.3642981537" lon="-72.6250709407"><ele>112.29</ele><time>2024-08-14T02:18:54Z</time></trkpt><trkpt lat="-39.3642961420" lon="-72.6250095014"><ele>111.89</ele><time>2024-08-14T02:18:55Z</time></trkpt><trkpt lat="-39.3642822281" lon="-72.6238034293"><ele>112.55</ele><time>2024-08-14T02:19:11Z</time></trkpt><trkpt lat="-39.3642875925" lon="-72.6227242593"><ele>112.25</ele><time>2024-08-14T02:19:26Z</time></trkpt><trkpt lat="-39.3643217068" lon="-72.6218060218"><ele>112.76</ele><time>2024-08-14T02:19:37Z</time></trkpt><trkpt lat="-39.3643582519" lon="-72.6203897316"><ele>112.60</ele><time>2024-08-14T02:19:51Z</time></trkpt><trkpt lat="-39.3643815536" lon="-72.6184271928"><ele>112.44</ele><time>2024-08-14T02:20:10Z</time></trkpt><trkpt lat="-39.3644060288" lon="-72.6165601239"><ele>113.53</ele><time>2024-08-14T02:20:27Z</time></trkpt><trkpt lat="-39.3644048553" lon="-72.6150788739"><ele>116.57</ele><time>2024-08-14T02:20:41Z</time></trkpt><trkpt lat="-39.3644122314" lon="-72.6144670788"><ele>119.57</ele><time>2024-08-14T02:20:48Z</time></trkpt><trkpt lat="-39.3645180948" lon="-72.6133944467"><ele>122.73</ele><time>2024-08-14T02:21:01Z</time></trkpt><trkpt lat="-39.3645403069" lon="-72.6127615292"><ele>126.28</ele><time>2024-08-14T02:21:09Z</time></trkpt><trkpt lat="-39.3645546399" lon="-72.6120631490"><ele>127.20</ele><time>2024-08-14T02:21:18Z</time></trkpt><trkpt lat="-39.3647457473" lon="-72.6117685251"><ele>127.96</ele><time>2024-08-14T02:21:24Z</time></trkpt><trkpt lat="-39.3652865477" lon="-72.6114700455"><ele>130.98</ele><time>2024-08-14T02:21:34Z</time></trkpt><trkpt lat="-39.3655214924" lon="-72.6115850452"><ele>132.12</ele><time>2024-08-14T02:21:41Z</time></trkpt><trkpt lat="-39.3655248452" lon="-72.6116419584"><ele>132.11</ele><time>2024-08-14T02:21:42Z</time></trkpt><trkpt lat="-39.3653241824" lon="-72.6120092534"><ele>132.69</ele><time>2024-08-14T02:21:52Z</time></trkpt><trkpt lat="-39.3651161436" lon="-72.6121294498"><ele>130.79</ele><time>2024-08-14T02:21:56Z</time></trkpt><trkpt lat="-39.3647836335" lon="-72.6123096608"><ele>127.52</ele><time>2024-08-14T02:22:03Z</time></trkpt><trkpt lat="-39.3647482619" lon="-72.6123275142"><ele>127.52</ele><time>2024-08-14T02:22:04Z</time></trkpt><trkpt lat="-39.3645616807" lon="-72.6125136763"><ele>126.78</ele><time>2024-08-14T02:22:14Z</time></trkpt><trkpt lat="-39.3645650335" lon="-72.6128167659"><ele>126.06</ele><time>2024-08-14T02:22:20Z</time></trkpt><trkpt lat="-39.3646669574" lon="-72.6128595136"><ele>126.55</ele><time>2024-08-14T02:22:26Z</time></trkpt><trkpt lat="-39.3651721347" lon="-72.6125547476"><ele>130.05</ele><time>2024-08-14T02:22:39Z</time></trkpt><trkpt lat="-39.3653874658" lon="-72.6124152727"><ele>131.56</ele><time>2024-08-14T02:22:48Z</time></trkpt><trkpt lat="-39.3654779904" lon="-72.6124001853"><ele>131.53</ele><time>2024-08-14T02:22:54Z</time></trkpt><trkpt lat="-39.3654999509" lon="-72.6125332899"><ele>130.96</ele><time>2024-08-14T02:22:58Z</time></trkpt><trkpt lat="-39.3653795868" lon="-72.6129323523"><ele>128.91</ele><time>2024-08-14T02:23:10Z</time></trkpt><trkpt lat="-39.3649031594" lon="-72.6131948736"><ele>125.64</ele><time>2024-08-14T02:23:21Z</time></trkpt><trkpt lat="-39.3645342719" lon="-72.6134681236"><ele>123.03</ele><time>2024-08-14T02:23:33Z</time></trkpt><trkpt lat="-39.3644612655" lon="-72.6136852149"><ele>122.10</ele><time>2024-08-14T02:23:37Z</time></trkpt><trkpt lat="-39.3645918556" lon="-72.6138712093"><ele>121.85</ele><time>2024-08-14T02:23:45Z</time></trkpt><trkpt lat="-39.3650503457" lon="-72.6136145554"><ele>125.27</ele><time>2024-08-14T02:23:54Z</time></trkpt><trkpt lat="-39.3654735480" lon="-72.6133612543"><ele>128.46</ele><time>2024-08-14T02:24:05Z</time></trkpt><trkpt lat="-39.3656279426" lon="-72.6132837217"><ele>128.56</ele><time>2024-08-14T02:24:08Z</time></trkpt><trkpt lat="-39.3657945748" lon="-72.6131184306"><ele>130.11</ele><time>2024-08-14T02:24:12Z</time></trkpt><trkpt lat="-39.3658882845" lon="-72.6128290035"><ele>132.12</ele><time>2024-08-14T02:24:19Z</time></trkpt><trkpt lat="-39.3658886198" lon="-72.6127082203"><ele>131.93</ele><time>2024-08-14T02:24:22Z</time></trkpt><trkpt lat="-39.3658978399" lon="-72.6119552739"><ele>130.67</ele><time>2024-08-14T02:24:32Z</time></trkpt><trkpt lat="-39.3659049645" lon="-72.6119141188"><ele>130.11</ele><time>2024-08-14T02:24:33Z</time></trkpt><trkpt lat="-39.3659231532" lon="-72.6118720416"><ele>130.12</ele><time>2024-08-14T02:24:44Z</time></trkpt><trkpt lat="-39.3659408391" lon="-72.6118732151"><ele>129.48</ele><time>2024-08-14T02:25:12Z</time></trkpt></trkseg></trk></gpx>